BSN,Building,Name,eMail,Internet,Notizen,AktuellerTarif,AktuelleBandbreite,Modified,LetzterTarif,LetzteBandbreite,Latest,LatestSource,Standort,Straße,PLZ,lat,lng,TelekomTarif,TelekomDownload,TelekomUpload,TelekomLTE
01G01,01G01,Grundschule am Arkonaplatz,sekretariat@arkonaplatz.schule.berlin.de,http://www.grundschuleamarkonaplatz.de,,VDSL 100,100,September 2019,,,,,Hauptstandort,Ruppiner Str. 47-48,10115,52.53684,13.40039,MagentaZuhause via Funk,50 MBit/s,10 MBit/s,0
01G02,01G02,Papageno-Grundschule,sekretariat@papageno-grundschule.de,http://www.papageno-grundschule.de,,DSL 16000,16,September 2019,,,,,Hauptstandort,Bergstr. 58,10115,52.532833,13.391048,MagentaZuhause L,100 MBit/s,40 MBit/s,300 MBit/s
01G04,01G04,Kastanienbaum-Grundschule,sekretariat@kastanienbaumgrundschule.de,http://www.kastanienbaumgrundschule.de,,VDSL 100,100,September 2019,,,,,Hauptstandort,Gipsstr. 23 A,10119,52.52678,13.4018,MagentaZuhause XL,175 MBit/s,40 MBit/s,300 MBit/s
01G05,01G05,Grundschule Neues Tor,schulleitung@01G05.schule.berlin.de,http://www.neues-tor.de,,< DSL 16000,6,September 2019,,,,,Hauptstandort,Hannoversche Str. 20,10115,52.52759,13.38033,MagentaZuhause XL,250 MBit/s,40 MBit/s,300 MBit/s
01G07,01G07,GutsMuths-Grundschule,sekretariat@gutsmuths.schule.berlin.de,http://www.gutsmuths-grundschule.de,,< DSL 16000,6,September 2019,,,,,Hauptstandort,Singerstr. 8,10179,52.516365,13.42412,MagentaZuhause XL,250 MBit/s,40 MBit/s,300 MBit/s
01G08,01G08,Grundschule am Brandenburger Tor,sekretariat@gsabt.schule.berlin.de,http://www.Grundschule-am-Brandenburger-Tor.de,,nicht bekannt,-,September 2019,250 Mbit/s,250,11. Januar 2021,Elternteil,Hauptstandort,Wilhelmstr. 52,10117,52.51318,13.38276,MagentaZuhause XL,250 MBit/s,40 MBit/s,300 MBit/s
01G10,01G10,City-Grundschule,Sekretariat@city.schule.berlin.de,http://www.city-grundschule.de,,Sonstige,-,September 2019,,,,,Hauptstandort,Sebastianstr. 57,10179,52.50737,13.40892,MagentaZuhause GIGA,1000 MBit/s,200 MBit/s,0
01G11,01G11,Kurt-Tucholsky-Grundschule,01g11@01g11.schule.berlin.de,http://www.kurt-tucholsky-grundschule.de,,< DSL 16000,6,September 2019,,,,,Hauptstandort,Rathenower Str. 18,10559,52.53026,13.35303,MagentaZuhause L,100 MBit/s,40 MBit/s,300 MBit/s
01G15,01G15,Anne-Frank-Grundschule,sekretariat@anne-frank-grundschule.de,http://anne-frank-grundschule.de,,DSL 16000,16,September 2019,,,,,Hauptstandort,Paulstr. 20 B,10557,52.51827,13.35527,MagentaZuhause XL,250 MBit/s,40 MBit/s,300 MBit/s
01G16,01G16,Moabiter Grundschule,kontakt@moabiter-grundschule.de,http://www.moabiter-grundschule.de,,< DSL 16000,6,September 2019,,,,,Hauptstandort,Paulstr. 28,10557,52.521974,13.35657,MagentaZuhause L,100 MBit/s,40 MBit/s,300 MBit/s
01G18,01G18,Carl-Bolle-Grundschule,info@carl-bolle-grundschule.de,http://www.carl-bolle-grundschule.de,,DSL 16000,16,September 2019,,,,,Hauptstandort,Waldenserstr. 20-21,10551,52.528894,13.331807,MagentaZuhause XL,250 MBit/s,40 MBit/s,300 MBit/s
01G19,01G19,Hansa-Grundschule,sekretariat@hansa.online,http://www.hansa-grundschule-online.de,,DSL 16000,16,September 2019,,,,,Hauptstandort,Lessingstr. 5,10555,52.5214,13.34019,MagentaZuhause XL,250 MBit/s,40 MBit/s,300 MBit/s
01G24,01G24,Gottfried-Röhl-Grundschule,01G24@01G24.schule.berlin.de,,,nicht bekannt,-,September 2019,,,,,Hauptstandort,Ungarnstr. 75,13349,52.55719,13.35717,MagentaZuhause XL,250 MBit/s,40 MBit/s,300 MBit/s
01G25,01G25,Rudolf-Wissell-Grundschule,Schulleitung@rudolf-wissell.schule.berlin.de,http://www.rudolf-wissell-grundschule.de,,VDSL 50,50,September 2019,,,,,Hauptstandort,Ellerbeker Str. 7-8,13357,52.55158,13.39611,MagentaZuhause via Funk,50 MBit/s,10 MBit/s,0
01G27,01G27,Gesundbrunnen-Grundschule,sekretariat@gesundbrunnen-grundschule.de,http://www.gesundbrunnen-grundschule.de,,< DSL 16000,6,September 2019,,,,,Hauptstandort,Prinzenallee 8,13357,52.55338,13.38292,MagentaZuhause XL,175 MBit/s,40 MBit/s,300 MBit/s
01G28,01G28,Brüder-Grimm-Grundschule,sekretariat@bggs.schule.berlin.de,http://bggs-berlin.de,,DSL 16000,16,September 2019,,,,,Hauptstandort,Tegeler Str. 18-19,13353,52.54146,13.35783,MagentaZuhause XL,250 MBit/s,40 MBit/s,300 MBit/s
01G29,01G29,Wilhelm-Hauff-Grundschule,01g29@01g29.schule.berlin.de,http://wilhelm-hauff-grundschule.de,,nicht bekannt,-,September 2019,,,,,Hauptstandort,Gotenburger Str. 8,13359,52.557813,13.384347,MagentaZuhause XL,175 MBit/s,40 MBit/s,300 MBit/s
01G31,01G31,Wedding-Grundschule,plorenz@wedding-schule.de,http://www.wedding-schule.de,,DSL 16000,16,September 2019,,,,,Hauptstandort,Antonstr. 10,13347,52.546206,13.362468,MagentaZuhause XL,250 MBit/s,50 MBit/s,300 MBit/s
01G32,01G32,Carl-Kraemer-Grundschule,carl-kraemer-grundschule@t-online.de,http://www.carl-kraemer-gs.de,,nicht bekannt,-,September 2019,,,,,Hauptstandort,Zechliner Str. 4,13359,52.56107,13.38284,MagentaZuhause L,100 MBit/s,40 MBit/s,300 MBit/s
01G35,01G35,Humboldthain-Grundschule,sekretariat@humboldthain.schule.berlin.de,http://www.humboldthain-grundschule.de,,< DSL 16000,6,September 2019,,,,,Hauptstandort,Grenzstr. 7,13355,52.54323,13.380143,MagentaZuhause via Funk,50 MBit/s,10 MBit/s,0
01G36,01G36,Andersen-Grundschule,info@andersen-grundschule.de,http://www.andersen-grundschule.de,,VDSL 100,100,September 2019,,,,,Hauptstandort,Kattegatstr. 26,13359,52.56553,13.38891,MagentaZuhause XL,250 MBit/s,40 MBit/s,300 MBit/s
01G37,01G37,Heinrich-Seidel-Grundschule,info@hsgs.berlin,http://www.hsgs.berlin,,DSL 16000,16,September 2019,,,,,Hauptstandort,Ramlerstr. 9-10,13355,52.54695,13.39407,MagentaZuhause via Funk,50 MBit/s,10 MBit/s,0
01G38,01G38,Gustav-Falke-Grundschule,info@gustav-falke-schule.de,http://www.gustav-falke-schule.de,,DSL 16000,16,September 2019,,,,,Hauptstandort,Strelitzer Str. 42,13355,52.53795,13.39162,MagentaZuhause XL,250 MBit/s,40 MBit/s,300 MBit/s
01G39,01G39,Vineta-Grundschule,info@vineta.schule.berlin.de,http://www.vineta-grundschule.de,,DSL 16000,16,September 2019,,,,,Hauptstandort,Demminer Str. 27,13355,52.54222,13.3969,MagentaZuhause L,100 MBit/s,40 MBit/s,300 MBit/s
01G40,01G40,Möwensee-Grundschule,sekretariat@moewensee-schule.de,http://www.moewensee-schule.de,,< DSL 16000,6,September 2019,,,,,Hauptstandort,Afrikanische Str. 123-125,13351,52.55575,13.33375,MagentaZuhause XL,175 MBit/s,40 MBit/s,300 MBit/s
01G41,01G41,Erika-Mann-Grundschule,erika.mann.grundschule@googlemail.com,http://www.erika-mann-grundschule.com,,DSL 16000,16,September 2019,,,,,Hauptstandort,Utrechter Str. 25-27,13347,52.55099,13.35786,MagentaZuhause via Funk,50 MBit/s,10 MBit/s,0
01G42,01G42,Anna-Lindh-Schule (Grundschule),01G42@01G42.schule.berlin.de,http://www.anna-lindh-schule.de,,< DSL 16000,6,September 2019,,,,,Hauptstandort,Guineastr. 17-18,13351,52.550375,13.341886,MagentaZuhause via Funk,50 MBit/s,10 MBit/s,0
01G43,01G43,Albert-Gutzmann-Schule (Grundschule),info@gutzmannschule.de,http://www.gutzmannschule.de,,DSL 16000,16,September 2019,,,,,Hauptstandort,Orthstr. 1,13357,52.549234,13.373261,MagentaZuhause L,100 MBit/s,40 MBit/s,300 MBit/s
01G44,01G44,Allegro-Grundschule,berlin@allegro-grundschule.de,http://www.allegro-grundschule.de,,Kein Internet,0,September 2019,,,,,Hauptstandort,Lützowstr. 83-85,10785,52.503571,13.363001,MagentaZuhause via Funk,50 MBit/s,10 MBit/s,0
01G45,01G45,Leo-Lionni-Grundschule,info@leo-lionni-grundschule.de,http://www.leo-lionni-grundschule.de,,DSL 16000,16,September 2019,,,,,Hauptstandort,Müllerstr. 158,13353,52.544342,13.361352,MagentaZuhause XL,250 MBit/s,40 MBit/s,300 MBit/s
01G46,01G46a,Grundschule am Koppenplatz,sekretariat@koppenplatz.schule.berlin.de,http://www.schule-am-koppenplatz.de,,VDSL 50,50,September 2019,,,,,Hauptstandort,Koppenplatz 12,10115,52.52778,13.39745,MagentaZuhause XL,250 MBit/s,40 MBit/s,300 MBit/s
01G46,01G46b,Grundschule am Koppenplatz,,,,unbekannt,-,September 2019,,,,,Filiale,Auguststr. 21,10117,52.526814,13.396224,MagentaZuhause XL,250 MBit/s,40 MBit/s,300 MBit/s
01G46,01G46c,Grundschule am Koppenplatz,,,,,-,September 2019,,,,,Filiale,Bergstr. 5-9,10115,52.529508,13.395273,MagentaZuhause XL,250 MBit/s,40 MBit/s,300 MBit/s
01G47,01G47,Miriam-Makeba-Grundschule,01G47@01G47.schule.berlin.de,http://www.miriam-makeba-schule.de,,DSL 16000,16,September 2019,,,,,Hauptstandort,Zinzendorfstr. 15-16,10555,52.52232,13.331446,MagentaZuhause XL,175 MBit/s,40 MBit/s,300 MBit/s
01G48,01G48,48. Schule (Grundschule),01G48@01G48.schule.berlin.de,http://www.48-schule-berlin.de,,,-,September 2019,,,,,Hauptstandort,Chausseestr. 82,13353,52.538256,13.372242,MagentaZuhause S,16 MBit/s,"2,4 MBit/s",0
01K01,01K01,Willy-Brandt-Schule,kontakt@willy-brandt-teamschule.de,http://www.willy-brandt-teamschule.de,,nicht bekannt,-,September 2019,,,,,Hauptstandort,Grüntaler Str. 5,13357,52.55101,13.386048,MagentaZuhause L,100 MBit/s,40 MBit/s,300 MBit/s
01K02,01K02,Ernst-Schering-Schule,info@ernst-schering-schule.de,http://www.ernst-schering-schule.de,,DSL 16000,16,September 2019,,,,,Hauptstandort,Lütticher Str. 47/48,13353,52.54701,13.34782,MagentaZuhause XL,250 MBit/s,40 MBit/s,300 MBit/s
01K03,01K03,Ernst-Reuter-Schule,info@ernst-reuter-oberschule.de,http://ernst-reuter-schule.berlin,,DSL 16000,16,September 2019,,,,,Hauptstandort,Stralsunder Str. 57,13355,52.538896,13.394373,MagentaZuhause L,100 MBit/s,40 MBit/s,300 MBit/s
01K04,01K04,Heinrich-von-Stephan-Gemeinschaftsschule,sekretariat@hvs.schule.berlin.de,http://www.hvs-schule-berlin.de,,VDSL 50,50,September 2019,,,,,Hauptstandort,Neues Ufer 6,10553,52.524775,13.316714,MagentaZuhause XL,175 MBit/s,40 MBit/s,300 MBit/s
01K06,01K06,Herbert-Hoover-Schule (Integrierte Sekundarschule),schulleitung@hhs-berlin.de,http://www.hhs-berlin.de,,DSL 16000,16,September 2019,,,,,Hauptstandort,Pankstraße 18-19,13357,52.546324,13.373398,MagentaZuhause via Funk,50 MBit/s,10 MBit/s,0
01K07,01K07,Hemingway-Schule,sekretariat@hemingway-schule.de,http://www.hemingway-oberschule.de,,VDSL 50,50,September 2019,,,,,Hauptstandort,Gartenstr. 10-17,10115,52.530483,13.391682,MagentaZuhause M,50 MBit/s,10 MBit/s,300 MBit/s
01K08,01K08,Schule am Schillerpark (Integrierte Sekundarschule),sekretariat@schule-am-schillerpark.de,http://www.Schule-am-Schillerpark.de,,< DSL 16000,6,September 2019,,,,,Hauptstandort,Ofener Str. 6,13349,52.55628,13.3457,MagentaZuhause L,100 MBit/s,40 MBit/s,300 MBit/s
01K09,01K09,Hedwig-Dohm-Schule (Integrierte Sekundarschule),hedwig-dohm-os@web.de,http://www.hedwig-dohm-os.de,,DSL 16000,16,September 2019,,,,,Hauptstandort,Stephanstraße 27,10559,52.53367,13.34651,MagentaZuhause XL,250 MBit/s,40 MBit/s,300 MBit/s
01K10,01K10a,Theodor-Heuss-Gemeinschaftsschule,sekretariat@thgberlin.de,http://www.thgberlin.de,,DSL 16000,16,September 2019,,,,,Hauptstandort,Quitzowstr. 141,10559,52.535722,13.354875,MagentaZuhause L,100 MBit/s,40 MBit/s,300 MBit/s
01K10,01K10b,Theodor-Heuss-Gemeinschaftsschule,,,,unbekannt,-,September 2019,,,,,Filiale,Siemensstr. 20,10551,52.532971,13.335494,MagentaZuhause XL,250 MBit/s,40 MBit/s,300 MBit/s
01S01,01S01,Schule am Zille-Park,info@schule-am-zille-park.de,http://www.schule-am-zille-park.de,,< DSL 16000,6,September 2019,,,,,Hauptstandort,Ravenéstraße 10-12,13347,52.542859,13.372782,MagentaZuhause XL,175 MBit/s,40 MBit/s,0
01S05,01S05,Schule in der Charité,sekretariat@sidc.schule.berlin.de,klinikschulecharite.wordpress.com,,< DSL 16000,6,September 2019,,,,,Hauptstandort,Augustenburger Platz 1,13353,52.542216,13.347104,MagentaZuhause XL,250 MBit/s,40 MBit/s,300 MBit/s
01S06,01S06,Albert-Gutzmann-Schule,info@gutzmannschule.de,http://www.gutzmannschule.de,,DSL 16000,16,September 2019,,,,,Hauptstandort,Orthstraße 1,13357,52.549234,13.373261,MagentaZuhause L,100 MBit/s,40 MBit/s,300 MBit/s
01S07,01S07,Charlotte-Pfeffer-Schule,charlotte-pfeffer-schule@gmx.de,http://www.charlotte-pfeffer.schule-berlin.net,,DSL 16000,16,September 2019,,,,,Hauptstandort,Berolinastraße 8,10178,52.52226,13.42328,MagentaZuhause XL,250 MBit/s,40 MBit/s,300 MBit/s
01Y02,01Y02,John-Lennon-Gymnasium,sekretariat@jlgym-berlin.de,http://www.jlgym-berlin.de,,SVDSL 250,250,September 2019,,,,,Hauptstandort,Zehdenicker Straße 17,10119,52.530923,13.404105,MagentaZuhause XL,250 MBit/s,40 MBit/s,300 MBit/s
01Y04,01Y04,Musikgymnasium Carl Philipp Emanuel Bach,bach.musikgymnasium@berlin.de,http://musikgymnasium-berlin.de,,,,September 2019,,,,,,Rheinsberger Straße 4-5,10115,52.536635,13.395435,MagentaZuhause via Funk,50 MBit/s,10 MBit/s,0
01Y07,01Y07,Französisches Gymnasium,mdormann-farnir@fg-berlin.eu,http://www.fg-berlin.eu,,,,September 2019,,,,,,Derfflingerstr. 7,10785,52.50318,13.35549,MagentaZuhause L,100 MBit/s,40 MBit/s,300 MBit/s
01Y08,01Y08,Lessing-Gymnasium,post@lessing-gymnasium-berlin.de,http://www.lessing-gymnasium-berlin.eu,,VDSL 50,50,September 2019,,,,,Hauptstandort,Schöningstraße 17,13349,52.55734,13.34371,MagentaZuhause XL,250 MBit/s,40 MBit/s,300 MBit/s
01Y09,01Y09,Diesterweg-Gymnasium,sekretariat@diesterweg-gymnasium-berlin.de,http://www.diesterweg-gymnasium-berlin.de,,VDSL 100,100,September 2019,,,,,Hauptstandort,Böttgerstraße 2,13357,52.550012,13.378338,MagentaZuhause XL,250 MBit/s,40 MBit/s,300 MBit/s
01Y11,01Y11,Max-Planck-Gymnasium,sekretariat@mpg-berlin.de,http://www.mpg-berlin.de,,DSL 16000,16,September 2019,250 Mbit/s,250,6. Januar 2021,Schule,Hauptstandort,Singerstraße 8a,10179,52.515983,13.422886,MagentaZuhause XL,250 MBit/s,40 MBit/s,300 MBit/s
01Y12,01Y12,Gymnasium Tiergarten,sekretariat@gymnasium-tiergarten.de,http://gymnasium-tiergarten.de,,VDSL 50,50,September 2019,,,,,Hauptstandort,Altonaer Straße 26,10555,52.51935,13.3394,MagentaZuhause XL,250 MBit/s,40 MBit/s,300 MBit/s
02G01,02G01a,Spartacus-Grundschule,schulleitung@grundschule-friedrichshain.de,http://www.grundschule-friedrichshain.de,,DSL 16000,16,September 2019,,,,,Hauptstandort,Friedenstr. 40-45,10249,52.52106,13.43582,MagentaZuhause L,100 MBit/s,40 MBit/s,300 MBit/s
02G01,02G01b,Spartacus-Grundschule,,,,,,September 2019,,,,,Filiale,Pufendorfstraße,10249,52.521224,13.438977,MagentaZuhause S,16 MBit/s,"2,4 MBit/s",300 MBit/s
02G02,02G02a,Hausburg-Grundschule,sek@hausburg-gs.schule-berlin-fk.de,http://www.hausburgschule.de,,VDSL 100,100,September 2019,,,,,Hauptstandort,Hausburgstr. 20,10249,52.524208,13.454324,MagentaZuhause XL,250 MBit/s,40 MBit/s,300 MBit/s
02G02,02G02b,Hausburg-Grundschule,,,,VDSL 100,100,September 2019,,,,,2. Anschluss,,,52.524033,13.453599,MagentaZuhause XL,250 MBit/s,40 MBit/s,300 MBit/s
02G03,02G03,Justus-von-Liebig-Grundschule,02g03@02g03.schule.berlin.de,http://www.jvl-gs.de,,< DSL 16000,6,September 2019,,,,,Hauptstandort,Liebigstr. 18A,10247,52.518699,13.457697,MagentaZuhause XL,250 MBit/s,40 MBit/s,300 MBit/s
02G04,02G04a,Pettenkofer-Grundschule,Sekretariat@pettenkofer.schule.berlin.de,http://www.pettenkofer-grundschule.de,,DSL 16000,16,September 2019,,,,,Hauptstandort,Pettenkoferstr. 20-24,10247,52.518656,13.471,MagentaZuhause L,100 MBit/s,40 MBit/s,300 MBit/s
02G04,02G04b,Pettenkofer-Grundschule,,,,DSL 16000,16,September 2019,,,,,2. Anschluss,,,52.519228,13.470568,MagentaZuhause L,100 MBit/s,40 MBit/s,300 MBit/s
02G07,02G07a,Ludwig-Hoffmann-Grundschule,schulleitung@l-hoffmann.schule.berlin.de,http://www.ludwig-hoffmann-grundschule.de,,VDSL 100,100,September 2019,,,,,Hauptstandort,Lasdehner Str. 21-23,10243,52.513902,13.448500,MagentaZuhause XL,175 MBit/s,40 MBit/s,300 MBit/s
02G07,02G07b,Ludwig-Hoffmann-Grundschule,,,,,,September 2019,,,,,Filiale,Lasdehner Str. 17,10243,52.514523,13.449147,MagentaZuhause XL,175 MBit/s,40 MBit/s,300 MBit/s
02G07,02G07c,Ludwig-Hoffmann-Grundschule,,,,,,September 2019,,,,,Filiale,Lasdehner Str. 13,10243,52.514798,13.449818,MagentaZuhause via Funk,50 MBit/s,10 MBit/s,0
02G08,02G08,Grundschule am Traveplatz,sek@gs-am-traveplatz.schule-berlin-fk.de,http://www.grundschule-am-traveplatz.de,,DSL 16000,16,September 2019,,,,,Hauptstandort,Jessnerstr. 24-32,10247,52.511492,13.471855,MagentaZuhause M,50 MBit/s,10 MBit/s,300 MBit/s
02G09,02G09,Zille-Grundschule,schulleitung@zille-grundschule.de,http://www.Zille-Grundschule.de,,DSL 16000,16,September 2019,,,,,Hauptstandort,Boxhagener Str. 46,10245,52.50898,13.4653,MagentaZuhause S,16 MBit/s,"2,4 MBit/s",300 MBit/s
02G10,02G10a,Modersohn-Grundschule,Schulleitung@modersohn.schule.berlin.de,http://www.modersohn-schule.de,,DSL 16000,16,September 2019,,,,,Hauptstandort,Niemannstr. 3,10245,52.50705,13.46024,MagentaZuhause XL,250 MBit/s,40 MBit/s,300 MBit/s
02G10,02G10b,Modersohn-Grundschule,,,,DSL 16000,16,September 2019,,,,,Filiale,Corinthstraße 7,10245,52.501886,13.458622,MagentaZuhause L,100 MBit/s,40 MBit/s,300 MBit/s
02G11,02G11,Thalia-Grundschule,Schulleitung@thalia-gs.schule.berlin.de,http://www.thalia-grundschule.de,,DSL 16000,16,September 2019,,,,,Hauptstandort,Alt-Stralau 34,10245,52.492881,13.476151,MagentaZuhause XL,250 MBit/s,40 MBit/s,300 MBit/s
02G12,02G12,Kurt-Schumacher-Grundschule,02g12@02g12.schule.berlin.de,http://www.kurt-schumacher-grundschule.de,,DSL 16000,16,September 2019,,,,,Hauptstandort,Puttkamerstr. 19,10969,52.504384,13.388493,MagentaZuhause via Funk,50 MBit/s,10 MBit/s,0
02G13,02G13,Charlotte-Salomon-Grundschule,Sekretariat@02G13.schule.berlin.de,http://www.charlotte-salomon-grundschule.de,,DSL 16000,16,September 2019,,,,,Hauptstandort,Großbeerenstr. 40,10965,52.49041,13.38183,MagentaZuhause L,100 MBit/s,40 MBit/s,300 MBit/s
02G14,02G14a,Galilei-Grundschule,sekretariat@galilei-grundschule.de,http://www.galilei-grundschule.de,,VDSL 100,100,September 2019,,,,,Hauptstandort,Friedrichstr. 13,10969,52.501885,13.391531,MagentaZuhause XL,250 MBit/s,40 MBit/s,300 MBit/s
02G14,02G14b,Galilei-Grundschule,,,,VDSL 100,100,September 2019,,,,,2. Anschluss,,,52.502037,13.392860,MagentaZuhause XL,250 MBit/s,40 MBit/s,300 MBit/s
02G16,02G16,Lenau-Grundschule,info@lenau.net,http://lenau.net,,< DSL 16000,6,September 2019,,,,,Hauptstandort,Nostitzstr. 60,10961,52.49381,13.39154,MagentaZuhause XL,250 MBit/s,40 MBit/s,300 MBit/s
02G18,02G18,Nürtingen-Grundschule,sek@nuertingen.schule.berlin.de,http://www.nuertingen-grundschule.de,,DSL 16000,16,September 2019,,,,,Hauptstandort,Mariannenplatz 28,10997,52.505234,13.427382,MagentaZuhause XL,250 MBit/s,40 MBit/s,300 MBit/s
02G19,02G19,Fanny-Hensel-Grundschule,info@fanny-hensel-grundschule.de,http://www.Fanny-Hensel-Grundschule.de,,< DSL 16000,6,September 2019,,,,,Hauptstandort,Schöneberger Str. 23,10963,52.50303,13.38014,MagentaZuhause S,16 MBit/s,"2,4 MBit/s",300 MBit/s
02G20,02G20,Bürgermeister-Herz-Grundschule,sekretariat@bmh.schule.berlin.de,http://www.bmh-schule.de,,VDSL 100,100,September 2019,,,,,Hauptstandort,Wilmsstr. 10,10961,52.49488,13.40516,MagentaZuhause XL,250 MBit/s,40 MBit/s,300 MBit/s
02G21,02G21,Reinhardswald-Grundschule,sekretariat@reinhardswald.schule.berlin.de,http://www.reinhardswald-grundschule.de,,< DSL 16000,6,September 2019,,,,,Hauptstandort,Gneisenaustr. 73-74,10961,52.49059,13.3999,MagentaZuhause XL,250 MBit/s,40 MBit/s,300 MBit/s
02G22,02G22,Jens-Nydahl-Grundschule,sekretariat@jng.schule.berlin.de,,,DSL 16000,16,September 2019,,,,,Hauptstandort,Kohlfurter Str. 20,10999,52.497294,13.41619,MagentaZuhause L,100 MBit/s,40 MBit/s,300 MBit/s
02G23,02G23a,Fichtelgebirge-Grundschule,schulleitung@fichtelgebirge.schule.berlin.de,http://fichtelgebirge-grundschule-berlin.de,,DSL 16000,16,September 2019,,,,,Hauptstandort,Görlitzer Ufer 2,10997,52.495740,13.445167,MagentaZuhause L,100 MBit/s,40 MBit/s,300 MBit/s
02G23,02G23b,Fichtelgebirge-Grundschule,,,,DSL 16000,16,September 2019,,,,,2. Anschluss,,,52.496082,13.444369,MagentaZuhause L,100 MBit/s,40 MBit/s,300 MBit/s
02G24,02G24,Otto-Wels-Grundschule,sekretariat@otto-wels.schule.berlin.de,http://www.owg-berlin.de,,< DSL 16000,6,September 2019,,,,,Hauptstandort,Alexandrinenstr. 12,10969,52.499923,13.401623,MagentaZuhause L,100 MBit/s,40 MBit/s,300 MBit/s
02G26,02G26,Lemgo-Grundschule,Sekretariat@lemgo.schule.de,http://www.lemgo-grundschule.de,,DSL 16000,16,September 2019,,,,,Hauptstandort,Böckhstr. 5,10967,52.494198,13.416454,MagentaZuhause XL,250 MBit/s,40 MBit/s,300 MBit/s
02G27,02G27,Hunsrück-Grundschule,schulleitung@hunsrueck-grundschule.de,http://www.Hunsrueck-Grundschule.de,,VDSL 100,100,September 2019,,,,,Hauptstandort,Manteuffelstr. 79,10999,52.497732,13.426632,MagentaZuhause L,100 MBit/s,40 MBit/s,300 MBit/s
02G29,02G29a,Heinrich-Zille-Grundschule,Heinrich-Zille-GS@web.de,http://www.Heinrich-Zille-Grundschule.de,,DSL 16000,16,September 2019,,,,,Hauptstandort,Waldemarstr. 118,10997,52.500729,13.429182,MagentaZuhause XL,250 MBit/s,40 MBit/s,300 MBit/s
02G29,02G29b,Heinrich-Zille-Grundschule,,,,DSL 16000,16,September 2019,,,,,Filiale,Lausitzer Platz 9,10997,52.500249,13.431952,MagentaZuhause XL,250 MBit/s,40 MBit/s,300 MBit/s
02G31,02G31,Adolf-Glaßbrenner-Grundschule,Adolf-Glassbrenner-Schule@web.de,http://www.adolf-glassbrenner-schule.de,,DSL 16000,16,September 2019,,,,,Hauptstandort,Hagelberger Str. 34,10965,52.49085,13.38065,MagentaZuhause L,100 MBit/s,40 MBit/s,300 MBit/s
02G32,02G32,Clara-Grunwald-Grundschule,clara-grunwald-gs@gmx.de,http://www.clara-grunwald.cidsnet.de,,DSL 16000,16,September 2019,,,,,Hauptstandort,Hallesche Str. 24,10963,52.50077,13.38313,MagentaZuhause L,100 MBit/s,40 MBit/s,300 MBit/s
02G33,02G33,Aziz-Nesin-Grundschule,Sekretariat@aziz-nesin.schule.berlin.de,http://www.aziz-nesin-schule.de,,DSL 16000,16,September 2019,,,,,Hauptstandort,Urbanstr. 15,10961,52.49312,13.40611,MagentaZuhause S,16 MBit/s,"2,4 MBit/s",300 MBit/s
02G34,02G34,Jane-Goodall-Grundschule,sekretariat@jane-goodall.schule.berlin.de,http://www.jane-goodall-grundschule.de,,DSL 16000,16,September 2019,,,,,Hauptstandort,Scharnweberstr. 19,10247,52.51279,13.46783,MagentaZuhause XL,175 MBit/s,40 MBit/s,300 MBit/s
02G35,02G35a,Rosa-Parks-Grundschule,mail@rosa-parks-grundschule.de,http://www.rosa-parks-grundschule.de,,VDSL 100,100,September 2019,,,,,Hauptstandort,Reichenberger Str. 65,10999,52.494703,13.432416,MagentaZuhause via Funk,50 MBit/s,10 MBit/s,0
02G35,02G35b,Rosa-Parks-Grundschule,,,,VDSL 100,100,September 2019,,,,,2. Anschluss,,,52.494355,13.432026,MagentaZuhause via Funk,50 MBit/s,10 MBit/s,0
02G35,02G35c,Rosa-Parks-Grundschule,,,,VDSL 100,100,September 2019,,,,,3. Anschluss,,,52.494969,13.431380,MagentaZuhause via Funk,50 MBit/s,10 MBit/s,0
02G36,02G36a,Blumen-Grundschule,buero@36-grundschule.de,http://www.36-grundschule.de,,DSL 16000,16,September 2019,,,,,Hauptstandort,Andreasstr. 52,10243,52.516383,13.431463,MagentaZuhause XL,175 MBit/s,40 MBit/s,300 MBit/s
02G36,02G36b,Blumen-Grundschule,,,,DSL 16000,16,September 2019,,,,,2. Anschluss,,,52.515846,13.431268,MagentaZuhause XL,175 MBit/s,40 MBit/s,300 MBit/s
02G36,02G36c,Blumen-Grundschule,,,,,,September 2019,,,,,Filiale,Singerstraße 87,10243,52.515704,13.429960,MagentaZuhause XL,250 MBit/s,40 MBit/s,300 MBit/s
02K01,02K01,Ellen-Key-Schule,sek@e.key-os.schule-berlin-fk.de,http://www.eko-online.net,,< DSL 16000,6,September 2019,,,,,Hauptstandort,Rüdersdorfer Str. 20-28,10243,52.5152,13.43689,MagentaZuhause L,100 MBit/s,40 MBit/s,300 MBit/s
02K02,02K02,Carl-von-Ossietzky-Schule (Gemeinschaftsschule),sekretariat@cvo-berlin.de,http://www.cvo-berlin.de,,DSL 16000,16,September 2019,,,,,Hauptstandort,Blücherstr. 46,10961,52.491647,13.404491,MagentaZuhause S,16 MBit/s,"2,4 MBit/s",300 MBit/s
02K03,02K03a,Hector-Peterson-Schule,sekretariat@hps-berlin.schule,http://www.hps-berlin.schule,,VDSL 50,50,September 2019,,,,,Hauptstandort,Tempelhofer Ufer 15,10963,52.49832,13.3841,MagentaZuhause L,100 MBit/s,40 MBit/s,300 MBit/s
02K04,02K04,Lina-Morgenstern-Schule (Gemeinschaftsschule),schulleitung@lmg.schule.berlin.de,http://lina-morgenstern-gemeinschaftsschule.de,,DSL 16000,16,September 2019,,,,,Hauptstandort,Gneisenaustr. 7,10961,52.49178,13.38971,MagentaZuhause XL,250 MBit/s,40 MBit/s,300 MBit/s
02K05,02K05,Schule am Königstor (Integrierte Sekundarschule),sek@koenigstor-os.schule-berlin-fk.de,www.schule-am-koenigstor.de,,< DSL 16000,6,September 2019,,,,,Hauptstandort,Weinstr. 3,10249,52.525666,13.425987,MagentaZuhause XL,175 MBit/s,40 MBit/s,300 MBit/s
02K06,02K06,Emanuel-Lasker-Schule,sekretariat@els.schule,http://www.els.schule,,DSL 16000,16,September 2019,,,,,Hauptstandort,Modersohnstr. 53,10245,52.50277,13.45729,MagentaZuhause L,100 MBit/s,40 MBit/s,300 MBit/s
02K07,02K07,Georg-Weerth-Schule,info@georg-weerth-schule.de,http://www.georg-weerth-schule.de,,VDSL 50,50,September 2019,,,,,Hauptstandort,Eckertstr. 16,10249,52.518996,13.450401,MagentaZuhause L,100 MBit/s,40 MBit/s,300 MBit/s
02K08,02K08a,Refik-Veseli-Schule (Integrierte Sekundarschule),sekretariat@refik-veseli-schule.eu,http://www.schule-skalitzer.de,,VDSL 50,50,September 2019,,,,,Hauptstandort,Skalitzer Str. 55,10997,52.499022,13.435697,MagentaZuhause XL,250 MBit/s,40 MBit/s,300 MBit/s
02K08,02K08b,Refik-Veseli-Schule (Integrierte Sekundarschule),,,,DSL 16000,16,September 2019,,,,,Filiale,,,,,,,,
02K09,02K09,Albrecht-von-Graefe-Schule (Integrierte Sekundarschule),sekretariat@graefemail.de,http://www.albrecht-von-graefe-schule.de,,VDSL 100,100,September 2019,,,,,Hauptstandort,Graefestr. 85-88,10967,52.494205,13.418709,MagentaZuhause XL,250 MBit/s,40 MBit/s,300 MBit/s
02K10,02K10,Ferdinand-Freiligrath-Schule (Integrierte Sekundarschule),sekretariat@ferdinand-freiligrath-schule.de,http://www.ferdinand-freiligrath-schule.de,,VDSL 50,50,September 2019,,,,,Hauptstandort,Bergmannstr. 64,10961,52.488798,13.40149,MagentaZuhause XL,175 MBit/s,40 MBit/s,300 MBit/s
02S01,02S01,Temple-Grandin-Schule,Schulleitung@temple-grandin.schule.berlin.de,http://www.temple-grandin-schule.de,,DSL 16000,16,September 2019,,,,,Hauptstandort,Lasdehner Str. 19,10243,52.514599,13.449366,MagentaZuhause via Funk,50 MBit/s,10 MBit/s,0
02S02,02S02,Gustav-Meyer-Schule,02S02@02S02.schule.berlin.de,,,< DSL 16000,6,September 2019,,,,,Hauptstandort,Kohlfurter Str. 22,10999,52.497102,13.416721,MagentaZuhause L,100 MBit/s,40 MBit/s,300 MBit/s
02S03,02S03,Margarethe-von-Witzleben-Schule,schulleitung@witzleben.schule.berlin.de,http://www.witzleben-schule.de,,DSL 16000,16,September 2019,,,,,Hauptstandort,Palisadenstr. 76-77,10243,52.51984,13.4346,MagentaZuhause XL,175 MBit/s,40 MBit/s,300 MBit/s
02S06,02S06,Liebmann-Schule,02S06@02S06.schule.berlin.de,,,unbekannt,-,September 2019,,,,,Hauptstandort,Friedrichstr. 13,10969,52.501885,13.391531,MagentaZuhause XL,250 MBit/s,40 MBit/s,300 MBit/s
02Y01,02Y01,Andreas-Gymnasium,sekretariat@andreas.schule.berlin.de,http://www.andreas-schule.org,,VDSL 100,100,September 2019,,,,,Hauptstandort,Koppenstr. 76,10243,52.514039,13.434606,MagentaZuhause XL,250 MBit/s,40 MBit/s,300 MBit/s
02Y03,02Y03,Heinrich-Hertz-Gymnasium,Sek@H.Hertz-OS.Schule-Berlin-FK.de,http://www.hhgym.de,,VDSL 50,50,September 2019,,,,,Hauptstandort,Rigaer Str. 81-82,10247,52.51695,13.46306,MagentaZuhause XL,250 MBit/s,40 MBit/s,300 MBit/s
02Y04,02Y04,Georg-Friedrich-Händel-Gymnasium,sekretariat@haendelgym.de,http://www.haendelgym.de,,DSL 16000,16,September 2019,,,,,Hauptstandort,Frankfurter Allee 6A,10247,52.515331,13.455796,MagentaZuhause XL,175 MBit/s,50 MBit/s,300 MBit/s
02Y05,02Y05,Dathe-Gymnasium,sek@dathe-gymnasium.de,http://www.dathe-gymnasium.de,,DSL 16000,16,September 2019,,,,,Hauptstandort,Helsingforser Str. 11-13,10243,52.510001,13.445399,MagentaZuhause L,100 MBit/s,40 MBit/s,300 MBit/s
02Y06,02Y06,Leibniz-Gymnasium,sekretariat@leibnizschule-berlin.de,http://www.leibnizschule-berlin.de,,DSL 16000,16,September 2019,,,,,Hauptstandort,Schleiermacherstr. 23,10961,52.48978,13.39747,MagentaZuhause L,100 MBit/s,40 MBit/s,300 MBit/s
02Y07,02Y07a,Robert-Koch-Gymnasium,Koch-Gymnasium@web.de,http://www.Robert-Koch-Oberschule.de,,DSL 16000,16,September 2019,,,,,Hauptstandort,Dieffenbachstr. 60,10967,52.493088,13.415334,MagentaZuhause XL,250 MBit/s,40 MBit/s,300 MBit/s
02Y07,02Y07b,Robert-Koch-Gymnasium,,,,DSL 16000,16,September 2019,,,,,2. Anschluss,,,52.493019,13.416159,MagentaZuhause XL,250 MBit/s,40 MBit/s,300 MBit/s
02Y08,02Y08a,Hermann-Hesse-Gymnasium,kontakt@hesse-kreuzberg.de,http://www.hesse-kreuzberg.de,,DSL 16000,16,September 2019,,,,,Hauptstandort,Böckhstr. 16,10967,52.493579,13.419151,MagentaZuhause XL,250 MBit/s,40 MBit/s,300 MBit/s
03G01,03G01,Schule am Hamburger Platz (Grundschule),info@schule-am-hamburger-platz.de,http://www.schule-am-hamburger-platz.de,,VDSL 25 IP,25,September 2019,,,,,Hauptstandort,Gustav-Adolf-Str. 21,13086,52.55381,13.43681,MagentaZuhause XL,250 MBit/s,40 MBit/s,300 MBit/s
03G02,03G02,Heinrich-Roller-Grundschule,sekretariat@roller.schule.berlin.de,http://www.Heinrich-Roller-Grundschule.de,,VDSL100 splitterlos,100,September 2019,,,,,Hauptstandort,Heinrich-Roller-Str. 18,10405,52.53064,13.42364,MagentaZuhause XL,250 MBit/s,40 MBit/s,300 MBit/s
03G03,03G03,Grundschule am Kollwitzplatz,Sekretariat@gsak.schule.berlin.de,http://www.gs-am-Kollwitzplatz.de,,VDSL 50 IP,50,September 2019,,,,,Hauptstandort,Knaackstr. 67,10435,52.53768,13.41489,MagentaZuhause XL,250 MBit/s,40 MBit/s,300 MBit/s
03G04,03G04,Grundschule an der Marie,Sekretariat@marie.schule.berlin.de,http://www.schule-an-der-Marie.de,,VDSL 25 IP,25,September 2019,,,,,Hauptstandort,Christburger Str. 7,10405,52.536148,13.42559,MagentaZuhause XL,250 MBit/s,40 MBit/s,300 MBit/s
03G05,03G05,Homer-Grundschule,post@homergs.de,http://www.homer-grundschule.de,,VDSL 25 IP,25,September 2019,,,,,Hauptstandort,Pasteurstr. 10-12,10407,52.53371,13.43237,MagentaZuhause XL,175 MBit/s,40 MBit/s,300 MBit/s
03G06,03G06,Bötzow-Grundschule,info@boetzow-grundschule.de,http://www.boetzow-grundschule.de,,VDSL 25 IP,25,September 2019,,,,,Hauptstandort,John-Schehr-Str. 38,10407,52.535104,13.439793,MagentaZuhause XL,250 MBit/s,40 MBit/s,300 MBit/s
03G08,03G08,Grundschule am Planetarium,03G08@03G08.schule.berlin.de,http://www.gsap.de,,VDSL 25 IP,25,September 2019,,,,,Hauptstandort,Ella-Kay-Str. 47,10405,52.54145,13.43118,MagentaZuhause L,100 MBit/s,40 MBit/s,300 MBit/s
03G09,03G09,Thomas-Mann-Grundschule,03g09@03g09.schule.berlin.de,http://www.thomas-mann-grundschule.de,,VDSL 25 IP,25,September 2019,,,,,Hauptstandort,Greifenhagener Str. 58-59,10437,52.54663,13.41479,MagentaZuhause XL,250 MBit/s,40 MBit/s,300 MBit/s
03G10,03G10,Grundschule am Hohen Feld,sekretariat@grundschule-amhohenfeld.de,http://grundschule-amhohenfeld.de,,VDSL 25 IP,25,September 2019,,,,,Hauptstandort,Bedeweg 1,13125,52.61492,13.49606,MagentaZuhause XL,250 MBit/s,40 MBit/s,300 MBit/s
03G11,03G11,Schule am Falkplatz (Grundschule),schulleiterin@schule-am-falkplatz.berlin,http://www.schule-am-falkplatz.berlin,,VDSL 25 IP,25,September 2019,,,,,Hauptstandort,Gleimstr. 49,10437,52.54749,13.40538,MagentaZuhause XL,250 MBit/s,40 MBit/s,300 MBit/s
03G12,03G12,Paul-Lincke-Grundschule,paul-lincke-grundschule@gmx.de,,,VDSL 25 IP,25,September 2019,,,,,Hauptstandort,Pieskower Weg 39,10409,52.54129,13.44553,MagentaZuhause XL,250 MBit/s,40 MBit/s,300 MBit/s
03G13,03G13,Rudolf-Dörrier-Grundschule,info@doerrier-grundschule.de,,,VDSL 25 IP,25,September 2019,,,,,Hauptstandort,Kastanienallee 59,13158,52.59125,13.37612,MagentaZuhause XL,250 MBit/s,40 MBit/s,300 MBit/s
03G14,03G14,Bornholmer Grundschule,bornholmer14@t-online.de,http://www.bornholmer-grundschule.de,,DSL 16.000,16,September 2019,,,,,Hauptstandort,Ibsenstr. 17,10439,52.55572,13.40768,MagentaZuhause S,16 MBit/s,"2,4 MBit/s",300 MBit/s
03G15,03G15,Schule am Senefelderplatz,03g15@03g15.schule.berlin.de,http://www.schule-am-senefelderplatz.de,,DSL 16.000 RAM IP,15,September 2019,,,,,Hauptstandort,Schönhauser Allee 165,10435,52.534675,13.411884,MagentaZuhause XL,175 MBit/s,40 MBit/s,300 MBit/s
03G16,03G16,Grundschule am Teutoburger Platz,schulleitung@teute.schule.berlin.de,http://www.schule-am-teute.de,,VDSL 25 IP,25,September 2019,,,,,Hauptstandort,Templiner Str. 1-3,10119,52.533635,13.408651,MagentaZuhause XL,250 MBit/s,40 MBit/s,300 MBit/s
03G17,03G17a,Grundschule am Weißen See,03G17@03G17.schule.berlin.de,,,unbekannt,-,September 2019,,,,,Hauptstandort,Amalienstr. 6,13086,52.555294,13.457004,MagentaZuhause XL,250 MBit/s,40 MBit/s,300 MBit/s
03G17,03G17b,Grundschule am Weißen See,,,,DSL 6.000 RAM,6,September 2019,,,,,Filiale,Falkenberger Straße 31,13088,52.554136,13.476592,MagentaZuhause S,6 MBit/s,"2,4 MBit/s",300 MBit/s
03G18,03G18a,Picasso-Grundschule,sekretariat@picasso.schule.berlin.de,http://www.picasso-grundschule.de,,DSL 6.000,6,September 2019,,,,,Hauptstandort,Gounodstr. 71,13088,52.547032,13.460359,MagentaZuhause XL,250 MBit/s,40 MBit/s,300 MBit/s
03G18,03G18b,Picasso-Grundschule,,,,VDSL 25,25,September 2019,,,,,Filiale,Smetanastr. 27,13088,52.547689,13.460009,MagentaZuhause XL,250 MBit/s,40 MBit/s,300 MBit/s
03G20,03G20,Grundschule im Moselviertel,grundschule-im-moselviertel@gmx.de,http://www.moselschule.de,,DSL 6.000,6,September 2019,,,,,Hauptstandort,Brodenbacher Weg 31,13088,52.559028,13.475454,MagentaZuhause S,6 MBit/s,"2,4 MBit/s",300 MBit/s
03G21,03G21,Grundschule unter den Bäumen,gudbaeumen@t-online.de,http://www.gudbaeumen.de,,VDSL 25 IP,25,September 2019,,,,,Hauptstandort,Alt-Blankenburg 26,13129,52.592262,13.454422,MagentaZuhause XL,250 MBit/s,40 MBit/s,300 MBit/s
03G22,03G22,Grundschule am Wasserturm,gsamwasserturm@freenet.de,http://www.grundschule-am-wasserturm.com/,,DSL 16.000,16,September 2019,,,,,Hauptstandort,Tino-Schwierzina-Str. 66,13089,52.56546,13.43664,MagentaZuhause L,100 MBit/s,40 MBit/s,300 MBit/s
03G23,03G23,Grundschule Alt-Karow,grundschule-alt-karow@gmx.de,http://www.grundschule-alt-karow.de,,VDSL 25 IP,25,September 2019,,,,,Hauptstandort,Bahnhofstr. 32,13125,52.609682,13.479743,MagentaZuhause XL,250 MBit/s,40 MBit/s,300 MBit/s
03G24,03G24,Grundschule im Panketal,gs-im-panketal@gmx.de,http://www.grundschule-im-panketal.de,,VDSL 25 IP,25,September 2019,,,,,Hauptstandort,Achillesstr. 31,13125,52.61986,13.486729,MagentaZuhause XL,250 MBit/s,40 MBit/s,300 MBit/s
03G25,03G25,Carl-Humann-Grundschule,humann-grundschule@gmx.de,,,DSL 16.000 RAM,16,September 2019,,,,,Hauptstandort,Scherenbergstr. 7,10439,52.55101,13.42173,MagentaZuhause XL,250 MBit/s,40 MBit/s,300 MBit/s
03G26,03G26,Arnold-Zweig-Grundschule,sekretariat@arnold-zweig.schule.berlin.de,http://www.arnold-zweig-grundschule.com,,VDSL 25 IP,25,September 2019,,,,,Hauptstandort,Wollankstr. 131,13187,52.56868,13.40012,MagentaZuhause XL,175 MBit/s,40 MBit/s,300 MBit/s
03G27,03G27,Elizabeth-Shaw-Grundschule,info@shaw-grundschule.de,http://shaw-grundschule.de,,VDSL 25 IP,25,September 2019,,,,,Hauptstandort,Grunowstr. 17,13187,52.56831,13.41044,MagentaZuhause XL,250 MBit/s,40 MBit/s,300 MBit/s
03G28,03G28a,Hasengrund-Schule (Grundschule),sekretariat@hasengrund.schule.berlin.de,http://www.hasengrund.edupage.org,,DSL 6.000 RAM,6,September 2019,,,,,Hauptstandort,Charlottenstr. 19,13156,52.59089,13.410577,MagentaZuhause XL,250 MBit/s,40 MBit/s,300 MBit/s
03G28,03G28b,Hasengrund-Schule (Grundschule),,,,,,September 2019,,,,,Filiale,Hermann-Hesse-Str. 48-52,13156,52.577864,13.394298,MagentaZuhause XL,250 MBit/s,40 MBit/s,300 MBit/s
03G29,03G29,Grundschule Am Sandhaus,sandhaus-gs@t-online.de,http://www.sandhaus-schule.cidsnet.de,,VDSL 25,25,September 2019,,,,,Hauptstandort,Wiltbergstr. 37-39,13125,52.637343,13.490967,MagentaZuhause XL,250 MBit/s,40 MBit/s,300 MBit/s
03G32,03G32,Grundschule an den Buchen,sekretariat-gsbuchen@gmx.de,http://www.gs-buchen.de,,VDSL 25 IP,25,September 2019,,,,,Hauptstandort,Wilhelm-Wolff-Str. 19,13156,52.579207,13.394536,MagentaZuhause XL,175 MBit/s,40 MBit/s,300 MBit/s
03G33,03G33a,Jeanne-Barez-Schule,sekretariat@jeaba.de,http://www.jeanne-barez-schule.de,,VDSL 25 IP,25,September 2019,,,,,Hauptstandort,Hauptstr. 66,13127,52.60417,13.43415,MagentaZuhause L,100 MBit/s,40 MBit/s,300 MBit/s
03G33,03G33b,Jeanne-Barez-Schule,,,,VDSL 25 IP,25,September 2019,,,,,Filiale,Berliner Straße 19,13127,52.600324,13.431823,MagentaZuhause M,50 MBit/s,10 MBit/s,300 MBit/s
03G34,03G34,Mendel-Grundschule,mendel-schule@t-online.de,,,DSL 16.000 RAM IP,16,September 2019,,,,,Hauptstandort,Stiftsweg 3,13187,52.573478,13.416325,MagentaZuhause XL,175 MBit/s,40 MBit/s,300 MBit/s
03G35,03G35,Platanengrundschule,platanengrundschule@gmx.de,,,VDSL 25 IP,25,September 2019,,,,,Hauptstandort,Hauptstr. 20,13159,52.618258,13.389549,MagentaZuhause L,100 MBit/s,40 MBit/s,300 MBit/s
03G36,03G36a,Elisabeth-Christinen-Grundschule,ecg.03g36@t-online.de,ecg.schule,,Kein Anschluss,,September 2019,,,,,Hauptstandort,Lindenberger Str. 12,13156,52.582736,13.417533,MagentaZuhause L,100 MBit/s,40 MBit/s,300 MBit/s
03G36,03G36b,Elisabeth-Christinen-Grundschule,,,,DSL 16000 RAM IP,16,September 2019,,,,,Filiale,Buchholzer Str. 3,13156,52.582633,13.407530,MagentaZuhause L,100 MBit/s,40 MBit/s,300 MBit/s
03G37,03G37,Klecks-Grundschule,sekretariat@klecks-grund.schule.berlin.de,,,VDSL 25 IP,25,September 2019,,,,,Hauptstandort,Brixener Str. 40,13187,52.55989,13.40756,MagentaZuhause L,100 MBit/s,40 MBit/s,300 MBit/s
03G38,03G38a,Grundschule im Blumenviertel,Grundschule_im_Blumenviertel@t-online.de,http://www.grundschule-im-blumenviertel.de,,VDSL 25 IP,25,September 2019,,,,,Hauptstandort,Syringenplatz 30,10407,52.535141,13.458074,MagentaZuhause XL,250 MBit/s,40 MBit/s,300 MBit/s
03G38,03G38b,Grundschule im Blumenviertel,,,,VDSL 100,100,September 2019,,,,,Filiale,,,,,,,,
03G39,03G39,Grundschule Wolkenstein,sekretariat@wolkenstein.schule.berlin.de,http://www.gs-wolkenstein.de,,VDSL 25 IP,25,September 2019,,,,,Hauptstandort,Neumannstr. 65,13189,52.56527,13.42024,MagentaZuhause L,100 MBit/s,40 MBit/s,300 MBit/s
03G40,03G40,Schule am Birkenhof,info@schule-am-birkenhof.de,http://www.schule-am-birkenhof.de,,VDSL 25,25,September 2019,,,,,Hauptstandort,Arnouxstr. 18,13127,52.60791,13.42388,MagentaZuhause XL,250 MBit/s,40 MBit/s,300 MBit/s
03G41,03G41,Trelleborg-Schule,trelleborg-schule@t-online.de,http://www.trelleborg-schule.de,,DSL 16.000 RAM IP,16,September 2019,,,,,Hauptstandort,Eschengraben 40,13189,52.556012,13.421818,MagentaZuhause S,16 MBit/s,"2,4 MBit/s",300 MBit/s
03G43,03G43,Grundschule Wilhelmsruh,sekretariat@grundschule-wilhelmsruh.de,http://www.grundschule-wilhelmsruh.de,,VDSL25,25,September 2019,,,,,Hauptstandort,Lessingstr. 44,13158,52.5903,13.36421,MagentaZuhause L,100 MBit/s,40 MBit/s,300 MBit/s
03G44,03G44,Georg-Zacharias-Grundschule,44.Grundschule-Pankow@web.de,http://44gspankow.be.schule.de,,DSL 6.000 RAM,6,September 2019,,,,,Hauptstandort,Sulzfelder Str. 15,13088,52.55219,13.47502,MagentaZuhause S,6 MBit/s,"2,4 MBit/s",300 MBit/s
03G45,03G45,Grundschule im Hofgarten,sekretariat@hofgarten.schule.berlin.de,http://www.grundschuleimhofgarten.de,,VDSL 25 IP,25,September 2019,,,,,Hauptstandort,Danziger Str. 50,10435,52.53921,13.41918,MagentaZuhause XL,250 MBit/s,40 MBit/s,300 MBit/s
03G46,03G46,Grundschule im Eliashof,sekretariat@03g46.schule.berlin.de,,,VDSL 50 IP,50,September 2019,,,,,Hauptstandort,Senefelderstr. 6,10437,52.540786,13.422734,MagentaZuhause XL,250 MBit/s,40 MBit/s,300 MBit/s
03G47,03G47,Schule an der Strauchwiese,info@schuleanderstrauchwiese.de,http://www.schuleanderstrauchwiese.de,,VDSL 25 IP,25,September 2019,,,,,Hauptstandort,Mendelstr. 54,13187,52.57805,13.41782,MagentaZuhause XL,250 MBit/s,40 MBit/s,300 MBit/s
03G48,03G48,Neugründung,,,,,-,September 2019,,,,,Hauptstandort,Conrad-Blenkle-Str. 20,10407,52.530214,13.447295,MagentaZuhause XL,250 MBit/s,40 MBit/s,300 MBit/s
03K01,03K01a,Kurt-Schwitters-Schule,ksoberlin.cids@t-online.de,,,VDSL 100,100,September 2019,,,,,Hauptstandort,Greifswalder Str. 25,10405,52.5314,13.42807,MagentaZuhause XL,250 MBit/s,40 MBit/s,300 MBit/s
03K01,03K01b,Kurt-Schwitters-Schule,,,,unbekannt,-,September 2019,,,,,Filiale,Bötzowstraße 11,10407,52.529939,13.431518,MagentaZuhause XL,250 MBit/s,40 MBit/s,300 MBit/s
03K02,03K02,Kurt-Tucholsky-Schule,sekretariat1@kto-berlin.de,http://www.kto-berlin.de,,VDSL 25,25,September 2019,,,,,Hauptstandort,Neumannstr. 9-11,13189,52.55812,13.42333,MagentaZuhause XL,175 MBit/s,40 MBit/s,300 MBit/s
03K03,03K03,Konrad-Duden-Schule,konrad-duden-oberschule@gmx.de,http://www.isskd.de,,VDSL 25,25,September 2019,,,,,Hauptstandort,Rolandstr. 35,13156,52.58183,13.41744,MagentaZuhause M,50 MBit/s,10 MBit/s,300 MBit/s
03K04,03K04,Gustave-Eiffel-Schule,sekretariat@03K04.schule.berlin.de,http://www.gustave-eiffel-schule.de/,,DSL 16.000 RAM,16,September 2019,,,,,Hauptstandort,Hanns-Eisler-Str. 78-80,10409,52.540662,13.44844,MagentaZuhause S,16 MBit/s,"2,4 MBit/s",300 MBit/s
03K05,03K05,Heinz-Brandt-Schule,kontakt@heinz-brandt-schule.de,http://www.heinz-brandt-schule.de,,VDSL 25 IP,25,September 2019,,,,,Hauptstandort,Langhansstr. 120,13086,52.551192,13.441808,MagentaZuhause XL,250 MBit/s,40 MBit/s,300 MBit/s
03K06,03K06,Reinhold-Burger-Schule,Sekretariat@03k06.schule.berlin.de,http://www.reinhold-burger-schule.de,,VDSL 100,100,September 2019,,,,,Hauptstandort,Neue Schönholzer Str. 32,13187,52.56838,13.40303,MagentaZuhause XL,250 MBit/s,40 MBit/s,300 MBit/s
03K07,03K07,Tesla-Schule (Gemeinschaftsschule),sekretariat@tesla-schule.de,http://www.tesla-schule.de,,VDSL 25 IP,25,September 2019,,,,,Hauptstandort,Rudi-Arndt-Str. 18,10407,52.529086,13.446061,MagentaZuhause XL,250 MBit/s,40 MBit/s,300 MBit/s
03K08,03K08,Hagenbeck-Schule,info@hagenbeck-schule.de,http://www.hagenbeck-schule.de,,DSL 6000,6,September 2019,,,,,Hauptstandort,Gustav-Adolf-Str. 60,13086,52.55879,13.44729,MagentaZuhause M,50 MBit/s,10 MBit/s,300 MBit/s
03K09,03K09,Janusz-Korczak-Schule,Janusz-Korczak-OR@web.de,,,VDSL 50 IP,50,September 2019,,,,,Hauptstandort,Dolomitenstr. 94,13187,52.562908,13.407559,MagentaZuhause L,100 MBit/s,40 MBit/s,300 MBit/s
03K10,03K10,Hufeland-Schule,sekretariat@hufelandschule.berlin,http://www.hufelandschule.berlin,,VDSL 100,100,September 2019,,,,,Hauptstandort,Walter-Friedrich-Str. 16-18,13125,52.63325,13.49373,MagentaZuhause XL,250 MBit/s,40 MBit/s,300 MBit/s
03K11,03K11,Wilhelm-von-Humboldt-Gemeinschaftsschule,sekretariat@wvh-gemeinschaftsschule.de,http://wvh-gemeinschaftsschule.de,,SVDSL 175,175,September 2019,,,,,Hauptstandort,Erich-Weinert-Str. 70,10439,52.54845,13.42476,MagentaZuhause XL,250 MBit/s,40 MBit/s,300 MBit/s
03S03,03S03,Helene-Haeusler-Schule,sekretariat@helene-haeusler-schule.de,http://www.helene-haeusler-schule.de,,VDSL 25 IP,25,September 2019,,,,,Hauptstandort,Mendelssohnstr. 10,10405,52.5267,13.42002,MagentaZuhause XL,250 MBit/s,40 MBit/s,300 MBit/s
03S06,03S06,Schule am Birkenhof,info@schule-am-birkenhof.de,http://www.schule-am-birkenhof.de,,,-,September 2019,,,,,Hauptstandort,Arnouxstraße 18,13127,52.607855,13.424033,MagentaZuhause XL,250 MBit/s,40 MBit/s,300 MBit/s
03S07,03S07,Ausweichstandort für Schulen mit Baumaßnahmen,,,,DSL 16.000,16,September 2019,,,,,Hauptstandort,Hermann-Hesse-Str. 48,13156,52.577960,13.394423,MagentaZuhause XL,250 MBit/s,40 MBit/s,300 MBit/s
03S08,03S08a,Panke-Schule,kontakt@panke-schule.de,http://www.panke-schule.de,,VDSL 50 IP,50,September 2019,,,,,Hauptstandort,Galenusstr. 64,13187,52.57877,13.41699,MagentaZuhause XL,175 MBit/s,40 MBit/s,300 MBit/s
03S08,03S08b,Panke-Schule,,,,VDSL 50 IP,50,September 2019,,,,,2. Anschluss,,,52.578894,13.417763,MagentaZuhause XL,175 MBit/s,40 MBit/s,300 MBit/s
03S08,03S08c,Panke-Schule,,,,DSL 16.000,16,September 2019,,,,,Filiale,Klaustaler Straße 21A,13187,52.578561,13.419472,MagentaZuhause XL,175 MBit/s,40 MBit/s,300 MBit/s
03S09,03S09,Schule an der Strauchwiese,info@schuleanderstrauchwiese.de,http://www.schuleanderstrauchwiese.de,,,-,September 2019,,,,,Hauptstandort,Mendelstr. 54,13187,52.578340,13.417743,MagentaZuhause XL,250 MBit/s,40 MBit/s,300 MBit/s
03S10,03S10a,Marianne-Buggenhagen-Schule,info.mbs-berlin@t-online.de,,,VDSL 25 IP,25,September 2019,,,,,Hauptstandort,Ernst-Busch-Str. 29,13125,52.62953,13.49149,MagentaZuhause L,100 MBit/s,40 MBit/s,300 MBit/s
03S10,03S10b,Marianne-Buggenhagen-Schule,,,,DSL 16.000,16,September 2019,,,,,Klinikschule/Haus 211,Schwanebecker Chaussee 50,13125,52.633192,13.508962,MagentaZuhause S,16 MBit/s,"2,4 MBit/s",300 MBit/s
03Y03,03Y03,Käthe-Kollwitz-Gymnasium,sekretariat@kkos.net,http://www.kkos.net,,VDSL 100,100,September 2019,,,,,Hauptstandort,Dunckerstr. 65-66,10439,52.5458,13.42271,MagentaZuhause XL,250 MBit/s,40 MBit/s,300 MBit/s
03Y04,03Y04,Heinrich-Schliemann-Gymnasium,schulleitung@hsg-berlin.de,http://www.hsg-berlin.de,,VDSL 100,100,September 2019,,,,,Hauptstandort,Dunckerstr. 64,10439,52.54663,13.42365,MagentaZuhause XL,175 MBit/s,40 MBit/s,300 MBit/s
03Y08,03Y08,Carl-von-Ossietzky-Gymnasium,sekretariat@cvo.berlin,https://cvo.berlin,,SVDSL 175 IP,175,September 2019,,,,,Hauptstandort,Görschstr. 42-44,13187,52.566429,13.40007,MagentaZuhause XL,250 MBit/s,40 MBit/s,300 MBit/s
03Y10,03Y10a,Rosa-Luxemburg-Gymnasium,sekretariat@rlo-berlin.de,http://www.rlo-berlin.de,,VDSL 100,100,September 2019,,,,,Hauptstandort,Kissingenstr. 12,13189,52.56669,13.41948,MagentaZuhause XL,250 MBit/s,40 MBit/s,300 MBit/s
03Y10,03Y10b,Rosa-Luxemburg-Gymnasium,,,,,,September 2019,,,,,Filiale,Borkumstraße 13,13189,52.565021,13.418947,MagentaZuhause XL,250 MBit/s,40 MBit/s,300 MBit/s
03Y13,03Y13a,Felix-Mendelssohn-Bartholdy-Gymnasium,sekretariat@fmbg.schule.berlin.de,http://www.fmbg-berlin.de,,VDSL 25,25,September 2019,,,,,Hauptstandort,Eugen-Schönhaar-Str. 18,10407,52.537087,13.437857,MagentaZuhause XL,250 MBit/s,40 MBit/s,300 MBit/s
03Y13,03Y13b,Felix-Mendelssohn-Bartholdy-Gymnasium,,,,VDSL 50 IP,50,September 2019,,,,,Filiale,Pasteurstr. 7-11,10407,52.534084,13.432526,MagentaZuhause M,50 MBit/s,10 MBit/s,300 MBit/s
03Y14,03Y14a,Primo-Levi-Gymnasium,sekretariat@plg-berlin.de,http://www.plg-berlin.de,,VDSL 50 IP,50,September 2019,,,,,Hauptstandort,Pistoriusstr. 133,13086,52.5516,13.45369,MagentaZuhause XL,250 MBit/s,40 MBit/s,300 MBit/s
03Y14,03Y14b,Primo-Levi-Gymnasium,,,,VDSL 50 IP,50,September 2019,,,,,Filiale,Woelckpromenade 38,13086,52.553637,13.453551,MagentaZuhause XL,175 MBit/s,40 MBit/s,300 MBit/s
03Y15,03Y15a,Max-Delbrück-Gymnasium,sekretariat@max-delbrueck-gymnasium.de,https://max-delbrueck-gymnasium.de/,,VDSL 50 IP,50,September 2019,,,,,Hauptstandort,Kuckhoffstr. 2-22,13156,52.583884,13.402118,MagentaZuhause L,100 MBit/s,40 MBit/s,300 MBit/s
03Y15,03Y15b,Max-Delbrück-Gymnasium,,,,,,September 2019,,,,,Filiale,Dietzgenstraße 47,13156,52.584750,13.401286,MagentaZuhause L,100 MBit/s,40 MBit/s,300 MBit/s
03Y16,03Y16,Robert-Havemann-Gymnasium,schulleitung@rhgym.de,http://www.robert-havemann-gymnasium.de,,VDSL 100,100,September 2019,,,,,Hauptstandort,Achillesstr. 79,13125,52.615393,13.494218,MagentaZuhause XL,250 MBit/s,40 MBit/s,300 MBit/s
03Y17,03Y17,Gymnasium am Europasportpark,sekretariat@gesp-berlin.de,http://www.gesp-berlin.de,,DSL 16.000 RAM IP,16,September 2019,,,,,Hauptstandort,Conrad-Blenkle-Str. 34,10407,52.534329,13.447008,MagentaZuhause S,16 MBit/s,"2,4 MBit/s",300 MBit/s
04A04,04A04,Charlotte-Wolff-Kolleg,Leitung@charlotte-wolff-kolleg.de,http://www.charlotte-wolff-kolleg.de,,VDSL 100,100,September 2019,,,,,Hauptstandort,Pestalozzistraße 40/41,10627,52.508088,13.303451,MagentaZuhause XL,250 MBit/s,40 MBit/s,300 MBit/s
04A06,04A06,Peter-A.-Silbermann-Schule,info@abendgymnasium.de,http://www.abendgymnasium.de,,DSL 16000,16,September 2019,,,,,Hauptstandort,Blissestraße 22,10713,52.484770,13.319447,MagentaZuhause XL,250 MBit/s,40 MBit/s,300 MBit/s
04G01,04G01,Eichendorff-Grundschule,sekretariat@eichendorff.schule.berlin.de,http://www.eichendorff-grundschule-berlin.de,,DSL 16000,16,September 2019,SVDSL 250,250,21. Januar 2021,Bezirksstadträtin Charlottenburg-Wilmersdorf von Berlin,Hauptstandort,Goethestr. 19,10625,52.50921,13.31305,MagentaZuhause XL,250 MBit/s,40 MBit/s,300 MBit/s
04G02,04G02,Lietzensee-Grundschule,sekretariat@lietzenseeschule.schule.berlin.de,http://www.lietzenseeschule.de,,DSL 16000,16,September 2019,SVDSL 250,250,21. Januar 2021,Bezirksstadträtin Charlottenburg-Wilmersdorf von Berlin,Hauptstandort,Witzlebenstr. 34,14057,52.5094,13.29502,MagentaZuhause XL,250 MBit/s,40 MBit/s,300 MBit/s
04G04,04G04,Joan-Miró-Grundschule,mail@joan-miro-grundschule.de,http://www.joan-miro-grundschule.de,,DSL 16000,16,September 2019,SVDSL 250,250,21. Januar 2021,Bezirksstadträtin Charlottenburg-Wilmersdorf von Berlin,Hauptstandort,Bleibtreustr. 43,10623,52.50357,13.32014,MagentaZuhause XL,250 MBit/s,40 MBit/s,300 MBit/s
04G05,04G05,Dietrich-Bonhoeffer-Grundschule,Sekretariat@dibog.schule.berlin.de,,,DSL 16000,16,September 2019,VDSL 50,50,21. Januar 2021,Bezirksstadträtin Charlottenburg-Wilmersdorf von Berlin,Hauptstandort,Spandauer Damm 205-215,14050,52.521371,13.26202,MagentaZuhause L,100 MBit/s,40 MBit/s,300 MBit/s
04G06,04G06,Wald-Grundschule,sekretariat@wald-grundschule.de,http://wald-grundschule.de,,DSL 16000,16,September 2019,VDSL 50,50,21. Januar 2021,Bezirksstadträtin Charlottenburg-Wilmersdorf von Berlin,Hauptstandort,Waldschulallee 83-93,14055,52.50259,13.259,MagentaZuhause L,100 MBit/s,40 MBit/s,300 MBit/s
04G07,04G07,Ludwig-Cauer-Grundschule,04G07@04G07.schule.berlin.de,http://www.cauerschule.de,,DSL 16000,16,September 2019,SVDSL 250,250,21. Januar 2021,Bezirksstadträtin Charlottenburg-Wilmersdorf von Berlin,Hauptstandort,Cauerstr. 36-38,10587,52.515043,13.315123,MagentaZuhause XL,250 MBit/s,40 MBit/s,300 MBit/s
04G08,04G08,Mierendorff-Grundschule,schulleitung@mierendorff-schule.de,http://www.mierendorff-grundschule.de,,DSL 16000,16,September 2019,VDSL 100,100,21. Januar 2021,Bezirksstadträtin Charlottenburg-Wilmersdorf von Berlin,Hauptstandort,Mierendorffstr. 20-24,10589,52.523791,13.303338,MagentaZuhause L,100 MBit/s,40 MBit/s,300 MBit/s
04G09,04G09,Erwin-von-Witzleben-Grundschule,erwin-von-witzleben-gs@t-online.de,,,DSL 16000,16,September 2019,VDSL 100,100,21. Januar 2021,Bezirksstadträtin Charlottenburg-Wilmersdorf von Berlin,Hauptstandort,Halemweg 34,13627,52.53967,13.2873,MagentaZuhause L,100 MBit/s,40 MBit/s,300 MBit/s
04G11,04G11,Helmuth-James-von-Moltke-Grundschule,sekretariat@moltke.grundschule.berlin.de,http://www.moltke-grundschule.de,,< DSL 16000,6,September 2019,SVDSL 250,250,21. Januar 2021,Bezirksstadträtin Charlottenburg-Wilmersdorf von Berlin,Hauptstandort,Heckerdamm 221,13627,52.53903,13.30104,MagentaZuhause XL,250 MBit/s,40 MBit/s,300 MBit/s
04G12,04G12,Schinkel-Grundschule,esgbuero@t-online.de,,,DSL 16000,16,September 2019,SVDSL 250,250,21. Januar 2021,Bezirksstadträtin Charlottenburg-Wilmersdorf von Berlin,Hauptstandort,Nithackstr. 8,10585,52.51782,13.29876,MagentaZuhause XL,175 MBit/s,40 MBit/s,300 MBit/s
04G13,04G13,Nehring-Grundschule,info@nehring-grundschule.de,http://www.nehring-grundschule.de,,DSL 16000,16,September 2019,VDSL 25,25,21. Januar 2021,Bezirksstadträtin Charlottenburg-Wilmersdorf von Berlin,Hauptstandort,Nehringstr. 9-10,14059,52.514893,13.293865,MagentaZuhause XL,250 MBit/s,40 MBit/s,300 MBit/s
04G14,04G14a,Reinhold-Otto-Grundschule,04G14@04G14.schule.berlin.de,http://www.reinhold-otto.de,,DSL 16000,16,September 2019,VDSL 100,100,21. Januar 2021,Bezirksstadträtin Charlottenburg-Wilmersdorf von Berlin,Hauptstandort,Leistikowstr. 7-8,14050,52.513329,13.268399,MagentaZuhause L,100 MBit/s,40 MBit/s,300 MBit/s
04G14,04G14b,Reinhold-Otto-Grundschule,,,,DSL 16000,16,September 2019,,,,,2. Anschluss,,,52.512962,13.268291,MagentaZuhause L,100 MBit/s,40 MBit/s,300 MBit/s
04G15,04G15,Charles-Dickens-Grundschule,sekretariat@charles-dickens.schule.berlin.de,http://www.charles-dickens-gs.de,,DSL 16000,16,September 2019,VDSL 50,50,21. Januar 2021,Bezirksstadträtin Charlottenburg-Wilmersdorf von Berlin,Hauptstandort,Dickensweg 15,14055,52.508946,13.236971,MagentaZuhause XL,175 MBit/s,40 MBit/s,300 MBit/s
04G17,04G17,Johann-Peter-Hebel-Grundschule,verwaltung@hebelschule-berlin.de,http://www.hebelschule-berlin.de,,DSL 16000,16,September 2019,SVDSL 175,175,21. Januar 2021,Bezirksstadträtin Charlottenburg-Wilmersdorf von Berlin,Hauptstandort,Emser Str. 50,10719,52.49541,13.31942,MagentaZuhause XL,175 MBit/s,40 MBit/s,300 MBit/s
04G18,04G18,Ernst-Habermann-Grundschule,schule@ernst-habermann.de,http://www.ernst-habermann.de,,DSL 16000,16,September 2019,SVDSL 175,175,21. Januar 2021,Bezirksstadträtin Charlottenburg-Wilmersdorf von Berlin,Hauptstandort,Prinzregentenstr. 33-34,10715,52.48328,13.33269,MagentaZuhause XL,250 MBit/s,40 MBit/s,300 MBit/s
04G18,04G18,Ernst-Habermann-Grundschule,,,,DSL 16000,16,September 2019,,,,,2. Anschluss,,,52.482922,13.332404,MagentaZuhause XL,250 MBit/s,40 MBit/s,300 MBit/s
04G19,04G19,Grundschule am Rüdesheimer Platz,Sekretariat@garp.schule.berlin.de,http://www.garp-schule.de,,DSL 16000,16,September 2019,SVDSL 250,250,21. Januar 2021,Bezirksstadträtin Charlottenburg-Wilmersdorf von Berlin,Hauptstandort,Rüdesheimer Str. 24-30,14197,52.47113,13.31312,MagentaZuhause XL,250 MBit/s,40 MBit/s,300 MBit/s
04G20,04G20,Katharina-Heinroth-Grundschule,sekretariat@katharina-heinroth-grundschule.de,http://katharina-heinroth-grundschule.de,,DSL 16000,16,September 2019,SVDSL 250,250,21. Januar 2021,Bezirksstadträtin Charlottenburg-Wilmersdorf von Berlin,Hauptstandort,Münstersche Str. 15-17,10709,52.494,13.30619,MagentaZuhause XL,250 MBit/s,40 MBit/s,300 MBit/s
04G21,04G21,Halensee-Grundschule,sekretariat@halensee.schule.berlin.de,http://www.Halensee-Grundschule.de,,DSL 16000,16,September 2019,VDSL 100,100,21. Januar 2021,Bezirksstadträtin Charlottenburg-Wilmersdorf von Berlin,Hauptstandort,Joachim-Friedrich-Str. 35-36,10711,52.49993,13.2961,MagentaZuhause L,100 MBit/s,40 MBit/s,300 MBit/s
04G22,04G22a,Grunewald-Grundschule,sekretariat@grunewald.schule.berlin.de,http://www.grunewald-grundschule.de,,DSL 16000,16,September 2019,SVDSL 175,175,21. Januar 2021,Bezirksstadträtin Charlottenburg-Wilmersdorf von Berlin,Hauptstandort,Delbrückstr. 20A,14193,52.484525,13.281094,MagentaZuhause XL,175 MBit/s,40 MBit/s,300 MBit/s
04G22,04G22b,Grunewald-Grundschule,,,,DSL 16000,16,September 2019,,,,,2. Anschluss,,,52.484827,13.280783,MagentaZuhause XL,175 MBit/s,40 MBit/s,300 MBit/s
04G23,04G23,Alt-Schmargendorf-Grundschule,schulleitung@asg.schule.berlin.de,http://www.alt-schmargendorf-grundschule.de,,DSL 16000,16,September 2019,SVDSL 250,250,21. Januar 2021,Bezirksstadträtin Charlottenburg-Wilmersdorf von Berlin,Hauptstandort,Reichenhaller Str. 8,14199,52.477085,13.293432,MagentaZuhause XL,250 MBit/s,40 MBit/s,300 MBit/s
04G24,04G24,Carl-Orff-Grundschule,sekretariat@carl-orff-gs.de,http://www.carl-orff-gs.de,,DSL 16000,16,September 2019,VDSL 25,25,21. Januar 2021,Bezirksstadträtin Charlottenburg-Wilmersdorf von Berlin,Hauptstandort,Berkaer Str. 9-10,14199,52.47841,13.28709,MagentaZuhause XL,175 MBit/s,40 MBit/s,300 MBit/s
04G25,04G25,Cecilien-Schule (Grundschule),04G25@04G25.schule.berlin.de,http://www.cecilien-schule.de,,VDSL 50,50,September 2019,SVDSL 250,250,21. Januar 2021,Bezirksstadträtin Charlottenburg-Wilmersdorf von Berlin,Hauptstandort,Nikolsburger Platz 5,10717,52.49331,13.32769,MagentaZuhause XL,250 MBit/s,40 MBit/s,300 MBit/s
04G26,04G26,Birger-Forell-Grundschule,post@birger-forell-grundschule.de,http://www.birger-forell-grundschule.de,,VDSL 50,50,September 2019,SVDSL 250,250,21. Januar 2021,Bezirksstadträtin Charlottenburg-Wilmersdorf von Berlin,Hauptstandort,Koblenzer Str. 22-24,10715,52.480726,13.321893,MagentaZuhause XL,250 MBit/s,40 MBit/s,300 MBit/s
04G27,04G27,Judith-Kerr-Grundschule,verwaltung@04G27.schule.berlin.de,http://www.judith-kerr-grundschule.de,,DSL 16000,16,September 2019,SVDSL 250,250,21. Januar 2021,Bezirksstadträtin Charlottenburg-Wilmersdorf von Berlin,Hauptstandort,Friedrichshaller Str. 13,14199,52.476131,13.293228,MagentaZuhause XL,250 MBit/s,40 MBit/s,300 MBit/s
04K02,04K02,Friedensburg-Schule,sekretariat@fosbe.de,http://www.fosbe.de,,VDSL 50,50,September 2019,VDSL 100,100,21. Januar 2021,Bezirksstadträtin Charlottenburg-Wilmersdorf von Berlin,Hauptstandort,Goethestr. 8-9,10623,52.50908,13.32082,MagentaZuhause XL,250 MBit/s,40 MBit/s,300 MBit/s
04K03,04K03,Robert-Jungk-Schule,schulleitung@r-j-o.de,http://www.Robert-Jungk-Oberschule.de,,DSL 16000,16,September 2019,SVDSL 250,250,21. Januar 2021,Bezirksstadträtin Charlottenburg-Wilmersdorf von Berlin,Hauptstandort,Sächsische Str. 58,10707,52.49448,13.31872,MagentaZuhause XL,250 MBit/s,40 MBit/s,300 MBit/s
04K04,04K04,Nelson-Mandela-Schule,katja.sajid@nelson-mandela-schule.net,http://www.nelson-mandela-school.net,,,,September 2019,,,,,,Pfalzburger Straße 23,10719,52.490921,13.321079,MagentaZuhause XL,250 MBit/s,40 MBit/s,300 MBit/s
04K05,04K05a,Paula-Fürst-Schule (Gemeinschaftsschule),sekretariat@paula-fuerst.schule.berlin.de,http://www.paula-fuerst-gemeinschaftsschule.de,,DSL 16000,16,September 2019,SVDSL 250,250,21. Januar 2021,Bezirksstadträtin Charlottenburg-Wilmersdorf von Berlin,Hauptstandort,Sybelstr. 20-21,10629,52.50227,13.30194,MagentaZuhause XL,250 MBit/s,40 MBit/s,300 MBit/s
04K05,04K05b,Paula-Fürst-Schule (Gemeinschaftsschule),,,,unbekannt,-,September 2019,,,,,Filiale,Nehringstraße 9,14059,52.514475,13.292506,MagentaZuhause XL,250 MBit/s,40 MBit/s,300 MBit/s
04K06,04K06,Schule am Schloss (Integrierte Sekundarschule),sekretariat@schuleamschloss.de,http://www.schuleamschloss.de,,DSL 16000,16,September 2019,VDSL 100,100,21. Januar 2021,Bezirksstadträtin Charlottenburg-Wilmersdorf von Berlin,Hauptstandort,Schloßstr. 55A,14059,52.5161,13.29812,MagentaZuhause XL,175 MBit/s,40 MBit/s,300 MBit/s
04K07,04K07,Integrierte Sekundarschule Wilmersdorf,kontakt@sekundarschule-wilmersdorf.de,http://www.sekundarschule-wilmersdorf.de,,VDSL 50,50,September 2019,SVDSL 250,250,21. Januar 2021,Bezirksstadträtin Charlottenburg-Wilmersdorf von Berlin,Hauptstandort,Kranzer Str. 3,14199,52.482808,13.296098,MagentaZuhause XL,250 MBit/s,40 MBit/s,300 MBit/s
04K08,04K08,Peter-Ustinov-Schule,sekretariat@peter-ustinov-schule.de,http://www.peter-ustinov-schule.de,,DSL 16000,16,September 2019,SVDSL 250,250,21. Januar 2021,Bezirksstadträtin Charlottenburg-Wilmersdorf von Berlin,Hauptstandort,Kuno-Fischer-Str. 22-26,14057,52.505241,13.290548,MagentaZuhause XL,250 MBit/s,40 MBit/s,300 MBit/s
04K09,04K09,Otto-von-Guericke-Schule (Integrierte Sekundarschule),kontakt@ovgos.de,http://www.ovgos.de,,< DSL 16000,6,September 2019,SVDSL 250,250,21. Januar 2021,Bezirksstadträtin Charlottenburg-Wilmersdorf von Berlin,Hauptstandort,Eisenzahnstr. 47-48,10709,52.49276,13.30516,MagentaZuhause XL,250 MBit/s,40 MBit/s,300 MBit/s
04K10,04K10,Wangari-Maathai-Internationale-Schule,secretary@wangari-maathai-schule.de,http://wangari-maathai-schule.jimdofree.com,,,-,September 2019,,,,,,Babelsberger Str. 24,10715,52.482373,13.335080,MagentaZuhause XL,175 MBit/s,40 MBit/s,300 MBit/s
04S02,04S02,Arno-Fuchs-Schule,r.gehret@arno-fuchs-schule.de,http://www.arno-fuchs-schule.de,,nicht bekannt,-,September 2019,DSL 16 RAM,16,21. Januar 2021,Bezirksstadträtin Charlottenburg-Wilmersdorf von Berlin,Hauptstandort,Richard-Wagner-Str. 30,10585,52.51489,13.30717,MagentaZuhause S,16 MBit/s,"2,4 MBit/s",300 MBit/s
04S04,04S04,Reinfelder-Schule,post@reinfelder-schule.de,http://www.reinfelder-schule.de,,DSL 6000 RAM,6,September 2019,VDSL 50,50,21. Januar 2021,Bezirksstadträtin Charlottenburg-Wilmersdorf von Berlin,Hauptstandort,Maikäferpfad 30,14055,52.49693,13.26373,MagentaZuhause M,50 MBit/s,10 MBit/s,300 MBit/s
04S05,04S05,Ernst-Adolf-Eschke-Schule für Gehörlose,post@eaeschule.de,http://www.eschke-schule.de,,DSL 16000,16,September 2019,VDSL 100,100,21. Januar 2021,Bezirksstadträtin Charlottenburg-Wilmersdorf von Berlin,Hauptstandort,Waldschulallee 29,14055,52.4989,13.26508,MagentaZuhause L,100 MBit/s,40 MBit/s,300 MBit/s
04S06,04S06,Finkenkrug-Schule,kontakt@finkenkrug-schule.de,,,DSL 16000,16,September 2019,VDSL 100,100,21. Januar 2021,Bezirksstadträtin Charlottenburg-Wilmersdorf von Berlin,Hauptstandort,Mannheimer Str. 21-22,10713,52.48448,13.31606,MagentaZuhause L,100 MBit/s,40 MBit/s,300 MBit/s
04S07,04S07a,Comenius-Schule,schulleitung@schule-comenius.de,http://www.schule-comenius.de,,DSL 16000,16,September 2019,SVDSL 175,175,21. Januar 2021,Bezirksstadträtin Charlottenburg-Wilmersdorf von Berlin,Hauptstandort,Gieselerstr. 4,10713,52.488639,13.318353,MagentaZuhause XL,175 MBit/s,40 MBit/s,300 MBit/s
04S07,04S07b,Comenius-Schule,,,,DSL 16000,16,September 2019,,,,,2. Anschluss,,,52.488141,13.318560,MagentaZuhause XL,175 MBit/s,40 MBit/s,300 MBit/s
04Y01,04Y01,Schiller-Gymnasium,sekretariat@sgym.schule.berlin.de,http://www.sgym.de,,< DSL 16000,6,September 2019,SVDSL 250,250,21. Januar 2021,Bezirksstadträtin Charlottenburg-Wilmersdorf von Berlin,Hauptstandort,Schillerstr. 125-127,10625,52.50993,13.321596,MagentaZuhause XL,250 MBit/s,40 MBit/s,300 MBit/s
04Y02,04Y02a,Wald-Gymnasium,waldgymnasium@gmx.de,http://www.waldgymnasium.de,,DSL 16000,16,September 2019,VDSL 50,50,21. Januar 2021,Bezirksstadträtin Charlottenburg-Wilmersdorf von Berlin,Hauptstandort,Waldschulallee 95,14055,52.50343,13.25701,MagentaZuhause L,100 MBit/s,40 MBit/s,300 MBit/s
04Y02,04Y02b,Wald-Gymnasium,,,,DSL 16000,16,September 2019,,,,,2. Anschluss,,,52.503583,13.255277,MagentaZuhause L,100 MBit/s,40 MBit/s,300 MBit/s
04Y03,04Y03,Sophie-Charlotte-Gymnasium,sekretariat@scg.schule.berlin.de,http://www.scgberlin.de,,DSL 16000,16,September 2019,SVDSL 250,250,21. Januar 2021,Bezirksstadträtin Charlottenburg-Wilmersdorf von Berlin,Hauptstandort,Sybelstr. 2,10629,52.5023,13.31237,MagentaZuhause XL,250 MBit/s,40 MBit/s,300 MBit/s
04Y04,04Y04a,Gottfried-Keller-Gymnasium,kontakt@gks-berlin.de,http://www.gks-berlin.de,,DSL 16000,16,September 2019,VDSL 100,100,21. Januar 2021,Bezirksstadträtin Charlottenburg-Wilmersdorf von Berlin,Hauptstandort,Olbersstr. 38,10589,52.52888,13.3022,MagentaZuhause XL,175 MBit/s,40 MBit/s,300 MBit/s
04Y04,04Y04b,Gottfried-Keller-Gymnasium,,,,DSL 16000,16,September 2019,,,,,2. Anschluss,,,52.527936,13.301754,MagentaZuhause XL,175 MBit/s,40 MBit/s,300 MBit/s
04Y05,04Y05,Herder-Gymnasium,sekretariat@herder-gymnasium.eu,http://www.herder-gymnasium.eu,,DSL 16000,16,September 2019,VDSL 100,100,21. Januar 2021,Bezirksstadträtin Charlottenburg-Wilmersdorf von Berlin,Hauptstandort,Westendallee 45-46,14052,52.510663,13.257932,MagentaZuhause L,100 MBit/s,40 MBit/s,300 MBit/s
04Y06,04Y06,Heinz-Berggruen-Gymnasium,info@hbgym.de,http://hbgym.de,,DSL 16000,16,September 2019,VDSL 100,100,21. Januar 2021,Bezirksstadträtin Charlottenburg-Wilmersdorf von Berlin,Hauptstandort,Bayernallee 4,14052,52.51103,13.26722,MagentaZuhause L,100 MBit/s,40 MBit/s,300 MBit/s
04Y07,04Y07a,Friedrich-Ebert-Gymnasium,danz@feo-berlin.de,http://feo.schule.de,,VDSL 50,50,September 2019,SVDSL 250,250,21. Januar 2021,Bezirksstadträtin Charlottenburg-Wilmersdorf von Berlin,Hauptstandort,Blissestr. 22,10713,52.484206,13.319593,MagentaZuhause XL,250 MBit/s,40 MBit/s,300 MBit/s
04Y07,04Y07b,Friedrich-Ebert-Gymnasium,,,,VDSL 50,50,September 2019,,,,,2. Anschluss,,,52.484276,13.318689,MagentaZuhause XL,250 MBit/s,40 MBit/s,300 MBit/s
04Y08,04Y08,Hildegard-Wegscheider-Gymnasium,wegscheider-gymnasium@gmx.de,http://www.hwos.de,,VDSL 100,100,September 2019,SVDSL 250,250,21. Januar 2021,Bezirksstadträtin Charlottenburg-Wilmersdorf von Berlin,Hauptstandort,Lassenstr. 16-20,14193,52.485116,13.275931,MagentaZuhause XL,250 MBit/s,40 MBit/s,300 MBit/s
04Y09,04Y09,Walther-Rathenau-Gymnasium,sekretariat@wrs-berlin.de,http://www.wrs-berlin.de,,DSL 16000,16,September 2019,SVDSL 175,175,21. Januar 2021,Bezirksstadträtin Charlottenburg-Wilmersdorf von Berlin,Hauptstandort,Herbertstr. 2-6,14193,52.49143,13.28135,MagentaZuhause XL,175 MBit/s,40 MBit/s,300 MBit/s
04Y10,04Y10,Marie-Curie-Gymnasium,schulleitung@mcg-berlin.de,http://www.mcg-berlin.de,,VDSL 50,50,September 2019,SVDSL 250,250,21. Januar 2021,Bezirksstadträtin Charlottenburg-Wilmersdorf von Berlin,Hauptstandort,Weimarische Str. 21,10715,52.480119,13.324748,MagentaZuhause XL,250 MBit/s,40 MBit/s,0
04Y11,04Y11,Goethe-Gymnasium,info.goethe-gymnasium@t-online.de,,,DSL 16000,16,September 2019,VDSL 25,25,21. Januar 2021,Bezirksstadträtin Charlottenburg-Wilmersdorf von Berlin,Hauptstandort,Gasteiner Str. 23,10717,52.48759,13.3225,MagentaZuhause XL,250 MBit/s,40 MBit/s,300 MBit/s
05G01,05G01,Ernst-Ludwig-Heim-Grundschule,elhg@web.de,,,1.000 Mbit/s,1000,7. Oktober 2020,,,,,,Grunewaldstr. 8,13597,52.5304,13.20672,MagentaZuhause XL,250 MBit/s,40 MBit/s,300 MBit/s
05G02,05G02,Grundschule am Eichenwald,Grundschule_am_Eichenwald@t-online.de,,,500 Mbit/s,500,7. Oktober 2020,,,,,,Gaismannshofer Weg 2,13587,52.558423,13.199146,MagentaZuhause M,50 MBit/s,10 MBit/s,300 MBit/s
05G04,05G04,Klosterfeld-Grundschule,05G04@05G04.schule.berlin.de,http://www.klosterfeld-grundschule.de,,z.Z. kein geeignetes Kabelnetz,0,7. Oktober 2020,DSL 16000,16,10. Dezember 2020,Schul- und Sportamt Spandau von Berlin,,Seegefelder Str. 125,13583,52.53861,13.17968,MagentaZuhause XL,250 MBit/s,40 MBit/s,300 MBit/s
05G05,05G05,Christoph-Földerich-Grundschule,foelderich-schule@t-online.de,http://www.foelleschule-berlin.de,,1.000 Mbit/s,1000,7. Oktober 2020,,,,,,Földerichplatz 5,13595,52.51986,13.193276,MagentaZuhause L,100 MBit/s,40 MBit/s,300 MBit/s
05G06,05G06,Siegerland-Grundschule,sekretariat@siegerland-schule.de,http://www.siegerland-schule.de,,1.000 Mbit/s,1000,7. Oktober 2020,,,,,,Hermann-Schmidt-Weg 4,13589,52.55125,13.175203,MagentaZuhause XL,175 MBit/s,40 MBit/s,300 MBit/s
05G07,05G07,Lynar-Grundschule,info@lynar-grundschule.de,http://www.lynar-grundschule.de,,1.000 Mbit/s,1000,7. Oktober 2020,,,,,,Lutherstr. 19-20,13585,52.54766,13.20683,MagentaZuhause L,100 MBit/s,40 MBit/s,300 MBit/s
05G08,05G08,Konkordia-Grundschule,Konkordia-Grundschule@web.de,http://www.konkordia-grundschule.de,,1.000 Mbit/s,1000,7. Oktober 2020,,,,,,Elsflether Weg 26,13581,52.53018,13.19202,MagentaZuhause L,100 MBit/s,50 MBit/s,300 MBit/s
05G10,05G10,Grundschule am Birkenhain,info@grundschule-am-birkenhain.de,http://www.grundschule-am-birkenhain.de,,1.000 Mbit/s,1000,7. Oktober 2020,,,,,,Seeburger Str. 59,13581,52.52596,13.180519,MagentaZuhause L,100 MBit/s,40 MBit/s,300 MBit/s
05G11,05G11,Robert-Reinick-Grundschule,sekretariat@05g11.schule.berlin.de,http://www.robert-reinick-grundschule.de,,z.Z. kein geeignetes Kabelnetz,0,7. Oktober 2020,DSL 16000,16,10. Dezember 2020,Schul- und Sportamt Spandau von Berlin,,Jungfernheideweg 33-48,13629,52.54065,13.27277,MagentaZuhause XL,250 MBit/s,40 MBit/s,300 MBit/s
05G12,05G12,Grundschule am Weinmeisterhorn,gs.am.weinmeisterhorn@t-online.de,http://www.gsamweinmeisterhorn.schule-berlin.net,,1.000 Mbit/s,1000,7. Oktober 2020,,,,,,Daberkowstr. 27,13593,52.50825,13.1742,MagentaZuhause XL,175 MBit/s,40 MBit/s,300 MBit/s
05G13,05G13,Bernd-Ryke-Grundschule,info@bernd-ryke-gs.de,http://www.bernd-ryke-gs.de,,1.000 Mbit/s,1000,7. Oktober 2020,,,,,,Daumstr. 12,13599,52.54494,13.2325,MagentaZuhause XL,250 MBit/s,40 MBit/s,300 MBit/s
05G14,05G14,Linden-Grundschule,sekretariat@linden-gs.schule.berlin.de,http://www..linden-grundschule.de,,z.Z. kein geeignetes Kabelnetz,0,7. Oktober 2020,DSL 16000,16,10. Dezember 2020,Schul- und Sportamt Spandau von Berlin,,Staakener Feldstr. 6-8,13591,52.53517,13.14081,MagentaZuhause L,100 MBit/s,40 MBit/s,300 MBit/s
05G15,05G15,Askanier-Grundschule,t.berlin@askanier-gs.de,http://www.askanier-gs.de,,1.000 Mbit/s,1000,7. Oktober 2020,,,,,,Borkzeile 34,13583,52.54049,13.19242,MagentaZuhause L,100 MBit/s,40 MBit/s,300 MBit/s
05G16,05G16,Zeppelin-Grundschule,info@zeppelin-gs.de,http://www.zeppelin-gs.de,,1.000 Mbit/s,1000,7. Oktober 2020,,,,,,Heidebergplan 3-4,13591,52.5409,13.14635,MagentaZuhause XL,250 MBit/s,40 MBit/s,300 MBit/s
05G17,05G17,Astrid-Lindgren-Grundschule,sekretariat@lindgren.schule.berlin.de,http://www.lindgrenschule.de,,1.000 Mbit/s,1000,7. Oktober 2020,,,,,,Südekumzeile 5,13591,52.5311,13.15652,MagentaZuhause XL,250 MBit/s,40 MBit/s,300 MBit/s
05G18,05G18,Grundschule im Beerwinkel,schulleitung@beerwinkel.de,http://www.beerwinkel.de,,z.Z. kein geeignetes Kabelnetz,0,7. Oktober 2020,DSL 16000,16,10. Dezember 2020,Schul- und Sportamt Spandau von Berlin,,Im Spektefeld 31,13589,52.549023,13.154969,MagentaZuhause XL,250 MBit/s,40 MBit/s,300 MBit/s
05G19,05G19,Grundschule am Ritterfeld,schule@ritterfeld.berlin,http://www.grundschuleamritterfeld.de,,1.000 Mbit/s,1000,7. Oktober 2020,,,,,,Schallweg 31,14089,52.455239,13.138357,MagentaZuhause L,100 MBit/s,40 MBit/s,300 MBit/s
05G20,05G20,Carl-Schurz-Grundschule,sekretariat@05g20.schule.berlin.de,http://www.carl-schurz-grundschule.de,,1.000 Mbit/s,1000,7. Oktober 2020,,,,,,Hakenfelder Str. 32,13587,52.56751,13.199061,MagentaZuhause XL,175 MBit/s,40 MBit/s,300 MBit/s
05G21,05G21,Paul-Moor-Grundschule,sekretariat@paulmoor.schule,http://www.paulmoor.schule,,1.000 Mbit/s,1000,7. Oktober 2020,,,,,,Adamstr. 24-25,13595,52.521,13.19029,MagentaZuhause XL,250 MBit/s,40 MBit/s,300 MBit/s
05G22,05G22,Christian-Morgenstern-Grundschule,christian-morgenstern-gs.cids@t-online.de,http://www.christian-morgenstern-grundschule.de,,1.000 Mbit/s,1000,7. Oktober 2020,,,,,,Räcknitzer Steig 12,13593,52.5227,13.16816,MagentaZuhause XL,175 MBit/s,40 MBit/s,300 MBit/s
05G23,05G23,Grundschule am Brandwerder,sekretariat@brandwerder.de,http://www.brandwerder.de,,1.000 Mbit/s,1000,7. Oktober 2020,,,,,,Spandauer Str. 86,13591,52.53595,13.15293,MagentaZuhause XL,250 MBit/s,40 MBit/s,300 MBit/s
05G24,05G24,Grundschule am Windmühlenberg,sekretariat@schuleamwindmuehlenberg.de,http://www.SchuleAmWindmuehlenberg.de,,1.000 Mbit/s,1000,7. Oktober 2020,,,,,,Am Kinderdorf 23-37,14089,52.48547,13.17431,MagentaZuhause M,50 MBit/s,10 MBit/s,0
05G25,05G25,Grundschule am Wasserwerk,schuastawa@t-online.de,,,1.000 Mbit/s,1000,7. Oktober 2020,,,,,,Pionierstr. 197,13589,52.55625,13.16467,MagentaZuhause S,16 MBit/s,"2,4 MBit/s",300 MBit/s
05G26,05G26,Grundschule am Amalienhof,schule.amalienhof@gmail.com,http://gsamalienhof.de,,z.Z. kein geeignetes Kabelnetz,0,7. Oktober 2020,DSL 16000,16,10. Dezember 2020,Schul- und Sportamt Spandau von Berlin,,Weinmeisterhornweg 122,13593,52.51289,13.1667,MagentaZuhause M,50 MBit/s,10 MBit/s,300 MBit/s
05G27,05G27,Peter-Härtling-Grundschule,sekretariat@peter-haertling.schule.berlin.de,http://www.peter-haertling-gs.de,,z.Z. kein geeignetes Kabelnetz,0,7. Oktober 2020,DSL 16000,16,10. Dezember 2020,Schul- und Sportamt Spandau von Berlin,,Flankenschanze 20,13585,52.543893,13.1996,MagentaZuhause S,16 MBit/s,"2,4 MBit/s",300 MBit/s
05G28,05G28,Grundschule an der Pulvermühle,sekretariat@gs-pulvermuehle.de,http://www.gs-pulvermuehle.de,,1.000 Mbit/s,1000,7. Oktober 2020,,,,,,Grützmacherweg 7,13599,52.544061,13.228327,MagentaZuhause XL,250 MBit/s,40 MBit/s,300 MBit/s
05G29,05G29,Mary-Poppins-Grundschule,mary-poppins-grundschule@arcor.de,,,z.Z. kein geeignetes Kabelnetz,0,7. Oktober 2020,VDSL 25,25,10. Dezember 2020,Schul- und Sportamt Spandau von Berlin,,Am Flugplatz Gatow 20,14089,52.472209,13.127426,MagentaZuhause XL,250 MBit/s,40 MBit/s,300 MBit/s
05G30,05G30,Birken-Grundschule,sekretariat@05G30.schule.berlin.de,,,1.000 Mbit/s,1000,7. Oktober 2020,,,,,,Hügelschanze 8-9,13585,52.54863,13.19756,MagentaZuhause XL,250 MBit/s,40 MBit/s,300 MBit/s
05K01,05K01,Martin-Buber-Oberschule (Integrierte Sekundarschule),info@martin-buber-oberschule.de,http://www.martin-buber-oberschule.de,,1.000 Mbit/s,1000,7. Oktober 2020,,,,,,Im Spektefeld 33,13589,52.54895,13.1565,MagentaZuhause XL,250 MBit/s,40 MBit/s,300 MBit/s
05K02,05K02,Carlo-Schmid-Oberschule (Integrierte Sekundarschule),b.pobloth@carlo-schmid.schule,http://www.csoonline.de,,500 Mbit/s,500,7. Oktober 2020,,,,,,Lutoner Str. 15-19,13581,52.5259,13.17464,MagentaZuhause XL,250 MBit/s,40 MBit/s,300 MBit/s
05K03,05K03,Bertolt-Brecht-Oberschule (Integrierte Sekundarschule),sekretariat@brecht-oberschule.de,http://www.brecht-oberschule.de,,500 Mbit/s,500,7. Oktober 2020,,,,,,Wilhelmstr. 10,13595,52.525308,13.192692,MagentaZuhause L,100 MBit/s,40 MBit/s,300 MBit/s
05K04,05K04,Heinrich-Böll-Oberschule (Integrierte Sekundarschule),hbo@boell-schule.de,http://www.boell-schule.de,,500 Mbit/s,500,7. Oktober 2020,,,,,,Am Forstacker 9-11,13587,52.565166,13.199033,MagentaZuhause XL,250 MBit/s,40 MBit/s,300 MBit/s
05K05,05K05,B.-Traven-Gemeinschaftsschule,sekretariat@btg.schule.berlin.de,http://www.btg.schule,,1.000 Mbit/s,1000,7. Oktober 2020,,,,,,Recklinghauser Weg 26-32,13583,52.5469,13.17403,MagentaZuhause M,50 MBit/s,10 MBit/s,300 MBit/s
05K06,05K06a,Wolfgang-Borchert-Schule (Integrierte Sekundarschule),info@borchertschule-spandau.de,http://borchertschule-spandau.de,,1.000 Mbit/s,1000,7. Oktober 2020,,,,,Blumenstraße,Blumenstr. 13,13585,52.54571,13.1967,MagentaZuhause L,100 MBit/s,40 MBit/s,300 MBit/s
05K06,05K06b,Wolfgang-Borchert-Schule (Integrierte Sekundarschule),,,,z.Z. kein geeignetes Kabelnetz,0,7. Oktober 2020,VDSL 25,25,10. Dezember 2020,Schul- und Sportamt Spandau von Berlin,Borchertweg,Borchertweg 2,13585,52.543459,13.194591,MagentaZuhause M,50 MBit/s,10 MBit/s,300 MBit/s
05K07,05K07,Schule an der Jungfernheide (Integrierte Sekundarschule),info@schule-an-der-jungfernheide.de,http://www.schule-an-der-jungfernheide.de,,1.000 Mbit/s,1000,7. Oktober 2020,,,,,,Lenther Steig 1-3,13629,52.53843,13.26697,MagentaZuhause L,100 MBit/s,40 MBit/s,300 MBit/s
05K08,05K08,Schule an der Haveldüne (Integrierte Sekundarschule),info@schuleanderhavelduene.de,https://havelduene.berlin/,,500 Mbit/s,500,7. Oktober 2020,,,,,,Jaczostr. 53-67,13595,52.51098,13.18567,MagentaZuhause XL,250 MBit/s,40 MBit/s,300 MBit/s
05K09,05K09,Schule am Staakener Kleeblatt (Integrierte Sekundarschule),staakener.kleeblatt@gmail.com,http://www.schuleamstaakenerkleeblatt.de,,z.Z. kein geeignetes Kabelnetz,0,7. Oktober 2020,DSL 16000,16,10. Dezember 2020,Schul- und Sportamt Spandau von Berlin,,Brunsbütteler Damm 431-437,13591,52.5349,13.13491,MagentaZuhause L,100 MBit/s,40 MBit/s,300 MBit/s
05S01,05S01,Schule am Grüngürtel,sekretariat@05G30.schule.berlin.de,http://schule-am-gruenguertel.de,,z.Z. kein geeignetes Kabelnetz,0,7. Oktober 2020,DSL 16000,16,10. Dezember 2020,Schul- und Sportamt Spandau von Berlin,,Askanierring 42,13585,52.549099,13.1934,MagentaZuhause XL,250 MBit/s,40 MBit/s,300 MBit/s
05S03,05S03a,Schule am Gartenfeld,schule_am_gartenfeld-berlin@t-online.de,http://www.schule-am-gartenfeld.de,,z.Z. kein geeignetes Kabelnetz,0,7. Oktober 2020,DSL 16000,16,12. Januar 2021,Schul- und Sportamt Spandau von Berlin,Gartenfelder Straße,Gartenfelder Str. 81,13599,52.543211,13.24234,MagentaZuhause XL,250 MBit/s,40 MBit/s,300 MBit/s
05S03,05S03b,Schule am Gartenfeld,,,,z.Z. kein geeignetes Kabelnetz,0,7. Oktober 2020,DSL 16000,16,10. Dezember 2020,Schul- und Sportamt Spandau von Berlin,Seecktstraße,Seecktstraße 2,13581,52.526844,13.188415,MagentaZuhause XL,250 MBit/s,40 MBit/s,300 MBit/s
05S04,05S04,Schule am Stadtrand,kontakt@zwei-schulen.de,http://www.zwei-schulen.de,,1.000 Mbit/s,1000,7. Oktober 2020,,,,,,Pionierstr. 197,13589,52.555846,13.164834,MagentaZuhause S,16 MBit/s,"2,4 MBit/s",300 MBit/s
05Y01,05Y01,Freiherr-vom-Stein-Gymnasium,freiherr-vom-stein-gymnasium@t-online.de,http://www.steingymnasium.de,,1.000 Mbit/s,1000,7. Oktober 2020,,,,,,Galenstr. 40-44,13597,52.539684,13.198479,MagentaZuhause via Funk,50 MBit/s,10 MBit/s,0
05Y02,05Y02,Kant-Gymnasium,info@kant-gym.de,http://www.Kant-gymnasium-berlin.de,,1.000 Mbit/s,1000,7. Oktober 2020,,,,,,Bismarckstr. 54,13585,52.54286,13.20115,MagentaZuhause XL,175 MBit/s,40 MBit/s,300 MBit/s
05Y03,05Y03,Hans-Carossa-Gymnasium,Sekretariat@hans-carossa-gymnasium.de,http://www.hcg-berlin.de,,1.000 Mbit/s,1000,7. Oktober 2020,,,,,,Am Landschaftspark Gatow 40,14089,52.47244,13.13028,MagentaZuhause XL,250 MBit/s,40 MBit/s,300 MBit/s
05Y04,05Y04,Carl-Friedrich-von-Siemens-Gymnasium,mail@cfvsiemens.de,http://www.c-f-v-siemens-og.de,,500 Mbit/s,500,7. Oktober 2020,,,,,,Jungfernheideweg 79,13629,52.54559,13.26983,MagentaZuhause S,6 MBit/s,"2,4 MBit/s",300 MBit/s
05Y05,05Y05,Lily-Braun-Gymnasium,e-post@lily-braun-gymnasium.de,http://www.lily-braun-gymnasium.de,,500 Mbit/s,500,7. Oktober 2020,,,,,,Münsingerstr. 2,13597,52.538567,13.199029,MagentaZuhause L,100 MBit/s,40 MBit/s,300 MBit/s
06G01,06G01,Nord-Grundschule,sekretariat@nord-grund.schule.berlin.de,http://www.nordgrundschule.de,,nicht bekannt,-,September 2019,,,,,Hauptstandort,Potsdamer Str. 7,14163,52.435951,13.25558,MagentaZuhause via Funk,50 MBit/s,10 MBit/s,0
06G02,06G02,Süd-Grundschule,info@sued-grundschule.de,http://www.süd-grundschule-berlin.de,,nicht bekannt,-,September 2019,,,,,Hauptstandort,Claszeile 56,14165,52.4189,13.25839,MagentaZuhause XL,250 MBit/s,40 MBit/s,300 MBit/s
06G03,06G03a,Johannes-Tews-Grundschule,schulleitung@jtg-berlin.de,http://www.johannes-tews-grundschule.de,,sonstige,-,September 2019,,,,,Hauptstandort,Wasgenstr. 50,14129,52.43162,13.21262,MagentaZuhause M,50 MBit/s,10 MBit/s,300 MBit/s
06G03,06G03b,Johannes-Tews-Grundschule,,,,,,September 2019,,,,,Filiale,,,52.430756,13.215529,,,,
06G04,06G04,Erich-Kästner-Grundschule,sekretariat@eks.schule.berlin.de,http://www.erich-kaestner-grundschule-berlin.de,,DSL 16000,16,September 2019,,,,,Hauptstandort,Bachstelzenweg 2-8,14195,52.458141,13.283199,MagentaZuhause S,16 MBit/s,"2,4 MBit/s",300 MBit/s
06G05,06G05,Conrad-Schule (Grundschule),info@conrad-schule.de,http://www.conrad-schule.de,,< DSL 16000,6,September 2019,,,,,Hauptstandort,Schulstr. 4,14109,52.415181,13.146695,MagentaZuhause S,16 MBit/s,"2,4 MBit/s",300 MBit/s
06G06,06G06,Mühlenau-Grundschule,sekretariat@muehlenau.de,http://www.mühlenau.de,,sonstige,-,September 2019,,,,,Hauptstandort,Molsheimer Str. 7,14195,52.443206,13.276002,MagentaZuhause S,6 MBit/s,"2,4 MBit/s",300 MBit/s
06G07,06G07,Zinnowwald-Grundschule,Sekretariat@zinnowwald.schule.berlin.de,,,Glasfase (FTTH),1000,September 2019,,,,,Hauptstandort,Wilskistr. 78,14163,52.44543,13.246529,MagentaZuhause L,100 MBit/s,40 MBit/s,0
06G08,06G08,Schweizerhof-Grundschule,06G08@06G08.schule.berlin.de,http://www.schweizerhof-grundschule.de,,DSL 16000,16,September 2019,,,,,Hauptstandort,Leo-Baeck-Str. 28-30,14167,52.42278,13.26571,MagentaZuhause XL,250 MBit/s,40 MBit/s,300 MBit/s
06G09,06G09,Dreilinden-Grundschule,sekretariat@dreilinden-grundschule.de,http://www.dreilinden-grundschule.de,,DSL 16000,16,September 2019,,,,,Hauptstandort,Dreilindenstr. 65,14109,52.4205,13.18369,MagentaZuhause XL,250 MBit/s,40 MBit/s,300 MBit/s
06G10,06G10,Grundschule am Buschgraben,kontakt@grundschuleambuschgraben.de,http://www.grundschuleambuschgraben.de,,DSL 16000,16,September 2019,,,,,Hauptstandort,Ludwigsfelder Str. 43-47,14165,52.42192,13.242834,MagentaZuhause XL,250 MBit/s,40 MBit/s,300 MBit/s
06G12,06G12,Quentin-Blake-Grundschule,schulleitung@quentin-blake.schule.berlin.de,http://www.quentin-blake-europe-school.de,,< DSL 16000,6,September 2019,,,,,Hauptstandort,Hüttenweg 40,14195,52.454097,13.27055,MagentaZuhause L,100 MBit/s,40 MBit/s,300 MBit/s
06G14,06G14,Sachsenwald-Grundschule,sekretariat@sachsenwald.schule.berlin.de,http://www.sachsenwald-grundschule.de,,DSL 16000,16,September 2019,,,,,Hauptstandort,Sachsenwaldstr. 20-21,12157,52.46151,13.3354,MagentaZuhause XL,250 MBit/s,40 MBit/s,300 MBit/s
06G15,06G15,Dunant-Grundschule,sekr@dunant-grundschule.de,http://www.dunant-grundschule.de,,< DSL 16000,6,September 2019,,,,,Hauptstandort,Gritznerstr. 19-23,12163,52.46486,13.31818,MagentaZuhause XL,175 MBit/s,40 MBit/s,300 MBit/s
06G16,06G16,Rothenburg-Grundschule,schulleitung@rothenburg-grundschule.de,http://www.rothenburg-grundschule.de,,VDSL 25,25,September 2019,,,,,Hauptstandort,Rothenburgstr. 18,12165,52.45398,13.31302,MagentaZuhause XL,175 MBit/s,40 MBit/s,300 MBit/s
06G17,06G17,Grundschule am Insulaner,sekretariat.gsai@t-online.de,http://www.grundschule-am-insulaner.de,,VDSL 50,50,September 2019,,,,,Hauptstandort,Hanstedter Weg 11-15,12169,52.45185,13.34956,MagentaZuhause XL,250 MBit/s,40 MBit/s,300 MBit/s
06G18,06G18,Athene-Grundschule,info@athene-grundschule.de,http://www.athene-grundschule.de,,DSL 16000,16,September 2019,,,,,Hauptstandort,Curtiusstr. 37,12205,52.440565,13.290632,MagentaZuhause L,100 MBit/s,40 MBit/s,0
06G20,06G20,Alt-Lankwitzer Grundschule,buero@a-l-gs.schule.berlin.de,http://www.alt-lankwitzer-grundschule.de,,< DSL 16000,6,September 2019,,,,,Hauptstandort,Schulstr. 17-21,12247,52.437023,13.351096,MagentaZuhause L,100 MBit/s,40 MBit/s,300 MBit/s
06G21,06G21,Paul-Schneider-Grundschule,sekretariat@06g21.schule.berlin.de,http://www.paul-schneider-grundschule.de,,DSL 16000,16,September 2019,,,,,Hauptstandort,Seydlitzstr. 30-34,12249,52.431002,13.341243,MagentaZuhause XL,250 MBit/s,40 MBit/s,300 MBit/s
06G22,06G22,Giesensdorfer Grundschule,sekretariat@giesensdorfer.grundschule.berlin.de,http://www.giesensdorfer-grundschule.de,,DSL 16000,16,September 2019,,,,,Hauptstandort,Ostpreußendamm 63,12207,52.422226,13.31101,MagentaZuhause L,100 MBit/s,40 MBit/s,300 MBit/s
06G23,06G23,Kronach-Grundschule,schulleitung@kronach.schule.berlin.de,http://www.kronach-grundschule.de,,DSL 16000,16,September 2019,,,,,Hauptstandort,Moltkestr. 24-26,12203,52.44167,13.313098,MagentaZuhause XL,250 MBit/s,40 MBit/s,300 MBit/s
06G24,06G24,Grundschule unter den Kastanien,info@kastanie.schule.berlin.de,http://www.grundschule-unter-den-kastanien.de,,DSL 16000,16,September 2019,,,,,Hauptstandort,Kastanienstr. 6 -8,12209,52.42546,13.32527,MagentaZuhause XL,250 MBit/s,40 MBit/s,300 MBit/s
06G25,06G25,Clemens-Brentano-Grundschule,schulleitung@c-brentano-grundschule.de,http://www.c-brentano-grundschule.de,,VDSL 50,50,September 2019,,,,,Hauptstandort,Kommandantenstr. 83-84,12205,52.433511,13.29316,MagentaZuhause XL,175 MBit/s,40 MBit/s,300 MBit/s
06G26,06G26,Käthe-Kruse-Grundschule,Kaethe-Kruse-Grundschule@t-online.de,,,DSL 16000,16,September 2019,,,,,Hauptstandort,Tietzenweg 108,12203,52.438186,13.310138,MagentaZuhause XL,175 MBit/s,40 MBit/s,300 MBit/s
06G27,06G27a,Grundschule am Königsgraben,sekretariat@grundschule-am-koenigsgraben.de,http://www.grundschule-am-koenigsgraben.de,,DSL 16000,16,September 2019,,,,,Hauptstandort,Gallwitzallee 136-144,12249,52.42303,13.34815,MagentaZuhause XL,175 MBit/s,40 MBit/s,300 MBit/s
06G27,06G27b,Grundschule am Königsgraben,,,,DSL 16000,16,September 2019,,,,,2. Anschluss,,,52.422822,13.347392,MagentaZuhause XL,175 MBit/s,40 MBit/s,300 MBit/s
06G28,06G28,Ludwig-Bechstein-Grundschule,06G28@gmx.de,http://www.ludwig-bechstein-grundschule.net,,DSL 16000,16,September 2019,,,,,Hauptstandort,Halbauer Weg 25,12249,52.43255,13.36236,MagentaZuhause S,16 MBit/s,"2,4 MBit/s",300 MBit/s
06G29,06G29,Grundschule am Karpfenteich,info@karpfenteich.schule.berlin.de,http://www.grundschule-am-karpfenteich.de,,DSL 16000,16,September 2019,,,,,Hauptstandort,Hildburghauser Str. 135,12209,52.417401,13.333982,MagentaZuhause XL,250 MBit/s,40 MBit/s,300 MBit/s
06G30,06G30,Mercator-Grundschule,schule@mercator-gs.de,http://www.mercator-gs.de,,VDSL 50,50,September 2019,,,,,Hauptstandort,Mercatorweg 8-10,12207,52.41225,13.317376,MagentaZuhause L,100 MBit/s,40 MBit/s,300 MBit/s
06G31,06G31,Grundschule an der Bäke,info@baeke.net,http://www.baeke.net,,DSL 16000,16,September 2019,,,,,Hauptstandort,Haydnstr. 15,12203,52.447783,13.318838,MagentaZuhause XL,175 MBit/s,40 MBit/s,300 MBit/s
06G32,06G32a,Grundschule am Stadtpark Steglitz,sekretariat06g32@gmx.de,http://www.grundschule-am-stadtpark-steglitz.de,,DSL 16000,16,September 2019,,,,,Hauptstandort,Karl-Stieler-Str. 10-11,12167,52.449314,13.34298,MagentaZuhause XL,250 MBit/s,40 MBit/s,300 MBit/s
06G32,06G32b,Grundschule am Stadtpark Steglitz,,,,DSL 16000,16,September 2019,,,,,2. Anschluss,,,52.449732,13.342547,MagentaZuhause XL,250 MBit/s,40 MBit/s,300 MBit/s
06G33,06G33,Friedrich-Drake-Grundschule,buero@f-d-gs.de,http://www.friedrich-drake-grundschule.de,,< DSL 16000,6,September 2019,,,,,Hauptstandort,Drakestr. 80,12205,52.43254,13.30621,MagentaZuhause XL,250 MBit/s,40 MBit/s,300 MBit/s
06G34,06G34,34. Schule (Grundschule),plantage34@gmx.de,http://www.plantage34.de,,VDSL 100,100,September 2019,,,,,Hauptstandort,Plantagenstr. 8-9,12169,52.455499,13.330568,MagentaZuhause XL,250 MBit/s,40 MBit/s,300 MBit/s
06K01,06K01,John-F.-Kennedy-Schule,bsalzer@jfksberlin.org,http://www.jfks.de,,,-,September 2019,,,,,,Teltower Damm 87-93,14167,52.42589,13.26273,MagentaZuhause M,50 MBit/s,10 MBit/s,300 MBit/s
06K02,06K02a,Wilma-Rudolph-Schule (Integrierte Sekundarschule),buero@wilma-rudolph.de,http://www.wilma-rudolph.de,,Sonstige,-,September 2019,,,,,Hauptstandort,Am Hegewinkel 2A,14169,52.45479,13.26097,MagentaZuhause M,50 MBit/s,10 MBit/s,0
06K02,06K02b,Wilma-Rudolph-Schule (Integrierte Sekundarschule),,,,Sonstige,-,September 2019,,,,,2. Anschluss,,,52.455414,13.259988,MagentaZuhause M,50 MBit/s,10 MBit/s,0
06K03,06K03a,Kopernikus-Schule (Integrierte Sekundarschule),buero@kos-mail.de,http://www.kopernikus-oberschule.de,,VDSL 100,100,September 2019,,,,,Hauptstandort,Lepsiusstr. 24-28,12163,52.4643,13.32069,MagentaZuhause XL,250 MBit/s,40 MBit/s,300 MBit/s
06K03,06K03b,Kopernikus-Schule (Integrierte Sekundarschule),,,,VDSL 100,100,September 2019,,,,,2. Anschluss,,,,,MagentaZuhause XL,250 MBit/s,40 MBit/s,300 MBit/s
06K04,06K04,Bröndby-Schule (Integrierte Sekundarschule),post@broendby.de,http://www.broendby.de,,DSL 16000,16,September 2019,,,,,Hauptstandort,Dessauerstr. 63,12249,52.428237,13.345888,MagentaZuhause XL,250 MBit/s,40 MBit/s,300 MBit/s
06K08,06K08,Max-von-Laue-Schule,MvL-Berlin.Schulleitung@t-online.de,http://www.Max-von-Laue-Schule.de,,unbekannt,-,September 2019,,,,,Hauptstandort,Dürerstr. 27,12203,52.43725,13.305628,MagentaZuhause XL,250 MBit/s,40 MBit/s,300 MBit/s
06K09,06K09,Gail-S.-Halvorsen-Integrierte Sekundarschule,sekretariat@halvorsen-schule.de,http://www.halvorsen-schule.de,,VDSL 100,100,September 2019,,,,,Hauptstandort,Im Gehege 6,14195,52.459454,13.284371,MagentaZuhause L,100 MBit/s,40 MBit/s,300 MBit/s
06K10,06K10a,Helene-Lange-Schule (Integrierte Sekundarschule),sekretariat@helene.berlin,http://www.helene-lange-schule-steglitz.de,,VDSL 50,50,September 2019,,,,,Hauptstandort,Lauenburger Str. 110,12169,52.4528,13.33586,MagentaZuhause XL,250 MBit/s,40 MBit/s,0
06K10,06K10b,Helene-Lange-Schule (Integrierte Sekundarschule),,,,VDSL 50,50,September 2019,,,,,2. Anschluss,,,,,MagentaZuhause XL,250 MBit/s,40 MBit/s,0
06K10,06K10c,Helene-Lange-Schule (Integrierte Sekundarschule),,,,VDSL 50,50,September 2019,,,,,3. Anschluss,,,,,MagentaZuhause XL,250 MBit/s,40 MBit/s,0
06K11,06K11a,Anna-Essinger-Gemeinschaftsschule,sekretariat-os@aegs.de,http://aegs.de,,VDSL 25,25,September 2019,,,,,Hauptstandort,Tietzenweg 101,12203,52.438611,13.310161,MagentaZuhause XL,250 MBit/s,40 MBit/s,300 MBit/s
06K11,06K11b,Anna-Essinger-Gemeinschaftsschule,,,,unbekannt,,September 2019,,,,,Filiale,Am Rohrgarten 9,14163,52.425824,13.225754,MagentaZuhause via Funk,50 MBit/s,10 MBit/s,0
06S01,06S01,Pestalozzi-Schule,epost@pestalozzi-schule-berlin.de,http://www.pestalozzi-schule-berlin.de,,DSL 16000,16,September 2019,,,,,Hauptstandort,Hartmannsweilerweg 47,14163,52.44346,13.24838,MagentaZuhause L,100 MBit/s,40 MBit/s,0
06S02,06S02a,Biesalski-Schule,buero@biesalski-schule.de,http://www.biesalski-schule.de,,DSL 16000,16,September 2019,,,,,Hauptstandort,Hüttenweg 40,14195,52.454322,13.269575,MagentaZuhause L,100 MBit/s,40 MBit/s,300 MBit/s
06S02,06S02b,Biesalski-Schule,,,,DSL 16000,16,September 2019,,,,,2. Anschluss,,,52.454741,13.268762,MagentaZuhause L,100 MBit/s,40 MBit/s,300 MBit/s
06S03,06S03,Peter-Frankenfeld-Schule,sekretariat@frankenfeld.schule.berlin.de,http://www.peter-frankenfeld-schule.de,,unbekannt,-,September 2019,,,,,Hauptstandort,Wedellstr. 26,12247,52.43515,13.35522,MagentaZuhause M,50 MBit/s,10 MBit/s,300 MBit/s
06S05,06S05,J.-A.-Zeune-Schule für Blinde und Berufsfachschule Dr. Silex,sekretariat@zeune-schule.de,http://www.zeune-schule.de,,sonstige,-,September 2019,,,,,Hauptstandort,Rothenburgstr. 14,12165,52.455569,13.315047,MagentaZuhause XL,250 MBit/s,40 MBit/s,300 MBit/s
06Y01,06Y01,Schadow-Gymnasium,sekretariat@schadow-gymnasium-berlin.de,http://www.schadow-gymnasium.de,,keine Angabe,-,September 2019,,,,,Hauptstandort,Beuckestr. 27-29,14163,52.43149,13.25463,MagentaZuhause XL,250 MBit/s,40 MBit/s,300 MBit/s
06Y02,06Y02,Droste-Hülshoff-Gymnasium,sekretariat@droste-gymnasium-berlin.de,http://www.droste-gymnasium-berlin.de,,DSL 16000,16,September 2019,,,,,Hauptstandort,Schönower Str. 8,14165,52.42846,13.25673,MagentaZuhause XL,250 MBit/s,40 MBit/s,300 MBit/s
06Y03,06Y03,Arndt-Gymnasium Dahlem,sekretariat@arndt-gymnasium.de,http://www.arndt-gymnasium.de,,VDSL 50,50,September 2019,,,,,Hauptstandort,Königin-Luise-Str. 80-84,14195,52.45916,13.28001,MagentaZuhause XL,250 MBit/s,40 MBit/s,300 MBit/s
06Y04,06Y04,Dreilinden-Gymnasium,sekretariat@dreilinden-gymnasium.de,http://www.dreilinden-gymnasium.de,,SVDSL 250,250,September 2019,,,,,Hauptstandort,Dreilindenstr. 49,14109,52.42057,13.18778,MagentaZuhause XL,250 MBit/s,40 MBit/s,300 MBit/s
06Y05,06Y05,Werner-von-Siemens-Gymnasium,leitung@siemens-gymnasium-berlin.de,http://www.siemens-gymnasium-berlin.de,,< DSL 16000,6,September 2019,,,,,Hauptstandort,Beskidenstr. 3,14129,52.43194,13.21159,MagentaZuhause via Funk,50 MBit/s,10 MBit/s,0
06Y06,06Y06,Beethoven-Gymnasium,Leitung@beethoven-gymnasium.eu,http://www.beethoven-gymnasium.eu,,unbekannt,-,September 2019,,,,,Hauptstandort,Barbarastr. 9,12249,52.43293,13.34283,MagentaZuhause L,100 MBit/s,40 MBit/s,300 MBit/s
06Y07,06Y07,Paulsen-Gymnasium,paulsengymnasium@pg-berlin.de,http://www.paulsen-gymnasium.de,,VDSL 50,50,September 2019,,,,,Hauptstandort,Gritznerstr. 57,12163,52.46219,13.314388,MagentaZuhause XL,250 MBit/s,40 MBit/s,300 MBit/s
06Y08,06Y08,Hermann-Ehlers-Gymnasium,sekretariat@hermann-ehlers-schule.de,http://www.hermann-ehlers-schule.de,,VDSL 100,100,September 2019,,,,,Hauptstandort,Elisenstr. 3-4,12169,52.45297,13.33373,MagentaZuhause XL,175 MBit/s,40 MBit/s,300 MBit/s
06Y09,06Y09,Fichtenberg-Oberschule,info@fichtenberg-oberschule.net,http://fichtenberg-oberschule.net,,sonstige,-,September 2019,,,,,Hauptstandort,Rothenburgstr. 18,12165,52.45398,13.31302,MagentaZuhause XL,175 MBit/s,40 MBit/s,300 MBit/s
06Y10,06Y10,Lilienthal-Gymnasium,sekretariat@lilienthal-gymnasium-berlin.de,http://www.lilienthal-gymnasium-berlin.de,,VDSL 100,100,September 2019,,,,,Hauptstandort,Ringstr. 2-3,12203,52.43595,13.31215,MagentaZuhause XL,250 MBit/s,40 MBit/s,300 MBit/s
06Y11,06Y11,Goethe-Gymnasium Lichterfelde,sekretariat@goethe-lichterfelde.schule.berlin.de,http://www.goethe-gymnasium-lichterfelde.de,,SVDSL 250,250,September 2019,,,,,Hauptstandort,Drakestr. 72-75,12205,52.434929,13.305363,MagentaZuhause XL,250 MBit/s,40 MBit/s,300 MBit/s
06Y12,06Y12,Willi-Graf-Gymnasium,sekretariat@willi-graf-os.de,http://www.willi-graf-gymnasium.de,,VDSL 50,50,September 2019,,,,,Hauptstandort,Ostpreußendamm 166,12207,52.43469,13.32096,MagentaZuhause XL,175 MBit/s,40 MBit/s,300 MBit/s
06Y13,06Y13,Gymnasium Steglitz,sekretariat@gymnasiumsteglitz.de,http://www.gymnasiumsteglitz.de,,sonstige,-,September 2019,,,,,Hauptstandort,Heesestr. 15,12169,52.45671,13.32644,MagentaZuhause XL,250 MBit/s,40 MBit/s,300 MBit/s
07A05,07A05,Kolleg Schöneberg,Sekretariat@KollegSchoeneberg.de,http://www.KollegSchoeneberg.de,,DSL 16000,16,September 2019,,,,,Hauptstandort,Nürnberger Str. 63,10787,52.503451,13.341312,MagentaZuhause XL,250 MBit/s,40 MBit/s,300 MBit/s
07G01,07G01,Spreewald-Grundschule,Spreewald-Grundschule@gmx.de,http://www.spreewald-grundschule.de,,DSL 16000,16,September 2019,,,,,Hauptstandort,Pallasstr. 15,10781,52.49539,13.35693,MagentaZuhause L,100 MBit/s,40 MBit/s,300 MBit/s
07G02,07G02,Finow-Grundschule,sekretariat@finow.schule.berlin.de,http://www.finow-gs.de,,DSL 16000,16,September 2019,,,,,Hauptstandort,Welserstr. 16-22,10777,52.49823,13.34251,MagentaZuhause XL,250 MBit/s,40 MBit/s,300 MBit/s
07G03,07G03,Werbellinsee-Grundschule,sekretariat@werbellinsee.schule.berlin.de,http://www.Werbellinsee-Grundschule.de,,VDSL 100,100,September 2019,,,,,Hauptstandort,Luitpoldstr. 38,10781,52.495036,13.348236,MagentaZuhause XL,250 MBit/s,40 MBit/s,300 MBit/s
07G05,07G05,Havelland-Grundschule,sekretariat@havelland.schule.berlin.de,http://www.havelland-grundschule.de,,DSL 16000,16,September 2019,,,,,Hauptstandort,Kolonnenstr. 30,10829,52.484772,13.367681,MagentaZuhause XL,250 MBit/s,40 MBit/s,300 MBit/s
07G06,07G06,Sternberg-Grundschule,Schulleitung@sternberg.schule.berlin.de,http://www.sternberg-grundschulen.de,,unbekannt,-,September 2019,,,,,Hauptstandort,Mettestr. 8,10825,52.48047,13.33924,MagentaZuhause XL,250 MBit/s,40 MBit/s,300 MBit/s
07G07,07G07,Lindenhof-Grundschule,sekretariat@lindenhof.schulen-ts.de,http://www.lindenhof-grundschule.de,,DSL 16000,16,September 2019,,,,,Hauptstandort,Reglinstr. 29,12105,52.45809,13.36325,MagentaZuhause XL,250 MBit/s,40 MBit/s,300 MBit/s
07G10,07G10,Teltow-Grundschule,sekretariat@teltow.schule.berlin.de,http://www.teltow-grundschule.de,,DSL 16000,16,September 2019,,,,,Hauptstandort,Feurigstr. 57,10827,52.484327,13.356154,MagentaZuhause XL,250 MBit/s,40 MBit/s,300 MBit/s
07G12,07G12,Scharmützelsee-Grundschule,sekretariat@scharmuetzelsee.schule.berlin.de,http://www.scharmuetzelseegrundschule.de,,DSL 16000,16,September 2019,,,,,Hauptstandort,Hohenstaufenstr. 49,10779,52.494177,13.343268,MagentaZuhause XL,250 MBit/s,40 MBit/s,300 MBit/s
07G13,07G13,Neumark-Grundschule,sekretariat@neumark.schule.berlin.de,http://www.neumark-grundschule.de,,VDSL 50,50,September 2019,,,,,Hauptstandort,Steinmetzstr. 46-50,10783,52.49282,13.36249,MagentaZuhause XL,250 MBit/s,40 MBit/s,300 MBit/s
07G14,07G14,Löcknitz-Grundschule,sekretariat@loecknitz.schule.berlin.de,http://www.loecknitz-grundschule.de,,DSL 16000,16,September 2019,,,,,Hauptstandort,Berchtesgadener Str. 10-11,10779,52.489558,13.343356,MagentaZuhause XL,175 MBit/s,40 MBit/s,300 MBit/s
07G15,07G15,Fläming-Grundschule,flaeming@schulen-tempelhof-schoeneberg.de,http://www.flaeming-grundschule.de,,DSL 16000,16,September 2019,,,,,Hauptstandort,Illstr. 4-6,12161,52.46839,13.3329,MagentaZuhause XL,175 MBit/s,50 MBit/s,300 MBit/s
07G16,07G16,Ruppin-Grundschule,ruppingrundschule@web.de,http://www.ruppin-grundschule.de,,VDSL 100,100,September 2019,,,,,Hauptstandort,Offenbacher Str. 5A,14197,52.47538,13.32137,MagentaZuhause XL,250 MBit/s,40 MBit/s,300 MBit/s
07G17,07G17,Stechlinsee-Grundschule,Stechlinsee-Grundschule.Cids@t-online.de,http://www.stechlinsee-grundschule.de,,DSL 16000,16,September 2019,,,,,Hauptstandort,Rheingaustr. 7,12161,52.46934,13.32242,MagentaZuhause XL,250 MBit/s,40 MBit/s,300 MBit/s
07G18,07G18,Grundschule am Barbarossaplatz,07g18@07g18.schule.berlin.de,http://www.grundschuleambarbarossaplatz.de,,DSL 16000,16,September 2019,,,,,Hauptstandort,Barbarossaplatz 5,10781,52.49235,13.34978,MagentaZuhause XL,250 MBit/s,40 MBit/s,300 MBit/s
07G19,07G19,Paul-Simmel-Grundschule,sekretariat@paulsimmel.schule.berlin.de,http://www.paul-simmel-grundschule.de,,VDSL 50,50,September 2019,,,,,Hauptstandort,Felixstr. 26-58,12099,52.46137,13.3926,MagentaZuhause XL,250 MBit/s,40 MBit/s,300 MBit/s
07G20,07G20,Maria-Montessori-Grundschule,sekretariat@mmg.schule.berlin.de,http://www.mmg-online.de,,DSL 16000,16,September 2019,,,,,Hauptstandort,Friedrich-Wilhelm-Str. 72-74,12103,52.45817,13.38069,MagentaZuhause XL,250 MBit/s,40 MBit/s,300 MBit/s
07G21,07G21,Grundschule auf dem Tempelhofer Feld,sekretariat@tempelhoferfeld.schule.berlin.de,http://gs-tempelhoferfeld.de,,DSL 16000,16,September 2019,,,,,Hauptstandort,Schulenburgring 7-11,12101,52.48081,13.38185,MagentaZuhause M,50 MBit/s,10 MBit/s,300 MBit/s
07G22,07G22,Paul-Klee-Grundschule,Sekretariat@07G22.schule.berlin.de,http://www.paul-klee-schule.de,,DSL 16000,16,September 2019,,,,,Hauptstandort,Konradinstr. 15-17,12105,52.454,13.37538,MagentaZuhause XL,175 MBit/s,40 MBit/s,300 MBit/s
07G23,07G23,Schätzelberg-Grundschule,07g23@07g23.schule.berlin.de,http://www.schaetzelberg-grundschule.de,,DSL 16000,16,September 2019,,,,,Hauptstandort,Wolfsburger Weg 13-19,12109,52.4487,13.40066,MagentaZuhause XL,250 MBit/s,40 MBit/s,300 MBit/s
07G24,07G24,Tempelherren-Grundschule,sekretariat@tempelherren.schulen-ts.de,http://www.tempelherren-grundschule.de,,DSL 16000,16,September 2019,,,,,Hauptstandort,Boelckestr. 58-60,12101,52.478603,13.37647,MagentaZuhause S,16 MBit/s,"2,4 MBit/s",300 MBit/s
07G25,07G25,Mascha-Kaléko-Grundschule,sekretariat@mascha-kaleko-grundschule.de,http://www.mascha-kaleko-grundschule.de,,DSL 16000,16,September 2019,,,,,Hauptstandort,Königstr. 32,12105,52.447125,13.383928,MagentaZuhause L,100 MBit/s,40 MBit/s,300 MBit/s
07G26,07G26,Grundschule im Taunusviertel,sekretariat@taunusviertel.schule.berlin.de,http://www.grundschule-im-taunusviertel.de,,VDSL 50,50,September 2019,,,,,Hauptstandort,Wiesbadener Str. 20,12309,52.40019,13.41799,MagentaZuhause L,100 MBit/s,40 MBit/s,300 MBit/s
07G27,07G27,Rudolf-Hildebrand-Grundschule,sekretariat@rhg.schule.berlin.de,https://rhg.schule/,,DSL 16000,16,September 2019,,,,,Hauptstandort,Friedenstr. 23-25,12107,52.43886,13.3855,MagentaZuhause L,100 MBit/s,40 MBit/s,300 MBit/s
07G28,07G28,Kiepert-Grundschule,schulleitung@kiepert.schule.berlin.de,http://www.kiepertgrundschule.de,,DSL 16000,16,September 2019,,,,,Hauptstandort,Prechtlstr. 21-23,12277,52.41591,13.37327,MagentaZuhause XL,175 MBit/s,40 MBit/s,300 MBit/s
07G29,07G29,Käthe-Kollwitz-Grundschule,sekretariat@kollwitz-gs.schule.berlin.de,http://www.kkgs-berlin.de,,DSL 16000,16,September 2019,,,,,Hauptstandort,Mellener Str. 38-42,12307,52.3862,13.40487,MagentaZuhause XL,250 MBit/s,40 MBit/s,300 MBit/s
07G30,07G30,Annedore-Leber-Grundschule,Schulleitung@algs.schule.berlin.de,http://www.algs.de,,DSL 16000,16,September 2019,,,,,Hauptstandort,Halker Zeile 137-149,12305,52.39757,13.40197,MagentaZuhause M,50 MBit/s,10 MBit/s,300 MBit/s
07G31,07G31,Carl-Sonnenschein-Grundschule,07g31@07g31.schule.berlin.de,http://www.carl-sonnenschein-gs.de,,DSL 16000,16,September 2019,,,,,Hauptstandort,Am Hellespont 4-6,12109,52.443699,13.408152,MagentaZuhause XL,175 MBit/s,40 MBit/s,0
07G32,07G32,Bruno-H.-Bürgel-Grundschule,sekretariat@bhb.schule.berlin.de,http://www.bruno-h-buergel-grundschule.de,,DSL 16000,16,September 2019,,,,,Hauptstandort,Rackebüller Weg 70,12305,52.404902,13.402536,MagentaZuhause L,100 MBit/s,40 MBit/s,300 MBit/s
07G34,07G34a,Marienfelder Schule (Grundschule),sekretariat@marienfelder.schulen-ts.de,http://www.marienfelder-gs.de,,DSL 16000,16,September 2019,,,,,Hauptstandort,Erbendorfer Weg 13,12279,52.41209,13.35184,MagentaZuhause XL,250 MBit/s,40 MBit/s,300 MBit/s
07G34,07G34b,Marienfelder Schule (Grundschule),,,,DSL 16000,16,September 2019,,,,,2. Anschluss,,,52.411706,13.351786,MagentaZuhause XL,250 MBit/s,40 MBit/s,300 MBit/s
07G34,07G34c,Marienfelder Schule (Grundschule),,,,unbekannt,-,September 2019,,,,,Filiale,Tirschenreuther Ring 69,12279,52.409845,13.354812,MagentaZuhause XL,250 MBit/s,40 MBit/s,300 MBit/s
07G35,07G35,Nahariya-Grundschule,sekretariat@nahariya.schule.berlin.de,http://www.nahariyaschule.de,,DSL 16000,16,September 2019,,,,,Hauptstandort,Nahariyastr. 13-17,12309,52.39085,13.41943,MagentaZuhause L,100 MBit/s,40 MBit/s,300 MBit/s
07G36,07G36,Grundschule am Dielingsgrund,sekretariat@dielingsgrund.schulen-ts.de,http://www.dielingsgrund.com,,DSL 16000,16,September 2019,,,,,Hauptstandort,Dielingsgrund 35,12305,52.41166,13.40863,MagentaZuhause L,100 MBit/s,40 MBit/s,300 MBit/s
07G37,07G37,Ikarus-Grundschule,07g37@07g37.schule.berlin.de,http://www.ikarus-grundschule.de,,DSL 16000,16,September 2019,,,,,Hauptstandort,Körtingstr. 45,12107,52.43363,13.38389,MagentaZuhause XL,175 MBit/s,40 MBit/s,300 MBit/s
07K01,07K01a,Sophie-Scholl-Schule,kontakt@sophie-scholl-schule.eu,http://sophie-scholl-schule.eu,,DSL 16000,16,September 2019,,,,,Hauptstandort,Elßholzstr. 34-37,10781,52.493992,13.356788,MagentaZuhause L,100 MBit/s,40 MBit/s,300 MBit/s
07K01,07K01b,Sophie-Scholl-Schule,,,,DSL 16000,16,September 2019,,,,,2. Anschluss,,,52.494156,13.357754,MagentaZuhause L,100 MBit/s,40 MBit/s,300 MBit/s
07K02,07K02,Carl-Zeiss-Schule,sekretariat@carl-zeiss-oberschule.de,http://www.carl-zeiss-oberschule.de,,VDSL 50,50,September 2019,,,,,Hauptstandort,Barnetstr. 12-14,12305,52.39571,13.40258,MagentaZuhause XL,250 MBit/s,40 MBit/s,300 MBit/s
07K03,07K03,Gustav-Heinemann-Oberschule,Sekretariat@ghoberlin.de,http://gho.berlin,,VDSL 100,100,September 2019,,,,,Hauptstandort,Waldsassener Str. 62,12279,52.40662,13.34754,MagentaZuhause L,100 MBit/s,40 MBit/s,300 MBit/s
07K04,07K04,Theodor-Haubach-Schule,sekretariat@ths-berlin.de,http://www.ths-berlin.de,,DSL 16000,16,September 2019,,,,,Hauptstandort,Grimmstr. 9-11,12305,52.398399,13.403988,MagentaZuhause XL,250 MBit/s,40 MBit/s,300 MBit/s
07K05,07K05,Solling-Schule,sekretariat@solling-schule.de,http://www.solling-schule.de,,DSL 16000,16,September 2019,,,,,Hauptstandort,Alt-Marienfelde 52,12277,52.41397,13.36527,MagentaZuhause M,50 MBit/s,10 MBit/s,300 MBit/s
07K06,07K06,Georg-von-Giesche-Schule,kontakt@georg-von-giesche-schule.de,http://www.georg-von-giesche-schule.de,,VDSL 50,50,September 2019,,,,,Hauptstandort,Hohenstaufenstr. 47-48,10779,52.494144,13.342529,MagentaZuhause XL,250 MBit/s,40 MBit/s,300 MBit/s
07K07,07K07,Johanna-Eck-Schule (Integrierte Sekundarschule),sekretariat@johanna-eck-schule.de,http://www.johanna-eck-schule.de,,unbekannt,-,September 2019,,,,,Hauptstandort,Ringstr. 103-106,12105,52.44692,13.36411,MagentaZuhause XL,250 MBit/s,40 MBit/s,300 MBit/s
07K09,07K09,Gustav-Langenscheidt-Schule,schulleitung@langenscheidt.schule.berlin.de,http://www.gustav-langenscheidt-schule.de,,DSL 16000,16,September 2019,,,,,Hauptstandort,Belziger Str. 43-51,10823,52.485997,13.350718,MagentaZuhause XL,250 MBit/s,40 MBit/s,300 MBit/s
07K10,07K10,Friedrich-Bergius-Schule,Sekretariat@fbs-schule.de,http://www.Friedrich-Bergius-Schule.de,,DSL 16000,16,September 2019,,,,,Hauptstandort,Perelsplatz 6-9,12159,52.47618,13.33314,MagentaZuhause L,100 MBit/s,40 MBit/s,300 MBit/s
07K11,07K11,Hugo-Gaudig-Schule,Jasmin.dohrmann@hugo-gaudig-schule.de,http://www.hugo-gaudig-schule.de,,unbekannt,-,September 2019,,,,,Hauptstandort,Boelckestraße 58,12101,52.478179,13.375777,MagentaZuhause S,16 MBit/s,"2,4 MBit/s",300 MBit/s
07K12,07K12a,Friedenauer Gemeinschaftsschule,07K12@07K12.schule.berlin.de,http://www.friedenauer-gemeinschaftsschule.de,,unbekannt,-,September 2019,,,,,Hauptstandort,Rubensstr. 63,12157,52.469784,13.344068,MagentaZuhause L,100 MBit/s,40 MBit/s,300 MBit/s
07K12,07K12b,Friedenauer Gemeinschaftsschule,,,,unbekannt,-,September 2019,,,,,Filiale,Grazer Platz 1-3 ,12157,52.467677,13.344929,MagentaZuhause L,100 MBit/s,40 MBit/s,300 MBit/s
07K13,07K13,Schule am Berlinickeplatz (Integrierte Sekundarschule),schule07k13@gmx.de,http://schuleberlinickeplatz.blogspot.de,,DSL 16000,16,September 2019,,,,,Hauptstandort,Alt-Tempelhof 53-57,12103,52.465657,13.379583,MagentaZuhause XL,250 MBit/s,40 MBit/s,300 MBit/s
07S01,07S01,Prignitz-Schule,07s01@07s01.schule.berlin.de,,,DSL 16000,16,September 2019,,,,,Hauptstandort,Pöppelmannstr. 2,12157,52.46884,13.34519,MagentaZuhause L,100 MBit/s,40 MBit/s,300 MBit/s
07S03,07S03,Steinwald-Schule,schulleitung@steinwald.schule.berlin.de,http://www.steinwald-schule-berlin.de,,DSL 16000,16,September 2019,,,,,Hauptstandort,Hanielweg 7-9,12277,52.41783,13.36458,MagentaZuhause L,100 MBit/s,40 MBit/s,300 MBit/s
07S04,07S04,Marianne-Cohn-Schule,sekretariat@cohn.schulen-ts.de,http://www.marianne-cohn-schule.de,,DSL 16000,16,September 2019,,,,,Hauptstandort,Holzmannstr. 7,12099,52.46433,13.41815,MagentaZuhause L,100 MBit/s,40 MBit/s,300 MBit/s
07Y01,07Y01,Robert-Blum-Gymnasium,sekretariat@robert-blum-schule.de,http://www.robert-blum-schule.de,,DSL 16000,16,September 2019,,,,,Hauptstandort,Kolonnenstr. 21,10829,52.48483,13.36487,MagentaZuhause XL,250 MBit/s,40 MBit/s,300 MBit/s
07Y02,07Y02,Rückert-Gymnasium,schulleitung@rueckert-gymnasium-berlin.de,http://www.rueckert-gymnasium.berlin,,VDSL 100,100,September 2019,,,,,Hauptstandort,Mettestr. 8,10825,52.48047,13.33924,MagentaZuhause XL,250 MBit/s,40 MBit/s,300 MBit/s
07Y03,07Y03,Rheingau-Gymnasium,sekretariat@rheingau-gymnasium.de,http://www.rheingau-gymnasium.de,,DSL 16000,16,September 2019,,,,,Hauptstandort,Schwalbacher Str. 3-4,12161,52.470206,13.322611,MagentaZuhause XL,250 MBit/s,40 MBit/s,300 MBit/s
07Y04,07Y04,Paul-Natorp-Gymnasium,sekretariat@natorp-gymnasium.de,http://www.natorp.de,,SVDSL 250,250,September 2019,,,,,Hauptstandort,Goßlerstr. 13-15,12161,52.46939,13.32431,MagentaZuhause XL,250 MBit/s,40 MBit/s,300 MBit/s
07Y05,07Y05a,Luise-Henriette-Gymnasium,sekretariat@l-h-g.de,http://www.luise-henriette-berlin.de,,DSL 16000,16,September 2019,,,,,Hauptstandort,Kurfürstenstraße 53-54,12105,52.447997,13.383776,MagentaZuhause XL,250 MBit/s,40 MBit/s,300 MBit/s
07Y05,07Y05b,Luise-Henriette-Gymnasium,,,,DSL 16000,16,September 2019,,,,,2. Anschluss,,,52.447688,13.384228,MagentaZuhause XL,250 MBit/s,40 MBit/s,300 MBit/s
07Y06,07Y06,Askanisches Gymnasium,sekretariat@askanisches-gymnasium.de,http://www.askanisches-gymnasium.de,,DSL 16000,16,September 2019,,,,,Hauptstandort,Kaiserin-Augusta-Str. 19-20,12103,52.45992,13.37992,MagentaZuhause L,100 MBit/s,40 MBit/s,300 MBit/s
07Y07,07Y07,Eckener-Gymnasium,info@eckener-gymnasium.de,http://www.eckener-gymnasium.de,,VDSL 100,100,September 2019,,,,,Hauptstandort,Kaiserstr. 17-21,12105,52.4451,13.38052,MagentaZuhause XL,250 MBit/s,40 MBit/s,300 MBit/s
07Y08,07Y08,Ulrich-von-Hutten-Gymnasium,uvh@uvh-online.de,http://www.uvh-online.de,,VDSL 50,50,September 2019,,,,,Hauptstandort,Rehagener Str. 35-37,12307,52.38563,13.40388,MagentaZuhause XL,250 MBit/s,40 MBit/s,300 MBit/s
07Y09,07Y09,Georg-Büchner-Gymnasium,sekretariat@gbgonline.de,http://www.gbgonline.de,,SVDSL 250,250,September 2019,,,,,Hauptstandort,Lichtenrader Damm 224,12305,52.39186,13.406604,MagentaZuhause XL,175 MBit/s,40 MBit/s,300 MBit/s
08G01,08G01,Rixdorfer Schule (Grundschule),berlin.08G01@t-online.de,http://www.die-rixdorfer.de,,VDSL 100,100,September 2019,,,,,Hauptstandort,Donaustr. 120,12043,52.484904,13.431792,MagentaZuhause L,100 MBit/s,40 MBit/s,300 MBit/s
08G02,08G02,Theodor-Storm-Schule (Grundschule),sekretariat@theodor-storm.schuel.berlin.de,http://www.Theodor-Storm-Grundschule.de,,VDSL 50,50,September 2019,,,,,Hauptstandort,Hobrechtstr. 76,12043,52.486488,13.426763,MagentaZuhause XL,250 MBit/s,40 MBit/s,300 MBit/s
08G03,08G03,Hans-Fallada-Schule (Grundschule),hans-fallada-schule@gmx.de,http://www.hans-fallada-schule.de,,VDSL 100,100,September 2019,,,,,Hauptstandort,Harzer Str. 73,12059,52.483564,13.451851,MagentaZuhause XL,250 MBit/s,40 MBit/s,300 MBit/s
08G05,08G05,Elbe-Schule (Grundschule),berlin-08g05@versanet.de,http://www.elbeschule.de,,DSL 16000,16,September 2019,,,,,Hauptstandort,Elbestr. 11,12045,52.48442,13.44062,MagentaZuhause XL,175 MBit/s,40 MBit/s,300 MBit/s
08G06,08G06,Karl-Weise-Schule (Grundschule),08G06@08G06.schule.berlin.de,http://karl-weise-schule.de,,VDSL 100,100,September 2019,,,,,Hauptstandort,Weisestr. 20,12049,52.476503,13.423961,MagentaZuhause XL,250 MBit/s,40 MBit/s,300 MBit/s
08G07,08G07,Hermann-Boddin-Schule (Grundschule),berlin.08g07@t-online.de,http://www.boddin-schule.de,,unbekannt,-,September 2019,,,,,Hauptstandort,Boddinstr. 55,12053,52.480416,13.431252,MagentaZuhause XL,250 MBit/s,40 MBit/s,300 MBit/s
08G08,08G08a,Karlsgarten-Schule (Grundschule),berlin.08G08@versanet.de,http://www.karlsgarten.de,,DSL 16000,16,September 2019,,,,,Hauptstandort,Karlsgartenstr. 7,12049,52.482131,13.422101,MagentaZuhause L,100 MBit/s,40 MBit/s,300 MBit/s
08G08,08G08b,Karlsgarten-Schule (Grundschule),,,,DSL 16000,16,September 2019,,,,,2. Anschluss,,,52.482267,13.421112,MagentaZuhause L,100 MBit/s,40 MBit/s,300 MBit/s
08G09,08G09,Regenbogen-Schule (Grundschule),schulleitung@regenbogen.schule.berlin.de,http://www.regenbogen-grundschule.de,,VDSL 50,50,September 2019,,,,,Hauptstandort,Morusstr. 32,12053,52.47578,13.43333,MagentaZuhause XL,175 MBit/s,40 MBit/s,0
08G11,08G11,Schliemann-Grundschule,sekretariat@schliemann-grundschule.de,http://www.schliemann-grundschule.de,,VDSL 100,100,September 2019,,,,,Hauptstandort,Groß-Ziethener Chaussee 73,12355,52.41198,13.48526,MagentaZuhause via Funk,50 MBit/s,10 MBit/s,0
08G12,08G12,Peter-Petersen-Schule (Grundschule),info@pps-berlin.de,http://www.pps-berlin.de,,VDSL 50,50,September 2019,,,,,Hauptstandort,Jonasstr. 15,12053,52.47189,13.43548,MagentaZuhause XL,250 MBit/s,40 MBit/s,300 MBit/s
08G13,08G13,Bruno-Taut-Schule (Grundschule),Berlin_08G13@versanet.de,http://www.bruno-taut.de,,DSL 16000,16,September 2019,,,,,Hauptstandort,Bruno-Taut-Ring 9C,12359,52.44095,13.44886,MagentaZuhause XL,175 MBit/s,40 MBit/s,300 MBit/s
08G14,08G14,Konrad-Agahd-Schule (Grundschule),schulleitung@schule.agahd.berlin.de,http://www.agahd.de,,DSL 16000,16,September 2019,,,,,Hauptstandort,Thomasstr. 39,12053,52.4725,13.43556,MagentaZuhause XL,175 MBit/s,40 MBit/s,300 MBit/s
08G15,08G15,Hermann-Sander-Schule (Grundschule),info@hermann-sander-schule.de,http://www.hermann-sander-schule.de,,DSL 16000,16,September 2019,,,,,Hauptstandort,Mariendorfer Weg 69,12051,52.46416,13.43005,MagentaZuhause XL,250 MBit/s,40 MBit/s,300 MBit/s
08G16,08G16,Hugo-Heimann-Schule (Grundschule),sekretariat@hugoheimann.schule.berlin.de,http://www.hugoheimannschule.de,,DSL 16000,16,September 2019,,,,,Hauptstandort,Hugo-Heimann-Str. 20,12353,52.42538,13.45705,MagentaZuhause XL,250 MBit/s,40 MBit/s,300 MBit/s
08G17,08G17,Richard-Schule (Grundschule),08G17@o8G17.schule.berlin.de,http://www.richard-grundschule.de,,VDSL 100,100,September 2019,,,,,Hauptstandort,Richardplatz 14,12055,52.47359,13.44439,MagentaZuhause L,100 MBit/s,40 MBit/s,300 MBit/s
08G18,08G18,Eduard-Mörike-Schule (Grundschule),eduard-moerike@freenet.de,http://ems-neukoelln.de,,DSL 16000,16,September 2019,,,,,Hauptstandort,Stuttgarter Str. 35-39,12059,52.477969,13.450143,MagentaZuhause XL,250 MBit/s,40 MBit/s,300 MBit/s
08G19,08G19,Herman-Nohl-Schule (Grundschule),sekretariat@nohl-schule.de,http://www.herman-nohl.de,,VDSL 25,25,September 2019,,,,,Hauptstandort,Hannemannstr. 69,12347,52.455159,13.43894,MagentaZuhause L,100 MBit/s,40 MBit/s,300 MBit/s
08G20,08G20,Sonnen-Schule (Grundschule),sekretariat@sonnen.schule.berlin.de,,,DSL 16000,16,September 2019,,,,,Hauptstandort,Dammweg 228,12057,52.47197,13.46714,MagentaZuhause L,100 MBit/s,40 MBit/s,300 MBit/s
08G21,08G21,Silberstein-Schule (Grundschule),info@silberstein-schule.de,http://www.silberstein-schule.de,,VDSL 50,50,September 2019,,,,,Hauptstandort,Silbersteinstr. 42,12051,52.466965,13.434906,MagentaZuhause L,100 MBit/s,40 MBit/s,300 MBit/s
08G22,08G22,Schule am Regenweiher (Grundschule),info@Grundschule-am-Regenweiher.de,http://www.Grundschule-am-Regenweiher.de,,DSL 16000,16,September 2019,,,,,Hauptstandort,Johannisthaler Chaussee 328,12351,52.42985,13.45178,MagentaZuhause L,100 MBit/s,40 MBit/s,300 MBit/s
08G23,08G23,Zürich-Schule (Grundschule),Sekretariat@zuerich.schule.berlin.de,http://www.zuerich-schule-berlin.de,,VDSL 50,50,September 2019,,,,,Hauptstandort,Wederstr. 49,12347,52.462585,13.439533,MagentaZuhause L,100 MBit/s,40 MBit/s,300 MBit/s
08G24,08G24,Schule am Teltowkanal (Grundschule),08G24@08G24.schule.berlin.de,http://www.schule-am-teltowkanal.de,,DSL 16000,16,September 2019,,,,,Hauptstandort,Rungiusstr. 46,12347,52.45925,13.44063,MagentaZuhause L,100 MBit/s,40 MBit/s,300 MBit/s
08G25,08G25,Michael-Ende-Schule (Grundschule),sekretariat@michael-ende.schule.berlin.de,http://www.michael-ende-schule-berlin.de,,VDSL 100,100,September 2019,,,,,Hauptstandort,Neuhofer Str. 41,12355,52.41346,13.50984,MagentaZuhause L,100 MBit/s,40 MBit/s,300 MBit/s
08G26,08G26,Christoph-Ruden-Schule (Grundschule),sekretariat@08G26.schule.berlin.de,http://www.christoph-ruden-schule.de,,VDSL 100,100,September 2019,,,,,Hauptstandort,An den Achterhöfen 13,12349,52.421067,13.435095,MagentaZuhause L,100 MBit/s,40 MBit/s,300 MBit/s
08G27,08G27,Oskar-Heinroth-Schule (Grundschule),08G27@08G27.schule.berlin.de,http://oskar-heinroth-schule.de,,< DSL 16000,6,September 2019,,,,,Hauptstandort,Rohrdommelweg 1,12359,52.44057,13.47209,MagentaZuhause L,100 MBit/s,40 MBit/s,0
08G28,08G28,Matthias-Claudius-Schule (Grundschule),post@mcgs.berlin,http://www.mcgs.berlin,,VDSL 100,100,September 2019,,,,,Hauptstandort,Köpenicker Str. 148,12355,52.420381,13.501675,MagentaZuhause XL,250 MBit/s,40 MBit/s,300 MBit/s
08G29,08G29,Wetzlar-Schule (Grundschule),Berlin.08G29@t-online.de,http://www.wetzlar-schule.de,,< DSL 16000,6,September 2019,,,,,Hauptstandort,Tischlerzeile 34,12351,52.43092,13.44294,MagentaZuhause S,16 MBit/s,"2,4 MBit/s",300 MBit/s
08G30,08G30,Schule am Sandsteinweg (Grundschule),sekretariat@sams.schule.berlin.de,http://www.sams.gs,,DSL 16000,16,September 2019,,,,,Hauptstandort,Hornblendeweg 2,12349,52.41829,13.40469,MagentaZuhause XL,175 MBit/s,40 MBit/s,300 MBit/s
08G31,08G31,Janusz-Korczak-Schule (Grundschule),sekretariat@jkgs.schule.berlin.de,http://jkgs-berlin.de,,VDSL 100,100,September 2019,,,,,Hauptstandort,Wildhüterweg 5,12353,52.42179,13.45659,MagentaZuhause L,100 MBit/s,40 MBit/s,300 MBit/s
08G33,08G33,Schule am Fliederbusch (Grundschule),sekretariat@fliederbusch.schule.berlin.de,http://www.schule-am-fliederbusch.de,,VDSL 100,100,September 2019,,,,,Hauptstandort,Kornradenstr. 2,12357,52.42424,13.48673,MagentaZuhause XL,250 MBit/s,40 MBit/s,300 MBit/s
08G34,08G34,Lisa-Tetzner-Schule (Grundschule),berlin.08g34@t-online.de,http://www.lisa-tetzner.de,,VDSL 100,100,September 2019,,,,,Hauptstandort,Hasenhegerweg 12,12353,52.42254,13.44504,MagentaZuhause XL,175 MBit/s,40 MBit/s,300 MBit/s
08G35,08G35,Schule in der Köllnischen Heide (Grundschule),grundheide@t-online.de,,,< DSL 16000,6,September 2019,,,,,Hauptstandort,Hänselstr. 6,12057,52.4666,13.4721,MagentaZuhause XL,175 MBit/s,40 MBit/s,300 MBit/s
08G36,08G36,Löwenzahn-Schule (Grundschule),sekretariat@loewenzahn.schule.berlin.de,http://www.loewenzahn-schule.de,,SVDSL 250,250,September 2019,,,,,Hauptstandort,Drorystr. 3,12055,52.472499,13.448771,MagentaZuhause XL,175 MBit/s,40 MBit/s,300 MBit/s
08G37,08G37,Rose-Oehmichen-Schule (Grundschule),sekretariat@08g37.schule.berlin.de,http://www.rose-oehmichen-schule-berlin.de,,VDSL 50,50,September 2019,,,,,Hauptstandort,Lieselotte-Berger-Str. 65,12355,52.401126,13.501995,MagentaZuhause L,100 MBit/s,40 MBit/s,300 MBit/s
08K01,08K01,Walter-Gropius-Schule (Gemeinschaftsschule),Gemeinschaftsschule@walter-gropius-schule-berlin.de,http://www.walter-gropius-schule-berlin.de,,VDSL 100,100,September 2019,,,,,Hauptstandort,Fritz-Erler-Allee 86,12351,52.42934,13.46355,MagentaZuhause XL,175 MBit/s,40 MBit/s,300 MBit/s
08K02,08K02,Hermann-von-Helmholtz-Schule,info@hvhschule.de,http://www.hvhschule.de,,VDSL 100,100,September 2019,,,,,Hauptstandort,Wutzkyallee 68,12353,52.421823,13.472974,MagentaZuhause L,100 MBit/s,40 MBit/s,300 MBit/s
08K03,08K03,Otto-Hahn-Schule,sekretariat@ohs.berlin,http://ohs.berlin,,VDSL 50,50,September 2019,,,,,Hauptstandort,Buschkrugallee 63,12359,52.45809,13.449,MagentaZuhause XL,175 MBit/s,40 MBit/s,300 MBit/s
08K04,08K04,Heinrich-Mann-Schule,08K04@08K04.schule.berlin.de,http://www.heinrichmannschule.de/,,VDSL 100,100,September 2019,,,,,Hauptstandort,Gerlinger Str. 22,12353,52.41578,13.43231,MagentaZuhause XL,250 MBit/s,40 MBit/s,300 MBit/s
08K05,08K05a,Clay-Schule,sekretariat@clay-schule.de,http://www.clay-schule.de,,VDSL 100,100,September 2019,,,,,Hauptstandort,Bildhauerweg 9,12355,52.41759,13.48999,MagentaZuhause XL,175 MBit/s,40 MBit/s,300 MBit/s
08K05,08K05b,Clay-Schule,,,,VDSL 100,100,September 2019,,,,,2. Anschluss,,,52.416368,13.490140,MagentaZuhause XL,175 MBit/s,40 MBit/s,300 MBit/s
08K06,08K06a,Fritz-Karsen-Schule (Gemeinschaftsschule),sekretariat@fritz-karsen.de,http://www.fritz-karsen.de,,VDSL 50,50,September 2019,,,,,Hauptstandort,Onkel-Bräsig-Str. 76-78,12359,52.44865,13.44389,MagentaZuhause via Funk,50 MBit/s,10 MBit/s,0
08K06,08K06b,Fritz-Karsen-Schule (Gemeinschaftsschule),,,,VDSL 50,50,September 2019,,,,,2. Anschluss,,,52.447852,13.443647,MagentaZuhause via Funk,50 MBit/s,10 MBit/s,0
08K06,08K06c,Fritz-Karsen-Schule (Gemeinschaftsschule),,,,keine Angabe,10,September 2019,,,,,Filiale,Backbergstraße 39,12359,52.448018,13.437736,MagentaZuhause XL,250 MBit/s,40 MBit/s,300 MBit/s
08K08,08K08a,Gemeinschaftsschule auf dem Campus Rütli,schulleitung@campusruetli.de,http://www.campusruetli.de,,DSL 16000,16,September 2019,,,,,Hauptstandort,Rütlistr. 41,12045,52.487309,13.434226,MagentaZuhause XL,175 MBit/s,40 MBit/s,300 MBit/s
08K08,08K08b,Gemeinschaftsschule auf dem Campus Rütli,,,,DSL 16000,16,September 2019,,,,,2. Anschluss,,,52.488267,13.434224,MagentaZuhause XL,175 MBit/s,40 MBit/s,300 MBit/s
08K08,08K08c,Gemeinschaftsschule auf dem Campus Rütli,,,,unbekannt,-,September 2019,,,,,Filiale,Weserstraße 12,12047,52.487651,13.430175,MagentaZuhause XL,250 MBit/s,40 MBit/s,300 MBit/s
08K09,08K09,Röntgen-Schule,berlin.08K09@versanet.de,http://www.roentgen-sekundarschule.de,,< DSL 16000,6,September 2019,,,,,Hauptstandort,Wildenbruchstr. 53,12435,52.488886,13.449558,MagentaZuhause XL,250 MBit/s,40 MBit/s,300 MBit/s
08K10,08K10,Zuckmayer-Schule,08K10@08K10.schule.berlin.de,http://www.zuckmayer-schule.de,,VDSL 50,50,September 2019,,,,,Hauptstandort,Kopfstr. 55,12053,52.4761,13.43129,MagentaZuhause XL,175 MBit/s,40 MBit/s,300 MBit/s
08K11,08K11a,Alfred-Nobel-Schule,alfred-nobel-schule@t-online.de,http://www.alfred-nobel-schule.de,,VDSL 25,25,September 2019,,,,,Hauptstandort,Britzer Damm 164,12347,52.448,13.43469,MagentaZuhause XL,250 MBit/s,40 MBit/s,300 MBit/s
08K11,08K11b,Alfred-Nobel-Schule,,,,keine Angabe,,September 2019,,,,,Filiale,Parchimer Allee 111,12359,52.445597,13.443513,MagentaZuhause L,100 MBit/s,40 MBit/s,300 MBit/s
08K11,08K11c,Alfred-Nobel-Schule,,,,keine Angabe,,September 2019,,,,,"Filiale, 2. Anschluss",,,52.445270,13.443629,MagentaZuhause L,100 MBit/s,40 MBit/s,300 MBit/s
08K12,08K12,Kepler-Schule,08K12@08K12.schule.berlin.de,,,VDSL 100,100,September 2019,,,,,Hauptstandort,Zwillingestr. 21,12057,52.46737,13.46477,MagentaZuhause L,100 MBit/s,40 MBit/s,300 MBit/s
08K13,08K13a,Gemeinschaftsschule Campus Efeuweg,verwaltung@campus-efeuweg.de,http://www.gemeinschaftsschule.campus-efeuweg.de,,VDSL 50,50,September 2019,,,,,Hauptstandort,Efeuweg 34,12357,52.426935,13.473868,MagentaZuhause XL,250 MBit/s,40 MBit/s,300 MBit/s
08K13,08K13b,Gemeinschaftsschule Campus Efeuweg,,,,VDSL 50,50,September 2019,,,,,2. Anschluss,,,52.426284,13.472653,MagentaZuhause XL,250 MBit/s,40 MBit/s,300 MBit/s
08S01,08S01,Adolf-Reichwein-Schule,sekretariat@adolf-reichwein.schule.berlin.de,http://www.adolf-reichwein-schule.com,,VDSL 50,50,September 2019,,,,,Hauptstandort,Sonnenallee 188,12059,52.475733,13.450826,MagentaZuhause XL,250 MBit/s,40 MBit/s,300 MBit/s
08S04,08S04,Schule am Zwickauer Damm,Schule_am_Zwickauer_Damm1@t-online.de,http://www.schule-am-zwickauer-damm.de,,DSL 16000,16,September 2019,,,,,Hauptstandort,Zwickauer Damm 17-22,12353,52.422,13.48315,MagentaZuhause XL,175 MBit/s,40 MBit/s,300 MBit/s
08S05,08S05a,Schule am Hasenhegerweg,08S05@web.de,http://www.hasenheger.de,,VDSL 100,100,September 2019,,,,,Hauptstandort,Hasenhegerweg 12,12353,52.42254,13.44504,MagentaZuhause XL,175 MBit/s,40 MBit/s,300 MBit/s
08S05,08S05b,Schule am Hasenhegerweg,,,,VDSL 100,100,September 2019,,,,,2. Anschluss,,,52.422803,13.445741,MagentaZuhause XL,175 MBit/s,40 MBit/s,300 MBit/s
08S06,08S06a,Hans-Fallada-Schule,hans-fallada-schule@gmx.de,http://www.hans-fallada-schule.de,,VDSL 100,100,September 2019,,,,,Hauptstandort,Harzer Str. 73-74,12059,52.483564,13.451851,MagentaZuhause XL,250 MBit/s,40 MBit/s,300 MBit/s
08S06,08S06b,Hans-Fallada-Schule,,,,VDSL 100,100,September 2019,,,,,2. Anschluss,,,52.484024,13.452556,MagentaZuhause XL,250 MBit/s,40 MBit/s,300 MBit/s
08S07,08S07,Schule am Bienwaldring,berlin.08S07@t-online.de,http://www.bienwaldring.cidsnet.de,,VDSL 100,100,September 2019,,,,,Hauptstandort,Breitunger Weg 1,12349,52.42178,13.42537,MagentaZuhause XL,175 MBit/s,40 MBit/s,300 MBit/s
08S08,08S08,Schilling-Schule,schulleitung@schillingschule.de,http://www.schillingschule.de,,DSL 16000,16,September 2019,,,,,Hauptstandort,Paster-Behrens-Str. 81,12359,52.442637,13.444198,MagentaZuhause L,100 MBit/s,40 MBit/s,300 MBit/s
08S09,08S09,Schule an der Windmühle,08S09@08S09.schule.berlin.de,http://www.schule-an-der-windmuehle.de,,VDSL 100,100,September 2019,,,,,Hauptstandort,Buckower Damm 176,12349,52.42741,13.43451,MagentaZuhause XL,175 MBit/s,40 MBit/s,300 MBit/s
08Y01,08Y01a,Albrecht-Dürer-Gymnasium,email@albrecht-duerer-gymnasium.de,http://www.albrecht-duerer-gymnasium.de,,VDSL 100,100,September 2019,,,,,Hauptstandort,Emser Str. 132-137,12051,52.469446,13.439583,MagentaZuhause XL,250 MBit/s,40 MBit/s,300 MBit/s
08Y01,08Y01b,Albrecht-Dürer-Gymnasium,,,,VDSL 100,100,September 2019,,,,,2. Anschluss,,,52.469513,13.440507,MagentaZuhause XL,250 MBit/s,40 MBit/s,300 MBit/s
08Y02,08Y02,Albert-Schweitzer-Gymnasium,sekretariat@die-schweitzer.de,http://www.die-schweitzer.de,,VDSL 100,100,September 2019,,,,,Hauptstandort,Karl-Marx-Str. 14,12043,52.4852,13.42649,MagentaZuhause XL,250 MBit/s,40 MBit/s,300 MBit/s
08Y03,08Y03,Albert-Einstein-Gymnasium,sekretariat@aeo.de,http://www.aeo.de,,VDSL 50,50,September 2019,,,,,Hauptstandort,Parchimer Allee 109,12359,52.445359,13.443024,MagentaZuhause L,100 MBit/s,40 MBit/s,300 MBit/s
08Y04,08Y04,Ernst-Abbe-Gymnasium,schule@ernst-abbe.de,http://www.ernst-abbe.de,,DSL 16000,16,September 2019,,,,,Hauptstandort,Sonnenallee 79,12045,52.48349,13.43711,MagentaZuhause XL,250 MBit/s,40 MBit/s,300 MBit/s
08Y05,08Y05,Leonardo-da-Vinci-Gymnasium,sekretariat@08y05.schule.berlin.de,http://Leonardo-da-Vinci-Gymnasium.de,,VDSL 100,100,September 2019,,,,,Hauptstandort,Haewererweg 35,12349,52.41623,13.42658,MagentaZuhause XL,175 MBit/s,40 MBit/s,300 MBit/s
08Y06,08Y06,Hannah-Arendt-Gymnasium,h-a-os997@t-online.de,http://www.hannah-arendt-os.de,Seit Ende November 250 Mbit/s,VDSL 50,50,September 2019,,,,,Hauptstandort,Elfriede-Kuhr-Str. 17,12355,52.40411,13.508639,MagentaZuhause via Funk,50 MBit/s,10 MBit/s,0
09A05,09A05,Treptow-Kolleg,Schulleitung@treptow-kolleg.de,http://www.treptow-kolleg.de,,SVDSL 250,250,28. Oktober 2020,,,,,,Kiefholzstr. 274,12437,52.46818,13.48463,MagentaZuhause XL,250 MBit/s,40 MBit/s,300 MBit/s
09G01,09G01,Bouché-Schule (Grundschule),sekretariat@bouche.schule.berlin.de,http://www.bouche-schule.de,,VDSL 100,100,28. Oktober 2020,,,,,,Bouchestr. 5-10,12435,52.49327,13.45252,MagentaZuhause L,100 MBit/s,40 MBit/s,300 MBit/s
09G03,09G03,Schule am Heidekampgraben (Grundschule),kontakt@heidekampgraben.de,http://www.grundschuleamheidekampgraben.de,,DSL 16000,16,28. Oktober 2020,,,,,,Hänselstr. 14,12437,52.46872,13.47837,MagentaZuhause S,16 MBit/s,"2,4 MBit/s",300 MBit/s
09G04,09G04,Sonnenblumen-Schule (Grundschule),sekretariat@sonnenblumen.de,http://www.sonnenblumen-grundschule.de,,VDSL 25,25,28. Oktober 2020,,,,,,Radenzer Str. 16,12437,52.46163,13.48872,MagentaZuhause XL,175 MBit/s,50 MBit/s,300 MBit/s
09G05,09G05,Schule am Ginkobaum (Grundschule),Sekretariat@ginkobaum.schule.berlin.de,http://www.ginkobaumschule.de,,SVDSL 250,250,28. Oktober 2020,,,,,,Springbornstr. 250,12487,52.44014,13.4979,MagentaZuhause XL,250 MBit/s,40 MBit/s,300 MBit/s
09G06,09G06,Melli-Beese-Schule (Grundschule),Sekretariat@melli-beese.schule.berlin.de,http://www.melli-beese-schule.de,,SVDSL 175,175,28. Oktober 2020,,,,,,Engelhardstr. 18,12487,52.44696,13.51031,MagentaZuhause XL,250 MBit/s,40 MBit/s,300 MBit/s
09G07,09G07,Schule an der alten Feuerwache (Grundschule),Sekretariat@09G07.schule.berlin.de,http://www.schuleanderfeuerwache.de,,SVDSL 250,250,28. Oktober 2020,,,,,,Schnellerstr. 31,12439,52.45459,13.51379,MagentaZuhause XL,250 MBit/s,40 MBit/s,300 MBit/s
09G09,09G09a,Heide-Schule (Grundschule),heidegrundschule-berlin@gmx.de,http://www.heideschule-berlin.de,,SVDSL 250,250,28. Oktober 2020,,,,,,Florian-Geyer-Str. 87,12489,52.438648,13.543713,MagentaZuhause XL,250 MBit/s,40 MBit/s,300 MBit/s
09G09,09G09b,Heide-Schule (Grundschule),,,,VDSL 100,100,28. Oktober 2020,,,,,Filiale,Waldstraße 7,12489,52.442714,13.551495,MagentaZuhause L,100 MBit/s,40 MBit/s,300 MBit/s
09G10,09G10,Schule am Berg (Grundschule),grundschuleamberg@t-online.de,http://www.schuleamberg.de,,SVDSL 250,250,28. Oktober 2020,,,,,,Köpenicker Str. 31,12524,52.41866,13.538044,MagentaZuhause XL,250 MBit/s,40 MBit/s,300 MBit/s
09G11,09G11,Schule am Pegasuseck (Grundschule),09g11@09g11.schule.berlin.de,http://www.pegasuseck.de,,SVDSL 250,250,28. Oktober 2020,,,,,,Pegasuseck 5,12524,52.40638,13.5294,MagentaZuhause XL,250 MBit/s,40 MBit/s,300 MBit/s
09G13,09G13,Schule am Altglienicker Wasserturm (Grundschule),info@wasserturm-schule.de,http://www.wasserturm-schule.de,,SVDSL 175,175,28. Oktober 2020,,,,,,Sachsenstr. 22,12524,52.41079,13.55406,MagentaZuhause XL,250 MBit/s,40 MBit/s,300 MBit/s
09G14,09G14,Schule am Buntzelberg (Grundschule),sekretariat@schule.buntzelberg.berlin.de,http://www.schule-am-buntzelberg.de,,VDSL 100,100,28. Oktober 2020,,,,,,Schulzendorfer Str. 112,12526,52.40671,13.57427,MagentaZuhause L,100 MBit/s,40 MBit/s,300 MBit/s
09G15,09G15,Schule am Mohnweg (Grundschule),sekretariat@mohnweg.schule.berlin.de,http://www.grundschuleammohnweg.de,,SVDSL 250,250,28. Oktober 2020,,,,,,Mohnweg 20,12524,52.40733,13.53679,MagentaZuhause XL,250 MBit/s,40 MBit/s,300 MBit/s
09G16,09G16,Wendenschloß-Schule (Grundschule),wendenschloss-g.rektorat@t-online.de,,,SVDSL 175,175,28. Oktober 2020,,,,,,Köpenzeile 123,12557,52.42845,13.5953,MagentaZuhause XL,250 MBit/s,40 MBit/s,300 MBit/s
09G17,09G17,Uhlenhorst-Grundschule,Sekretariat@09G17.schule.berlin.de,http://www.uhlenhorst-grundschule.de,,VDSL 50,50,28. Oktober 2020,,,,,,Wongrowitzer Steig 37,12555,52.467512,13.579352,MagentaZuhause L,100 MBit/s,40 MBit/s,300 MBit/s
09G18,09G18,Schule in der Köllnischen Vorstadt (Grundschule),schulbuero.09G18@t-online.de,http://www.gs-kvstd.cidsnet.de,,VDSL 100,100,28. Oktober 2020,,,,,,Rudower Str. 201,12557,52.43946,13.56429,MagentaZuhause XL,250 MBit/s,40 MBit/s,300 MBit/s
09G19,09G19,Amtsfeld-Schule (Grundschule),amtsfeld-grundschule@t-online.de,http://www.amtsfeld-schule.de,,VDSL 100,100,28. Oktober 2020,,,,,,Pablo-Neruda-Str. 8,12559,52.44262,13.58891,MagentaZuhause L,100 MBit/s,40 MBit/s,300 MBit/s
09G20,09G20,Müggelheimer Schule (Grundschule),sekretariat@09g20.schule.berlin.de,http://mueggelheimer-grundschule.de,,SVDSL 250,250,28. Oktober 2020,,,,,,Odernheimer Str. 28,12559,52.41469,13.66739,MagentaZuhause XL,250 MBit/s,40 MBit/s,0
09G21,09G21,Edison-Grundschule,sekretariat@edison.schule.berlin.de,http://www.edison-grundschule.de,,SVDSL 250,250,28. Oktober 2020,,,,,,Wattstr. 69-70,12459,52.46607,13.50886,MagentaZuhause XL,175 MBit/s,40 MBit/s,300 MBit/s
09G22,09G22,Schule an der Wuhlheide (Grundschule),09G22@09G22.schule.berlin.de,http://www.grundschule-an-der-wuhlheide.de,,VDSL 50,50,28. Oktober 2020,,,,,,Kottmeierstr. 2,12459,52.462579,13.524106,MagentaZuhause XL,250 MBit/s,40 MBit/s,300 MBit/s
09G23,09G23,Hauptmann-von-Köpenick-Schule (Grundschule),hvkschule@t-online.de,http://www.hvkschule.de,,VDSL 100,100,28. Oktober 2020,,,,,,Borgmannstr. 2,12555,52.45624,13.58095,MagentaZuhause XL,250 MBit/s,40 MBit/s,300 MBit/s
09G24,09G24a,Müggelsee-Schule (Grundschule),info@mueggelsee-grundschule.de,http://www.mueggelsee-grundschule.de,,SVDSL 175,175,28. Oktober 2020,,,,,,Aßmannstr. 63,12587,52.45072,13.62746,MagentaZuhause XL,175 MBit/s,40 MBit/s,300 MBit/s
09G24,09G24b,Müggelsee-Schule (Grundschule),,,,VDSL 100,100,28. Oktober 2020,,,,,Filiale,Rahnsdorfer Str. 35,12587,52.450956,13.632986,MagentaZuhause L,100 MBit/s,40 MBit/s,300 MBit/s
09G25,09G25,Müggelschlößchen-Schule (Grundschule),mueggelschloesschen-schule@t-online.de,http://www.ms-schule.de,,SVDSL 250,250,28. Oktober 2020,,,,,,Alfred-Randt-Str. 56,12559,52.43884,13.6059,MagentaZuhause XL,250 MBit/s,40 MBit/s,300 MBit/s
09G26,09G26,Schule an den Püttbergen (Grundschule),Sekretariat@09G26.schule.berlin.de,http://www.schule-an-den-puettbergen.de,,DSL 16000 RAM IP,16,28. Oktober 2020,,,,,,Fürstenwalder Allee 182,12589,52.43385,13.70158,MagentaZuhause M,25 MBit/s,5 MBit/s,300 MBit/s
09G27,09G27,Friedrichshagener Schule (Grundschule),09g27@09g27.schule.berlin.de,http://www.friehagrund.de,,VDSL 100,100,28. Oktober 2020,,,,,,Peter-Hille-Str. 7,12587,52.454606,13.621399,MagentaZuhause L,100 MBit/s,40 MBit/s,300 MBit/s
09G29,09G29,Schmöckwitzer Insel-Schule (Grundschule),grundschule-schmoeckwitz@gmx.de,http://www.schmöckis.de,,SVDSL 250,250,28. Oktober 2020,,,,,,Adlergestell 776,12527,52.376769,13.647546,MagentaZuhause XL,250 MBit/s,40 MBit/s,300 MBit/s
09G30,09G30,Kiefholz-Grundschule,sekretariat@kiefholz.schule.berlin.de,http://kiefholz-grundschule.de,,VDSL 50,50,28. Oktober 2020,,,,,,Kiefholzstr. 45,12435,52.48626,13.45609,MagentaZuhause M,50 MBit/s,10 MBit/s,300 MBit/s
09G31,09G31,31. Schule,,,,SVDSL 175,175,28. Oktober 2020,,,,,,Keplerstr. 10,12459,52.459334,13.532459,MagentaZuhause XL,175 MBit/s,40 MBit/s,300 MBit/s
09K01,09K01a,Merian-Schule (Integrierte Sekundarschule),Sekretariat-Hoernlestrasse@09K01.schule.berlin.de,http://www.merian.schule,,VDSL 100,100,28. Oktober 2020,,,,,,Hoernlestr. 80,12555,52.46431,13.57643,MagentaZuhause XL,250 MBit/s,40 MBit/s,300 MBit/s
09K01,09K01b,Merian-Schule (Integrierte Sekundarschule),,,,VDSL 100,100,28. Oktober 2020,,,,,Filiale,Mittelheide 49,12555,52.462941,13.590616,MagentaZuhause XL,250 MBit/s,40 MBit/s,300 MBit/s
09K02,09K02,Anna-Seghers-Schule (Gemeinschaftsschule),09k02@09k02.schule.berlin.de,http://www.anna-seghers-schule.de,,VDSL 50,50,28. Oktober 2020,,,,,,Radickestr. 43,12489,52.435416,13.548246,MagentaZuhause XL,250 MBit/s,40 MBit/s,300 MBit/s
09K03,09K03a,Fritz-Kühn-Schule,sekretariat@fritz-kuehn-schule.de,http://www.fritz-kuehn-schule.de,,SVDSL 250,250,28. Oktober 2020,,,,,,Dahmestr. 45,12526,52.40141,13.5647,MagentaZuhause XL,250 MBit/s,40 MBit/s,300 MBit/s
09K03,09K03b,Fritz-Kühn-Schule,,,,SVDSL 250,250,28. Oktober 2020,,,,,Filiale,Dahmestr. 36,12526,52.401705,13.569518,MagentaZuhause via Funk,50 MBit/s,10 MBit/s,0
09K04,09K04,Isaac-Newton-Schule (Integrierte Sekundarschule),sekretariat@isaac-newton-schule.de,http://www.isaac-newton-schule.de,,VDSL 100,100,28. Oktober 2020,,,,,,Zeppelinstr. 76-80,12459,52.4659,13.51817,MagentaZuhause L,100 MBit/s,40 MBit/s,300 MBit/s
09K05,09K05,Wilhelm-Bölsche-Schule (Integrierte Sekundarschule),Sekretariat@boelsche.schule.berlin.de,http://wilhelm-boelsche-schule.de/,,VDSL 100,100,28. Oktober 2020,,,,,,Aßmannstr. 11,12587,52.45109,13.61894,MagentaZuhause L,100 MBit/s,40 MBit/s,300 MBit/s
09K06,09K06,Hans-Grade-Schule (Integrierte Sekundarschule),09k06@09k06.schule.berlin.de,http://hans-grade-schule.de,,VDSL 50,50,28. Oktober 2020,,,,,,Heubergerweg 37,12487,52.444484,13.499022,MagentaZuhause L,100 MBit/s,40 MBit/s,300 MBit/s
09K07,09K07a,Sophie-Brahe-Gemeinschaftsschule,sophie-brahe-schule@gmx.de,http://www.sophie-brahe-schule.de,,VDSL 100,100,28. Oktober 2020,,,,,,Am Plänterwald 17,12435,52.48171,13.47804,MagentaZuhause L,100 MBit/s,40 MBit/s,300 MBit/s
09K07,09K07b,Sophie-Brahe-Gemeinschaftsschule,,,,SVDSL 250,250,28. Oktober 2020,,,,,2. Anschluss,Am Plänterwald 23,12435,52.482445,13.478755,MagentaZuhause XL,250 MBit/s,40 MBit/s,300 MBit/s
09K07,09K07c,Sophie-Brahe-Gemeinschaftsschule,,,,VDSL 50,50,28. Oktober 2020,,,,,AS,Willi-Sänger-Str. 1,12437,52.47731,13.484477,MagentaZuhause via Funk,50 MBit/s,10 MBit/s,300 MBit/s
09K08,09K08,Schule an der Dahme (Integrierte Sekundarschule),info@dahmeschule.de,http://www.dahmeschule.de/,,SVDSL 175,175,28. Oktober 2020,,,,,,Glienicker Str. 24 -30,12557,52.44056,13.56727,MagentaZuhause XL,175 MBit/s,40 MBit/s,300 MBit/s
09K09,09K09,Grünauer Gemeinschaftsschule,sekretariat@gruenauer-schule.de,http://www.gruenauer-schule.de,,VDSL 50,50,28. Oktober 2020,,,,,,Walchenseestr. 40,12527,52.419368,13.576124,MagentaZuhause L,100 MBit/s,40 MBit/s,300 MBit/s
09S03,09S03,Albatros-Schule,info@albatros.schule.berlin.de,http://www.albatros.schule-berlin.de,,DSL 16000 RAM IP,16,28. Oktober 2020,,,,,,Treskowallee 222,12459,52.471245,13.516154,MagentaZuhause S,16 MBit/s,"2,4 MBit/s",300 MBit/s
09S04,09S04a,Ahorn-Schule,09S04@09S04.schule.berlin.de,http://www.ahorn-schule.de,,SVDSL 175,175,28. Oktober 2020,,,,,,Peter-Hille-Str. 118,12587,52.44782,13.61966,MagentaZuhause XL,175 MBit/s,40 MBit/s,300 MBit/s
09S04,09S04b,Ahorn-Schule,,,,VDSL 50,50,28. Oktober 2020,,,,,Filiale,Stillerzeile 100,12587,52.453681,13.603770,MagentaZuhause via Funk,50 MBit/s,10 MBit/s,300 MBit/s
09S06,09S06,Schule am Wildgarten,foerderzentrum.trep-koep@t-online.de,http://www.schule-wildgarten.de,,SVDSL 250,250,28. Oktober 2020,,,,,,Köpenicker Landstr. 185A,12437,52.473436,13.48707,MagentaZuhause XL,175 MBit/s,40 MBit/s,300 MBit/s
09Y03,09Y03,Archenhold-Gymnasium,sekretariat@archenhold.de,http://pi.archenhold.de,,RIB 1000 mBit,1000,28. Oktober 2020,,,,,,Rudower Str. 7,12439,52.4514,13.52271,MagentaZuhause S,6 MBit/s,"2,4 MBit/s",300 MBit/s
09Y04,09Y04,Anne-Frank-Gymnasium,sekretariat@afg.schule.berlin.de,http://www.anne-frank-schule-berlin.de,,SVDSL 250,250,28. Oktober 2020,,,,,,Uranusstr. 15 -17,12524,52.399327,13.525296,MagentaZuhause XL,250 MBit/s,40 MBit/s,300 MBit/s
09Y05,09Y05,Alexander-von-Humboldt-Gymnasium,sekretariat@avh-schule.de,http://www.avh-schule.de,,SVDSL 250,250,28. Oktober 2020,,,,,,Oberspreestr. 173,12555,52.445252,13.566972,MagentaZuhause XL,250 MBit/s,40 MBit/s,300 MBit/s
09Y06,09Y06,Gerhart-Hauptmann-Gymnasium,sekretariat@ghs-berlin.de,http://www.ghs-berlin.de,,VDSL 100,100,28. Oktober 2020,,,,,,Bruno-Wille-Str. 37-45,12587,52.45227,13.63269,MagentaZuhause L,100 MBit/s,40 MBit/s,300 MBit/s
09Y10,09Y10,Gebrüder-Montgolfier-Gymnasium,sekretariat@gemont.de,http://www.gemont.de,,VDSL 100,100,28. Oktober 2020,,,,,,Ellernweg 20-22,12487,52.44833,13.50379,MagentaZuhause XL,175 MBit/s,40 MBit/s,300 MBit/s
09Y11,09Y11,Emmy-Noether-Gymnasium,sekretariat@noether-gymnasium.de,http://www.noether-gymnasium.de,,VDSL 100,100,28. Oktober 2020,,,,,,Pablo-Neruda-Str. 6-7,12559,52.44275,13.588735,MagentaZuhause L,100 MBit/s,40 MBit/s,300 MBit/s
10G01,10G01,Paavo-Nurmi-Grundschule,nurmi-grundschule@gmx.de,http://www.paavo-nurmi-grundschule.de,,DSL 16000,16,September 2019,VDSL 100 IP,100,17. Februar 2021,Schulamt Marzahn-Hellersdorf,Hauptstandort,Schorfheidestr. 42,12689,52.570866,13.576437,MagentaZuhause L,100 MBit/s,40 MBit/s,300 MBit/s
10G03,10G03,Selma-Lagerlöf-Grundschule,slagerloefg@aol.com,http://www.slgs.de,,VDSL 50,50,September 2019,SVDSL 250,250,17. Februar 2021,Schulamt Marzahn-Hellersdorf,Hauptstandort,Wörlitzer Str. 31,12689,52.56767,13.57023,MagentaZuhause XL,250 MBit/s,40 MBit/s,300 MBit/s
10G04,10G04,Falken-Grundschule,sekretariat@falken-gs.schule.berlin.de,http://www.falken-grundschule.de,,VDSL 50,50,September 2019,SVDSL 250,250,17. Februar 2021,Schulamt Marzahn-Hellersdorf,Hauptstandort,Geraer Ring 2,12689,52.56593,13.5564,MagentaZuhause XL,250 MBit/s,40 MBit/s,300 MBit/s
10G05,10G05,Ebereschen-Grundschule,ebereschen-gs@hotmail.de,http://www.ebereschen-grundschule.de,,DSL 16000,16,September 2019,SVDSL 250,250,17. Februar 2021,Schulamt Marzahn-Hellersdorf,Hauptstandort,Borkheider Str. 27,12689,52.56407,13.57294,MagentaZuhause XL,250 MBit/s,40 MBit/s,300 MBit/s
10G07,10G07,Karl-Friedrich-Friesen-Grundschule,K.-F.-Friesen-Grundschule@t-online.de,http://kff.schule,,VDSL 100,100,September 2019,SVDSL 175,175,17. Februar 2021,Schulamt Marzahn-Hellersdorf,Hauptstandort,Max-Herrmann-Str. 5,12687,52.55335,13.56415,MagentaZuhause XL,250 MBit/s,40 MBit/s,300 MBit/s
10G08,10G08,Wilhelm-Busch-Grundschule,Wilhelm-Busch-GS@t-online.de,http://wilhelm-busch-gs.de,,DSL 6000,6,September 2019,SVDSL 175,175,17. Februar 2021,Schulamt Marzahn-Hellersdorf,Hauptstandort,Parsteiner Ring 24,12679,52.55325,13.58137,MagentaZuhause XL,175 MBit/s,40 MBit/s,300 MBit/s
10G09,10G09,Grundschule am Bürgerpark,sekretariat@buergerpark.schule.berlin.de,http://www.gs-am-buergerpark.de,,VDSL 100,100,September 2019,SVDSL 250,250,17. Februar 2021,Schulamt Marzahn-Hellersdorf,Hauptstandort,Jan-Petersen-Str. 18B,12679,52.55062,13.56569,MagentaZuhause XL,250 MBit/s,40 MBit/s,300 MBit/s
10G10,10G10,Peter-Pan-Grundschule,Sekretariat@peter-pan.schule.berlin.de,http://www.peter-pan-grundschule.de,,VDSL 100,100,September 2019,SVDSL 175,175,17. Februar 2021,Schulamt Marzahn-Hellersdorf,Hauptstandort,Stolzenhagener Str. 9,12679,52.548156,13.551672,MagentaZuhause XL,250 MBit/s,40 MBit/s,300 MBit/s
10G11,10G11,Grundschule an der Mühle,schulleitung@10G11.schule.berlin.de,,,DSL 6000,6,September 2019,VDSL 50 IP,50,17. Februar 2021,Schulamt Marzahn-Hellersdorf,Hauptstandort,Kienbergstr. 59,12685,52.53976,13.5657,MagentaZuhause M,50 MBit/s,10 MBit/s,300 MBit/s
10G12,10G12,Grundschule an der Geißenweide,sekretariat@geissenweide.schule.berlin.de,http://www.gsadgw.de,,DSL 16000,16,September 2019,VDSL 50 IP,50,17. Februar 2021,Schulamt Marzahn-Hellersdorf,Hauptstandort,Amanlisweg 40,12685,52.537783,13.551797,MagentaZuhause L,100 MBit/s,40 MBit/s,300 MBit/s
10G13,10G13,Johann-Strauss-Grundschule,sekretariat@johannstrauss.schule.berlin.de,http://www.johann-strauss-grundschule.de,,VDSL 25,25,September 2019,VDSL 100 IP,100,17. Februar 2021,Schulamt Marzahn-Hellersdorf,Hauptstandort,Cecilienstr. 81,12683,52.52982,13.55966,MagentaZuhause XL,175 MBit/s,40 MBit/s,300 MBit/s
10G14,10G14,Grundschule unter dem Regenbogen,10g14@10g14.schule.berlin.de,http://www.grundschule-unterm-regenbogen.de,,DSL 16000,16,September 2019,SVDSL 250,250,17. Februar 2021,Schulamt Marzahn-Hellersdorf,Hauptstandort,Murtzaner Ring 37,12681,52.5301,13.54212,MagentaZuhause XL,250 MBit/s,40 MBit/s,300 MBit/s
10G16,10G16,Fuchsberg-Grundschule,Sekretariat@fuchsberg.schule.berlin.de,http://www.grundschule-fuchsberg.de,,DSL 16000,16,September 2019,VDSL 50 IP,50,17. Februar 2021,Schulamt Marzahn-Hellersdorf,Hauptstandort,Dankratweg 19,12683,52.49039,13.551484,MagentaZuhause via Funk,50 MBit/s,10 MBit/s,0
10G17,10G17,Beatrix-Potter-Grundschule,Sekretariat@beatrix-potter.schule.berlin.de,http://www.beatrix-potter-grundschule.de,,DSL 6000,6,September 2019,SVDSL 250,250,17. Februar 2021,Schulamt Marzahn-Hellersdorf,Hauptstandort,Ludwigsfelder Str. 7,12629,52.54682,13.58926,MagentaZuhause XL,250 MBit/s,40 MBit/s,300 MBit/s
10G18,10G18a,Pusteblume-Grundschule,sekretariat@pusteblume-Grundschule.de,http://www.pusteblume-grundschule.de,,VDSL 100,100,September 2019,VDSL 100 IP,100,17. Februar 2021,Schulamt Marzahn-Hellersdorf,Hauptstandort,Kastanienallee 118,12627,52.54256,13.6001,MagentaZuhause L,100 MBit/s,40 MBit/s,300 MBit/s
10G18,10G18b,Pusteblume-Grundschule,,,,DSL 16000,16,September 2019,VDSL 100 IP,100,17. Februar 2021,Schulamt Marzahn-Hellersdorf,Filiale,Kastanienallee 61,12627,52.540970,13.599913,MagentaZuhause XL,250 MBit/s,40 MBit/s,300 MBit/s
10G19,10G19a,Bücherwurm-Schule am Weiher (Grundschule),schulleitung@buecherwurm.schule.berlin.de,http://www.buecherwurm-grundschule.de,,DSL 6000,6,September 2019,VDSL 25 IP,25,25. Februar 2021,Schulamt Marzahn-Hellersdorf,Hauptstandort,Eilenburger Str. 1,12627,52.54068,13.62913,MagentaZuhause L,100 MBit/s,40 MBit/s,300 MBit/s
10G19,10G19b,Bücherwurm-Schule am Weiher (Grundschule),,,,DSL 16000,16,September 2019,,,,,Filiale,Eilenburger Str. 6-8,12627,52.539784,13.630111,MagentaZuhause via Funk,50 MBit/s,10 MBit/s,0
10G22,10G22,Kolibri-Grundschule,10G22@10G22.schule.berlin.de,http://www.kolibri-grundschule.de,,VDSL 100,100,September 2019,VDSL 100 IP,100,17. Februar 2021,Schulamt Marzahn-Hellersdorf,Hauptstandort,Schönewalder Str. 9,12627,52.532527,13.618558,MagentaZuhause L,100 MBit/s,40 MBit/s,300 MBit/s
10G25,10G25,Grundschule am Schleipfuhl,schulleitung@schleipfuhl.schule.berlin.de,http://www.grundschule-am-schleipfuhl.de,,DSL 16000,16,September 2019,SVDSL 175,175,17. Februar 2021,Schulamt Marzahn-Hellersdorf,Hauptstandort,Nossener Str. 85,12627,52.52913,13.6081,MagentaZuhause XL,175 MBit/s,40 MBit/s,300 MBit/s
10G26,10G26,Friedrich-Schiller-Grundschule,sekretariat@fsg.schule.berlin.de,http://friedrich-schiller-grundschule.de,,DSL 16000,16,September 2019,SVDSL 250,250,17. Februar 2021,Schulamt Marzahn-Hellersdorf,Hauptstandort,An der Schule 13-17,12623,52.5115,13.614782,MagentaZuhause XL,250 MBit/s,40 MBit/s,300 MBit/s
10G28,10G28,Grundschule am Hollerbusch,10G28@10G28.schule.berlin.de,http://www.ganztaegig-lernen.de/grundschule-am-hollerbusch-berlin,,DSL 16000,16,September 2019,SVDSL 250,250,17. Februar 2021,Schulamt Marzahn-Hellersdorf,Hauptstandort,Erich-Kästner-Str. 64,12619,52.52593,13.59512,MagentaZuhause XL,250 MBit/s,40 MBit/s,300 MBit/s
10G29,10G29,Grundschule an der Wuhle,grundschulea.d.wuhle@gmx.de,http://grundschuleanderwuhle.de,,DSL 16000,16,September 2019,1GB-Anschluss Glasfaser über Vattenfall,1000,17. Februar 2021,Schulamt Marzahn-Hellersdorf,Hauptstandort,Teterower Ring 79,12619,52.52118,13.58041,MagentaZuhause S,16 MBit/s,"2,4 MBit/s",300 MBit/s
10G30,10G30,Mahlsdorfer Grundschule,sekretariat@mahlsdorfer-gs.schule.berlin.de,http://www.mahlsdorfer-grundschule.de,,DSL 6000,6,September 2019,1GB Glasfaser-Anschluss über Vodafone,1000,17. Februar 2021,Schulamt Marzahn-Hellersdorf,Hauptstandort,Feldrain 47,12623,52.522102,13.628787,MagentaZuhause S,16 MBit/s,"2,4 MBit/s",300 MBit/s
10G31,10G31,Franz-Carl-Achard-Grundschule,sekretariat@achard.schule.berlin.de,http://www.achard-grundschule.org,,DSL 16000,16,September 2019,SVDSL 250,250,17. Februar 2021,Schulamt Marzahn-Hellersdorf,Hauptstandort,Adolfstr. 25,12621,52.507928,13.585120,MagentaZuhause XL,175 MBit/s,40 MBit/s,300 MBit/s
10G32,10G32,Kiekemal-Schule (Grundschule),10G32@10G32.schule.berlin.de,http://www.kiekemal-grundschule.de,,DSL 16000,16,September 2019,SVDSL 250,250,17. Februar 2021,Schulamt Marzahn-Hellersdorf,Hauptstandort,Hultschiner Damm 219,12623,52.49407,13.60915,MagentaZuhause XL,250 MBit/s,40 MBit/s,300 MBit/s
10G33,10G33,Ulmen-Grundschule,10g33@10g33.schule.berlin.de,http://www.ulmenschule.de,,VDSL 25,25,September 2019,VDSL 50 IP,50,17. Februar 2021,Schulamt Marzahn-Hellersdorf,Hauptstandort,Ulmenstr. 79-85,12621,52.48584,13.58006,MagentaZuhause M,50 MBit/s,10 MBit/s,300 MBit/s
10G34,10G34,Schule am grünen Stadtrand,10G34@10G34.schule.berlin.de,http://www.schule-am-gruenen-stadtrand.de,,DSL 6000,6,September 2019,SVDSL 250,250,17. Februar 2021,Schulamt Marzahn-Hellersdorf,Hauptstandort,Geraer Ring 54,12689,52.56973,13.56193,MagentaZuhause XL,250 MBit/s,40 MBit/s,300 MBit/s
10K01,10K01,Rudolf-Virchow-Schule,kontakt@rvo-berlin.de,http://www.rvo-berlin.de,,SVDSL 250,25,September 2019,SVDSL 250,250,17. Februar 2021,Schulamt Marzahn-Hellersdorf,Hauptstandort,Glambecker Ring 90,12679,52.5555,13.57573,MagentaZuhause XL,250 MBit/s,40 MBit/s,300 MBit/s
10K02,10K02,Ernst-Haeckel-Schule,haeckel-os@arcor.de,,,DSL 6000,6,September 2019,VDSL 50 IP,50,17. Februar 2021,Schulamt Marzahn-Hellersdorf,Hauptstandort,Luckenwalder Str. 53,12629,52.54322,13.58574,MagentaZuhause L,100 MBit/s,40 MBit/s,300 MBit/s
10K03,10K03,Kerschensteiner-Schule,k-iss@gmx.net,http://www.k-iss.de,,VDSL 100,100,September 2019,VDSL 100 IP,100,17. Februar 2021,Schulamt Marzahn-Hellersdorf,Hauptstandort,Golliner Str. 2,12689,52.56681,13.579505,MagentaZuhause XL,175 MBit/s,40 MBit/s,300 MBit/s
10K05,10K05,Jean-Piaget-Schule,jean-piaget.oberschule@berlin.de,http://www.piaget-schule-berlin.de,,VDSL 50,50,September 2019,SVDSL 175,175,17. Februar 2021,Schulamt Marzahn-Hellersdorf,Hauptstandort,Mittenwalder Str. 5,12629,52.54542,13.59615,MagentaZuhause XL,250 MBit/s,40 MBit/s,300 MBit/s
10K06,10K06a,Georg-Klingenberg-Schule,sekretariat@klingenberg.schule.berlin.de,http://www.georg-klingenberg.schule,,VDSL 100,100,September 2019,SVDSL 250,250,17. Februar 2021,Schulamt Marzahn-Hellersdorf,Hauptstandort,Alberichstr. 24,12683,52.49015,13.55783,MagentaZuhause XL,250 MBit/s,40 MBit/s,300 MBit/s
10K06,10K06b,Georg-Klingenberg-Schule,,,,VDSL 100,100,September 2019,,,,,2. Anschluss,,,52.490637,13.557930,MagentaZuhause XL,250 MBit/s,40 MBit/s,300 MBit/s
10K07,10K07,Caspar-David-Friedrich-Schule,cdf-schulsekretariat@web.de,http://cdf-oberschule.de,,DSL 6000,6,September 2019,SVDSL 250,250,17. Februar 2021,Schulamt Marzahn-Hellersdorf,Hauptstandort,Alte Hellersdorfer Str. 7,12629,52.535223,13.591017,MagentaZuhause S,6 MBit/s,"2,4 MBit/s",300 MBit/s
10K08,10K08,Johann-Julius-Hecker-Schule,hecker@jjh-iss.de,http://www.jjh-iss.de,,DSL 16000,16,September 2019,SVDSL 250,250,17. Februar 2021,Schulamt Marzahn-Hellersdorf,Hauptstandort,Hohenwalder Str. 2,12689,52.56993,13.57866,MagentaZuhause XL,250 MBit/s,40 MBit/s,300 MBit/s
10K09,10K09,Konrad-Wachsmann-Schule,sekretariat@konrad-wachsmann.schule.berlin.de,http://www.konrad-wachsmann-schule.de,,DSL 16000,16,September 2019,SVDSL 250,250,17. Februar 2021,Schulamt Marzahn-Hellersdorf,Hauptstandort,Geithainer Str. 12,12627,52.529047,13.622082,MagentaZuhause XL,250 MBit/s,40 MBit/s,300 MBit/s
10K10,10K10,Wolfgang-Amadeus-Mozart-Schule (Gemeinschaftsschule),sekretariat@mozart.schule.berlin.de,www.mozart-schule.berlin,,DSL 16000,16,September 2019,SVDSL 175,175,17. Februar 2021,Schulamt Marzahn-Hellersdorf,Hauptstandort,Cottbusser Str. 23,12627,52.53699,13.59663,MagentaZuhause XL,175 MBit/s,40 MBit/s,300 MBit/s
10K11,10K11,Marcana-Schule (Gemeinschaftsschule),marcanaschule@t-online.de,http://www.marcana-schule.de,,DSL 16000,16,September 2019,VDSL 100 IP,100,17. Februar 2021,Schulamt Marzahn-Hellersdorf,Hauptstandort,Flämingstr. 16-18,12689,52.56382,13.56592,MagentaZuhause L,100 MBit/s,40 MBit/s,300 MBit/s
10K12,10K12a,Gretel-Bergmann-Gemeinschaftsschule,gb-gems@mail.de,https://gretel-bergmann-gems.de/,,DSL 16000,16,September 2019,VDSL 100 IP,100,17. Februar 2021,Schulamt Marzahn-Hellersdorf,Hauptstandort,Liebensteiner Straße 24,12687,52.557970,13.560062,MagentaZuhause XL,250 MBit/s,40 MBit/s,300 MBit/s
10K12,10K12b,Gretel-Bergmann-Gemeinschaftsschule,,,,,,,SVDSL 175,175,17. Februar 2021,Schulamt Marzahn-Hellersdorf,2. Anschluss,Liebensteiner Straße 24,12687,52.558390,13.561979,,,,
10K13,10K13,13. Schule (Integrierte Sekundarschule),sekretariat@10K13.schule.berlin.de,,,VDSL 50,50,September 2019,VDSL 50 IP,50,17. Februar 2021,Schulamt Marzahn-Hellersdorf,Hauptstandort,An der Schule 41-59,12623,52.508010,13.615787,MagentaZuhause M,50 MBit/s,10 MBit/s,300 MBit/s
10S04,10S04,Schule am Pappelhof,info@pappelhof.schule.berlin.de,http://schule-am-pappelhof.de,,VDSL 50,50,September 2019,VDSL 50 IP,50,17. Februar 2021,Schulamt Marzahn-Hellersdorf,Hauptstandort,Ketschendorfer Weg 21,12683,52.531157,13.553338,MagentaZuhause M,50 MBit/s,10 MBit/s,300 MBit/s
10S07,10S07,Schule am Rosenhain,Sekretariat@rosenhain.schule.berlin.de,,,DSL 16000,16,September 2019,VDSL 50 IP,50,17. Februar 2021,Schulamt Marzahn-Hellersdorf,Hauptstandort,Klingenthaler Str. 32,12627,52.53,13.60199,MagentaZuhause via Funk,50 MBit/s,10 MBit/s,0
10S08,10S08,Schule am Mummelsoll,schulleitung@10S08.schule.berlin.de,http://www.mummelsoll.de,,DSL 16000,16,September 2019,VDSL 50 IP,50,17. Februar 2021,Schulamt Marzahn-Hellersdorf,Hauptstandort,Eilenburger Str. 4,12627,52.540282,13.629414,MagentaZuhause M,50 MBit/s,10 MBit/s,300 MBit/s
10Y01,10Y01,Tagore-Gymnasium,schulleitung@tagore-gymnasium.de,http://www.tagore-gymnasium.de,,DSL 16000,16,September 2019,SVDSL 250,250,17. Februar 2021,Schulamt Marzahn-Hellersdorf,Hauptstandort,Sella-Hasse-Str. 25,12687,52.55271,13.55658,MagentaZuhause XL,250 MBit/s,40 MBit/s,300 MBit/s
10Y02,10Y02,Otto-Nagel-Gymnasium,sekretariat@otto-nagel-gymnasium.de,http://ong.berlin,,VDSL 100,100,September 2019,2x 250 Mbit/s + 100 Mbit/s,600,8. Dezember 2021,Schule,Hauptstandort,Schulstr. 11,12683,52.511922,13.549199,MagentaZuhause XL,250 MBit/s,40 MBit/s,300 MBit/s
10Y03,10Y03,Wilhelm-von-Siemens-Gymnasium,schulleitung@wvsg.schule.berlin.de,http://wivonsi.be.schule.de,,VDSL 100,100,September 2019,VDSL 100 IP,100,17. Februar 2021,Schulamt Marzahn-Hellersdorf,Hauptstandort,Allee der Kosmonauten 134,12683,52.533571,13.551106,MagentaZuhause L,100 MBit/s,40 MBit/s,300 MBit/s
10Y08,10Y08,Sartre-Gymnasium,sekretariat@sartre-gymnasium.de,sartre-gymnasium.de,,VDSL 100,100,September 2019,SVDSL 175,175,17. Februar 2021,Schulamt Marzahn-Hellersdorf,Hauptstandort,Kyritzer Str. 103,12629,52.54332,13.59106,MagentaZuhause XL,250 MBit/s,40 MBit/s,300 MBit/s
10Y11,10Y11a,Melanchthon-Gymnasium,spieler@melanchthon-schule-berlin.de,http://www.melanchthon-schule-berlin.de,,VDSL 25,25,September 2019,VDSL 50 IP,50,17. Februar 2021,Schulamt Marzahn-Hellersdorf,Hauptstandort,Adele-Sandrock-Str. 73-75,12627,52.534367,13.618584,MagentaZuhause XL,175 MBit/s,40 MBit/s,300 MBit/s
10Y11,10Y11b,Melanchthon-Gymnasium,,,,VDSL 25,25,September 2019,,,,,2. Anschluss,,,52.534901,13.618280,MagentaZuhause XL,175 MBit/s,40 MBit/s,300 MBit/s
11G01,11G01,Sonnenuhr-Schule (Grundschule),11G01@11G01.schule.berlin.de,http://www.sonnenuhr-schule.de,,DSL 16000,16,September 2019,,,,,Hauptstandort,Franz-Jacob-Str. 33,10369,52.52933,13.46695,MagentaZuhause XL,250 MBit/s,40 MBit/s,300 MBit/s
11G02,11G02,Schule am Roederplatz (Grundschule),sekretariat-gs-am-roederplatz@t-online.de,http://gs-am-roederplatz.de,,VDSL 50,50,September 2019,,,,,Hauptstandort,Bernhard-Bästlein-Str. 22,10367,52.52899,13.48214,MagentaZuhause XL,250 MBit/s,40 MBit/s,300 MBit/s
11G03,11G03,Schule im Gutspark (Grundschule),sekretariat@gutspark.schule.berlin.de,http://www.grundschule-im-gutspark.de,,DSL 16000,16,September 2019,,,,,Hauptstandort,Josef-Orlopp-Str. 20,10367,52.52237,13.48307,MagentaZuhause XL,175 MBit/s,40 MBit/s,300 MBit/s
11G05,11G05a,Schule auf dem lichten Berg (Grundschule),schulleitung@11G05.schule.berlin.de,http://www.gs-lichtenberg-berlin.de,,VDSL 100,100,September 2019,,,,,Hauptstandort,Atzpodienstr. 19,10365,52.51686,13.49421,MagentaZuhause L,100 MBit/s,40 MBit/s,300 MBit/s
11G05,11G05b,Schule auf dem lichten Berg (Grundschule),,,,VDSL 25,25,September 2019,,,,,Filiale,Siegfriedstr. 208-210,10365,52.513152,13.497628,MagentaZuhause L,100 MBit/s,40 MBit/s,300 MBit/s
11G06,11G06,Adam-Ries-Schule (Grundschule),sekretariat-11g06@gmx.de,http://www.adamries.schule,,VDSL 50,50,September 2019,,,,,Hauptstandort,Alt-Friedrichsfelde 66,10315,52.5114,13.53125,MagentaZuhause XL,250 MBit/s,40 MBit/s,300 MBit/s
11G07,11G07,Hermann-Gmeiner-Schule (Grundschule),Schulleitung@gmeiner.schule.berlin.de,http://www.gmeiner-schule-berlin.de,,VDSL 25,25,September 2019,,,,,Hauptstandort,Harnackstr. 17,10365,52.5101,13.48594,MagentaZuhause L,100 MBit/s,40 MBit/s,300 MBit/s
11G08,11G08,Robinson-Schule (Grundschule),11g08@11g08.schule.berlin.de,http://www.robinsonschule-berlin.de,,DSL 16000,16,September 2019,,,,,Hauptstandort,Wönnichstr. 7,10317,52.510047,13.50046,MagentaZuhause XL,175 MBit/s,40 MBit/s,300 MBit/s
11G09,11G09,Bürgermeister-Ziethen-Schule (Grundschule),sekretariat@buezie.schule.berlin.de,http://www.buezie.de,,DSL 16000,16,September 2019,,,,,Hauptstandort,Massower Str. 39,10315,52.50818,13.51665,MagentaZuhause S,16 MBit/s,"2,4 MBit/s",300 MBit/s
11G10,11G10,Schule im Ostseekarree (Grundschule),Sekretariat@11G10.schule.berlin.de,http://www.ostseekarree.net,,DSL 16000,16,September 2019,,,,,Hauptstandort,Barther Str. 27,13051,52.56409,13.50024,MagentaZuhause XL,250 MBit/s,40 MBit/s,300 MBit/s
11G11,11G11,Bernhard-Grzimek-Schule (Grundschule),Sekretariat@grzimek.schule.berlin.de,http://bernhard-grzimek-schule.de,,VDSL 25,25,September 2019,,,,,Hauptstandort,Sewanstr. 184,10319,52.49572,13.51176,MagentaZuhause M,50 MBit/s,10 MBit/s,300 MBit/s
11G12,11G12,Lew-Tolstoi-Schule (Grundschule),sekretariat@11g12.schule.berlin.de,http://www.lew-tolstoi-schule.de,,DSL 16000,16,September 2019,,,,,Hauptstandort,Römerweg 120,10318,52.49199,13.53678,MagentaZuhause L,100 MBit/s,40 MBit/s,0
11G13,11G13,Karlshorster Schule (Grundschule),Sekr.KarlshorsterG@t-online.de,http://www.karlshorster-grundschule.de,,DSL 16000,16,September 2019,,,,,Hauptstandort,Lisztstr. 6,10318,52.48925,13.51994,MagentaZuhause XL,250 MBit/s,40 MBit/s,300 MBit/s
11G14,11G14,Richard-Wagner-Schule (Grundschule),sekretariat@richard-wagner.schule.berlin.de,http://www.richard-wagner-grundschule.de,,VDSL 50,50,September 2019,,,,,Hauptstandort,Ehrenfelsstr. 36,10318,52.479326,13.53427,MagentaZuhause L,100 MBit/s,40 MBit/s,300 MBit/s
11G16,11G16a,Schule an der Victoriastadt (Grundschule),11g16@11g16.schule.berlin.de,http://www.gs-victoriastadt.de,,DSL 16000,16,September 2019,,,,,Hauptstandort,Nöldnerstr. 44,10317,52.50159,13.48054,MagentaZuhause XL,175 MBit/s,40 MBit/s,300 MBit/s
11G16,11G16b,Schule an der Victoriastadt (Grundschule),,,,DSL 16000,16,September 2019,,,,,2. Anschluss,,,52.500867,13.480844,MagentaZuhause XL,175 MBit/s,40 MBit/s,300 MBit/s
11G17,11G17,Brodowin-Schule (Grundschule),11G17@11G17.schule.berlin.de,http://www.brodowinschule.de,,VDSL 50,50,September 2019,,,,,Hauptstandort,Liebenwalder Str. 22,13055,52.53738,13.50067,MagentaZuhause XL,250 MBit/s,40 MBit/s,300 MBit/s
11G18,11G18,Schule am Wilhelmsberg (Grundschule),Wilhelmsberg@t-online.de,http://www.gs-am-wilhelmsberg.de,,VDSL 50,50,September 2019,,,,,Hauptstandort,Sandinostr. 8,13055,52.537206,13.483664,MagentaZuhause via Funk,50 MBit/s,10 MBit/s,0
11G19,11G19,Obersee-Schule (Grundschule),sekretariat@obersee.schule.berlin.de,http://www.obersee-schule.de,,< DSL 16000,6,September 2019,,,,,Hauptstandort,Roedernstr. 69-72,13053,52.543711,13.488079,MagentaZuhause XL,250 MBit/s,40 MBit/s,300 MBit/s
11G21,11G21,Schule Am Faulen See (Grundschule),schule-am-faulen-see@gmx.de,http://www.schule-am-faulen-see.schule-berlin.net,,< DSL 16000,6,September 2019,,,,,Hauptstandort,Degnerstr. 71,13053,52.5521,13.49837,MagentaZuhause L,100 MBit/s,40 MBit/s,300 MBit/s
11G22,11G22,Martin-Niemöller-Grundschule,MN11G22@t-online.de,http://Martin-Niemoeller-Schule.de,,< DSL 16000,6,September 2019,,,,,Hauptstandort,Am Breiten Luch 5,13053,52.56339,13.51209,MagentaZuhause XL,250 MBit/s,40 MBit/s,300 MBit/s
11G23,11G23,Friedrichsfelder Schule (Grundschule),Sekretariat11G23@t-online.de,http://friedrichsfelder-schule.de,,< DSL 16000,6,September 2019,,,,,Hauptstandort,Lincolnstr. 67,10315,52.503,13.50355,MagentaZuhause M,50 MBit/s,10 MBit/s,300 MBit/s
11G25,11G25,Schule am Wäldchen (Grundschule),Grundschule-am-Waeldchen@t-online.de,http://www.schule-am-waeldchen.de,,DSL 16000,16,September 2019,,,,,Hauptstandort,Wustrower Str. 28,13051,52.56846,13.50628,MagentaZuhause L,100 MBit/s,40 MBit/s,300 MBit/s
11G26,11G26,Randow-Schule (Grundschule),Sekretariat@randow.schule.berlin.de,http://www.randow-schule.de,,VDSL 25,25,September 2019,,,,,Hauptstandort,Randowstr. 45,13057,52.56405,13.51904,MagentaZuhause XL,250 MBit/s,40 MBit/s,300 MBit/s
11G28,11G28a,Feldmark-Schule (Grundschule),sekretariat@feldmark.schule.berlin.de,http://www.Feldmark-Schule.de,,VDSL 50,50,September 2019,,,,,Hauptstandort,Wartiner Str. 23,13057,52.569161,13.531731,MagentaZuhause XL,250 MBit/s,40 MBit/s,300 MBit/s
11G28,11G28b,Feldmark-Schule (Grundschule),,,,DSL 16000,16,September 2019,,,,,Filiale,,,,,,,,
11G29,11G29,Matibi-Schule (Grundschule),sekretariat-11G29@t-online.de,http://www.matibi-grundschule.de,,VDSL 100,100,September 2019,,,,,Hauptstandort,Prendener Str. 15,13059,52.5724,13.52072,MagentaZuhause XL,175 MBit/s,40 MBit/s,300 MBit/s
11G29,11G29F,Matibi-Schule (Grundschule),,,,VDSL 25,25,September 2019,,,,,Filiale,Straße 3 Nr. 21,13059,52.581300,13.534435,MagentaZuhause L,100 MBit/s,40 MBit/s,300 MBit/s
11G31,11G31,Schmetterlings-Grundschule,Sekretariat@11G31.schule.berlin.de,http://www.schmetterlings-grundschule.de,,VDSL 100,100,September 2019,,,,,Hauptstandort,Dolgenseestr. 60,10319,52.49417,13.50546,MagentaZuhause XL,250 MBit/s,40 MBit/s,300 MBit/s
11G32,11G32,Hans-Rosenthal-Grundschule,11G32@11G32.schule.berlin.de,http://www.11G32.de,,< DSL 16000,6,September 2019,,,,,Hauptstandort,Bernhard-Bästlein-Straße 56,10367,52.531774,13.480860,MagentaZuhause XL,175 MBit/s,40 MBit/s,300 MBit/s
11G33,11G33,33. Schule (Grundschule),11G33@11G33.schule.berlin.de,,,VDSL 100,100,September 2019,,,,,Hauptstandort,Rüdigerstr. 76,10365,52.516342,13.501205,MagentaZuhause XL,250 MBit/s,40 MBit/s,300 MBit/s
11G34,11G34,34. Schule (Grundschule),11G34@11G34.schule.berlin.de,,,DSL 16000,16,September 2019,,,,,Hauptstandort,Konrad-Wolf-Str. 11,13055,52.547866,13.498831,MagentaZuhause XL,250 MBit/s,40 MBit/s,300 MBit/s
11G35,11G35,35. Schule (Grundschule),11g35@11g35.schule.berlin.de,,,,-,September 2019,,,,,Hauptstandort,Sewanstr. 43,10319,52.498978,13.502358,MagentaZuhause XL,250 MBit/s,40 MBit/s,300 MBit/s
11K01,11K01,Alexander-Puschkin-Schule,mail@puschkinschule.eu,http://www.puschkinschule.eu,,DSL 16000,16,September 2019,,,,,Hauptstandort,Massower Str. 37,10315,52.50795,13.51556,MagentaZuhause S,16 MBit/s,"2,4 MBit/s",300 MBit/s
11K02,11K02,Mildred-Harnack-Schule,sekretariat@mh.schule.berlin.de,http://www.mildred-harnack-schule.de,,VDSL 25,25,September 2019,,,,,Hauptstandort,Schulze-Boysen-Str. 12,10365,52.511321,13.481213,MagentaZuhause XL,250 MBit/s,40 MBit/s,300 MBit/s
11K04,11K04,Gutenberg-Schule,gutenberg-os@t-online.de,http://www.gutenberg-os.de,,DSL 16000,16,September 2019,,,,,Hauptstandort,Sandinostr. 10,13055,52.53573,13.48743,MagentaZuhause XL,250 MBit/s,40 MBit/s,300 MBit/s
11K05,11K05,Fritz-Reuter-Schule,fritz@fritz-reuter-oberschule.de,http://www.Fritz-Reuter-Oberschule.de,,VDSL 50,50,September 2019,,,,,Hauptstandort,Prendener Str. 29,13059,52.570237,13.52104,MagentaZuhause XL,250 MBit/s,40 MBit/s,300 MBit/s
11K06,11K06a,Schule am Rathaus,OberschuleamRathaus@t-online.de,http://www.schuleamrathaus.de,,VDSL 50,50,September 2019,,,,,Hauptstandort,Rathausstr. 8,10367,52.515571,13.480570,MagentaZuhause L,100 MBit/s,40 MBit/s,300 MBit/s
11K06,11K06b,Schule am Rathaus,,,,VDSL 50,50,September 2019,,,,,2. Anschluss,,,52.515574,13.481397,MagentaZuhause L,100 MBit/s,40 MBit/s,300 MBit/s
11K07,11K07,Vincent-van-Gogh-Schule,vincent-van-gogh@t-online.de,,,DSL 16000,16,September 2019,,,,,Hauptstandort,Wustrower Str. 26,13051,52.5678,13.50702,MagentaZuhause L,100 MBit/s,40 MBit/s,300 MBit/s
11K08,11K08,George-Orwell-Schule,info@george-orwell-oberschule.de,http://www.george-orwell-oberschule.de,,DSL 16000,16,September 2019,,,,,Hauptstandort,Sewanstr. 223,10319,52.496354,13.514933,MagentaZuhause L,100 MBit/s,40 MBit/s,300 MBit/s
11K09,11K09a,Philipp-Reis-Schule,info@philipp-reis-oberschule.de,http://www.philipp-reis-oberschule.de,,DSL 16000,16,September 2019,,,,,Hauptstandort,Werneuchener Str. 15,13055,52.53952,13.49572,MagentaZuhause XL,175 MBit/s,40 MBit/s,300 MBit/s
11K09,11K09b,Philipp-Reis-Schule,,,,DSL 16000,16,September 2019,,,,,2. Anschluss,,,52.539833,13.495250,MagentaZuhause XL,175 MBit/s,40 MBit/s,300 MBit/s
11K10,11K10a,Grüner Campus Malchow,schulleiter@gruener-campus-malchow.de,http://www.gruener-campus-malchow.de,,< DSL 16000,6,September 2019,,,,,Hauptstandort,Malchower Chaussee 2,13051,52.571659,13.484038,MagentaZuhause S,16 MBit/s,"2,4 MBit/s",300 MBit/s
11K10,11K10b,Grüner Campus Malchow,,,,DSL 16000,16,September 2019,,,,,Filiale,Doberaner Str. 55,13051,52.569228,13.491782,MagentaZuhause S,16 MBit/s,"2,4 MBit/s",300 MBit/s
11K10,11K10c,Grüner Campus Malchow,,,,,,September 2019,,,,,Filiale,,,52.568691,13.492416,MagentaZuhause S,16 MBit/s,"2,4 MBit/s",300 MBit/s
11K10,11K10d,Grüner Campus Malchow,,,,DSL 16000,16,September 2019,,,,,Filiale,,,52.569924,13.492111,MagentaZuhause S,16 MBit/s,"2,4 MBit/s",300 MBit/s
11K11,11K11a,Paul-Schmidt-Schule (Integrierte Sekundarschule),info@paul-schmidt-schule.de,http://www.paul-schmidt-schule.de,,VDSL 50,50,September 2019,,,,,Hauptstandort,Malchower Weg 54,13053,52.55475,13.50438,MagentaZuhause XL,250 MBit/s,40 MBit/s,300 MBit/s
11K11,11K11b,Paul-Schmidt-Schule (Integrierte Sekundarschule),,,,VDSL 25,25,September 2019,,,,,Filiale,Rüdickenstraße 24,13053,52.560901,13.507430,MagentaZuhause XL,250 MBit/s,40 MBit/s,300 MBit/s
11K12,11K12a,Paul-und-Charlotte-Kniese-Schule (Gemeinschaftsschule),sekretariat@kniese-schule-berlin.de,http://www.kniese-schule-berlin.de,,DSL 16000,16,September 2019,,,,,Hauptstandort,Erich-Kurz-Str. 6-10,10319,52.498846,13.519748,MagentaZuhause S,16 MBit/s,"2,4 MBit/s",300 MBit/s
11K12,11K12b,Paul-und-Charlotte-Kniese-Schule (Gemeinschaftsschule),,,,,-,September 2019,,,,,Filiale,Dolgenseestr. 60,10319,52.494202,13.505215,MagentaZuhause XL,250 MBit/s,40 MBit/s,300 MBit/s
11S02,11S02,Schule am Fennpfuhl,Schule-am-Fennpfuhl@t-online.de,,,VDSL 50,50,September 2019,,,,,Hauptstandort,Alfred-Jung-Str. 19,10369,52.52392,13.4769,MagentaZuhause XL,250 MBit/s,40 MBit/s,300 MBit/s
11S04,11S04,Paul-und-Charlotte-Kniese-Schule,sekretariat@kniese-schule-berlin.de,http://www.kniese-schule-berlin.de,,DSL 16000,16,September 2019,,,,,Hauptstandort,Erich-Kurz-Str. 6-10,10319,52.498353,13.519085,MagentaZuhause S,16 MBit/s,"2,4 MBit/s",300 MBit/s
11S05,11S05,Schule am grünen Grund,schule-am-gruenen-grund@t-online.de,,,< DSL 16000,6,September 2019,,,,,Hauptstandort,Herzbergstr. 79,10365,52.52822,13.50858,MagentaZuhause S,6 MBit/s,"2,4 MBit/s",300 MBit/s
11S06,11S06,Selma-Lagerlöf-Schule,sekretariat@11S06.schule.berlin.de,http://www.sprachheilschule-selma-lagerloef.de,,VDSL 100,100,September 2019,,,,,Doppelstandort,Bernhard-Bästlein-Str. 56,10367,52.53183,13.47998,MagentaZuhause XL,175 MBit/s,40 MBit/s,300 MBit/s
11S07,11S07,Carl-von-Linné-Schule,sekretariat@linne.schule.berlin.de,,,DSL 16000,16,September 2019,,,,,Hauptstandort,Paul-Junius-Str. 15,10367,52.5217,13.47301,MagentaZuhause L,100 MBit/s,40 MBit/s,300 MBit/s
11S08,11S08,Schule Am Breiten Luch,Sekretariat@11S08.schule.berlin.de,,,DSL 16000,16,September 2019,,,,,Hauptstandort,Am Breiten Luch 19,13053,52.5627,13.5136,MagentaZuhause XL,250 MBit/s,40 MBit/s,300 MBit/s
11S12,11S12,Nils-Holgersson-Schule,mail@nils-holgersson-schule-berlin.de,,,DSL 16000,16,September 2019,,,,,Hauptstandort,Otto-Marquardt-Str. 12-14,10369,52.53405,13.47214,MagentaZuhause L,100 MBit/s,40 MBit/s,300 MBit/s
11Y02,11Y02,Johann-Gottfried-Herder-Gymnasium,sekretariat@jgherder.de,http://www.jgherder.de,,VDSL 25,25,September 2019,,,,,Hauptstandort,Franz-Jacob-Str. 8,10369,52.52671,13.467245,MagentaZuhause L,100 MBit/s,40 MBit/s,300 MBit/s
11Y05,11Y05,Hans-und-Hilde-Coppi-Gymnasium,sekretariat@coppi-gym.de,http://www.coppi-gym.de,,< DSL 16000,6,September 2019,,,,,Hauptstandort,Römerweg 30-32,10318,52.4918,13.52343,MagentaZuhause S,6 MBit/s,"2,4 MBit/s",300 MBit/s
11Y09,11Y09a,Barnim-Gymnasium,kontakt@barnim-gymnasium.net,http://www.barnim-gymnasium.net,,VDSL 100,100,September 2019,,,,,Hauptstandort,Ahrensfelder Chaussee 41,13057,52.569201,13.549303,MagentaZuhause XL,175 MBit/s,40 MBit/s,300 MBit/s
11Y09,11Y09b,Barnim-Gymnasium,,,,VDSL 100,100,September 2019,,,,,2. Anschluss,,,52.570012,13.547932,MagentaZuhause XL,175 MBit/s,40 MBit/s,300 MBit/s
11Y09,11Y09c,Barnim-Gymnasium,,,,DSL 16000,16,September 2019,,,,,Filiale,,,,,,,,
11Y10,11Y10,Manfred-von-Ardenne-Gymnasium,info@ardenne-gymnasium.de,http://www.ardenne-gymnasium.de,,VDSL 100,100,September 2019,,,,,Hauptstandort,Werneuchener Str. 27-28,13055,52.54188,13.49242,MagentaZuhause XL,250 MBit/s,40 MBit/s,300 MBit/s
11Y11,11Y11,Immanuel-Kant-Gymnasium,sekretariat@kant-gymnasium.de,http://www.kant-gymnasium.de,,VDSL 100,100,September 2019,,,,,Hauptstandort,Lückstr. 63,10317,52.501956,13.489635,MagentaZuhause XL,250 MBit/s,40 MBit/s,300 MBit/s
12G01,12G01,Havelmüller-Grundschule,12G01@12G01.schule.berlin.de,http://havelmueller-grundschule.de,,,100,Oktober 2020,,,,,,Namslaustr. 49-57,13507,52.578512,13.284936,MagentaZuhause L,100 MBit/s,40 MBit/s,300 MBit/s
12G02,12G02,Grundschule am Schäfersee,schulleitung@schaefersee-grundschule.de,http://www.schaefersee-grundschule.de,,,250,Oktober 2020,,,,,,Baseler Str. 2-6,13407,52.5622,13.3554,MagentaZuhause via Funk,50 MBit/s,10 MBit/s,0
12G03,12G03,Reginhard-Grundschule,12g03@12g03.schule.berlin.de,http://www.reginhard.cidsnet.de,,,250,Oktober 2020,,,,,,Letteallee 39-41,13409,52.563219,13.370292,MagentaZuhause XL,250 MBit/s,40 MBit/s,300 MBit/s
12G04,12G04,Till-Eulenspiegel-Grundschule,sekretariat@eulenspiegel-schule-berlin.de,http://www.eulenspiegel-schule-berlin.de,,,100,Oktober 2020,,,,,,Humboldtstr. 8-13,13407,52.5732,13.3423,MagentaZuhause L,100 MBit/s,40 MBit/s,300 MBit/s
12G05,12G05,Kolumbus-Grundschule,Kolumbus-Grundschule@t-online.de,http://www.kolumbus-schule.de,,,250,Oktober 2020,,,,,,Büchsenweg 23A,13409,52.57569,13.36622,MagentaZuhause XL,250 MBit/s,40 MBit/s,0
12G06,12G06,Hausotter-Grundschule,hausotter-grundschule@gmx.de,http://hausotter-grundschule.de,,,250,Oktober 2020,,,,,,Hausotterplatz 4,13409,52.56963,13.375634,MagentaZuhause XL,175 MBit/s,40 MBit/s,300 MBit/s
12G07,12G07,Mark-Twain-Grundschule,schulleitung@twainmail.de,http://www.twainweb.de,,,250,Oktober 2020,,,,,,Auguste-Viktoria-Allee 95,13403,52.56864,13.3264,MagentaZuhause XL,175 MBit/s,40 MBit/s,300 MBit/s
12G09,12G09,Grundschule an der Peckwisch,schulleitung@peckwisch.de,http://www.peckwisch.de,,,100,Oktober 2020,,,,,,Tornower Weg 26-34,13439,52.59299,13.34869,MagentaZuhause L,100 MBit/s,40 MBit/s,300 MBit/s
12G10,12G10,Peter-Witte-Grundschule,sekretariat@12g10.schule.berlin.de,http://www.peter-witte-schule.de,,,100,Oktober 2020,,,,,,Rathauspromenade 75,13437,52.5863,13.33039,MagentaZuhause via Funk,50 MBit/s,10 MBit/s,0
12G11,12G11,Ringelnatz-Grundschule,Ringelnatz-Schule@t-online.de,http://www.ringelnatz-grundschule.de/,,,100,Oktober 2020,,,,,,Wilhelm-Gericke-Str. 7,13437,52.5861,13.33753,MagentaZuhause L,100 MBit/s,40 MBit/s,300 MBit/s
12G12,12G12,Borsigwalder Grundschule,sekretariat@borsigwaldergs.de,http://borsigwaldergs.de,,,100,Oktober 2020,,,,,,Miraustr. 100,13509,52.58822,13.30561,MagentaZuhause M,50 MBit/s,10 MBit/s,300 MBit/s
12G13,12G13,Franz-Marc-Grundschule,sekretariat@fmg.schule.berlin.de,http://www.fmg-tegel.de,,,250,Oktober 2020,,,,,,Treskowstr. 26-31,13507,52.58822,13.2828,MagentaZuhause XL,175 MBit/s,40 MBit/s,300 MBit/s
12G14,12G14,Alfred-Brehm-Grundschule,brehm-schule@web.de,http://www.alfred-brehm-schule.de,,,100,Oktober 2020,,,,,,Ascheberger Weg 8A,13507,52.57359,13.28368,MagentaZuhause M,50 MBit/s,10 MBit/s,300 MBit/s
12G15,12G15,Hoffmann-von-Fallersleben-Grundschule,Sekretariat@hvfg.schule.berlin.de,http://www.fallersleben-grundschule-berlin.de,,,250,Oktober 2020,,,,,,Ziekowstr. 80-88,13509,52.58744,13.29515,MagentaZuhause XL,250 MBit/s,40 MBit/s,300 MBit/s
12G17,12G17,Ellef-Ringnes-Grundschule,sekretariat@erg.schule.berlin.de,http://www.ellef-ringnes-grundschule.de,,,250,Oktober 2020,,,,,,Im Erpelgrund 11-17,13503,52.60802,13.23202,MagentaZuhause XL,250 MBit/s,40 MBit/s,300 MBit/s
12G18,12G18,Grundschule am Tegelschen Ort,info@grundschule-tegelort.de,http://www.grundschule-tegelort.de,,,250,Oktober 2020,,,,,,Gerlindeweg 11-23,13505,52.576181,13.228007,MagentaZuhause XL,250 MBit/s,40 MBit/s,300 MBit/s
12G19,12G19,Münchhausen-Grundschule,muenchhausen-gs@web.de,http://www.muenchhausen-grundschule.de,,,250,Oktober 2020,,,,,,Artemisstr. 22-26,13469,52.60851,13.31718,MagentaZuhause XL,250 MBit/s,40 MBit/s,300 MBit/s
12G20,12G20,Grundschule am Vierrutenberg,sekretariat@gs-am-vierrutenberg.de,http://www.grundschule-am-vierrutenberg.de,,,100,Oktober 2020,,,,,,Am Vierrutenberg 59-65,13469,52.617516,13.339396,MagentaZuhause L,100 MBit/s,40 MBit/s,300 MBit/s
12G21,12G21,Grundschule am Fließtal,buero@gsfliesstal.de,http://www.grundschule-am-fliesstal.de,,,250,Oktober 2020,,,,,,Seebadstr. 42-43,13467,52.61528,13.32062,MagentaZuhause XL,250 MBit/s,40 MBit/s,300 MBit/s
12G22,12G22,Gustav-Dreyer-Grundschule,schulleitung@gustav-dreyer-schule.de,http://www.gustav-dreyer-schule.de,,,100,Oktober 2020,,,,,,Freiherr-vom-Stein-Str. 31,13467,52.61309,13.30379,MagentaZuhause L,100 MBit/s,40 MBit/s,300 MBit/s
12G23,12G23,Victor-Gollancz-Grundschule,schule@gollancz.de,http://www.victor-gollancz-grundschule.de,,,250,Oktober 2020,,,,,,Gollanczstr. 18-24,13465,52.63826,13.28757,MagentaZuhause XL,250 MBit/s,40 MBit/s,300 MBit/s
12G24,12G24,Renée-Sintenis-Grundschule,Renee.Sintenis@t-online.de,http://www.Renee-Sintenis-Grundschule.de,,,250,Oktober 2020,,,,,,Laurinsteig 39-45,13465,52.63695,13.27237,MagentaZuhause XL,250 MBit/s,40 MBit/s,300 MBit/s
12G26,12G26,Märkische Grundschule,26.G@staatliche-Europa-schule.de,http://www.staatliche-europa-schule.de,,,100,Oktober 2020,,,,,,Dannenwalder Weg 163-165,13439,52.5952,13.36016,MagentaZuhause L,100 MBit/s,40 MBit/s,300 MBit/s
12G27,12G27,Chamisso-Grundschule,info@chamisso-grundschule.de,http://www.chamisso-grundschule.com,,,100,Oktober 2020,,,,,,Senftenberger Ring 27,13435,52.60169,13.35807,MagentaZuhause L,100 MBit/s,40 MBit/s,300 MBit/s
12G28,12G28,Grundschule in den Rollbergen,rollberge@web.de,http://www.rollberge.de,,,250,Oktober 2020,,,,,,Waldshuter Zeile 6,13469,52.609905,13.335731,MagentaZuhause XL,250 MBit/s,40 MBit/s,300 MBit/s
12G29,12G29,Hermann-Schulz-Grundschule,hermann.schulz.grundschule@googlemail.com,http://www.hermann-schulz-grundschule.de,,,100,Oktober 2020,,,,,,Kienhorststr. 67-79,13403,52.57359,13.32554,MagentaZuhause XL,175 MBit/s,40 MBit/s,300 MBit/s
12G30,12G30,Reineke-Fuchs-Grundschule,sekretariat@reineke-fuchs.schule.berlin.de,http://www.reineke-fuchs-grundschule.de/,,,250,Oktober 2020,,,,,,Foxweg 15,13403,52.574,13.30985,MagentaZuhause XL,250 MBit/s,40 MBit/s,300 MBit/s
12G32,12G32,Charlie-Chaplin-Grundschule,charlie-chaplin.grundschule@web.de,http://charlie-chaplin-grundschule.de,,,250,Oktober 2020,,,,,,Wilhelmsruher Damm 90-94,13439,52.59744,13.36465,MagentaZuhause XL,250 MBit/s,40 MBit/s,300 MBit/s
12G33,12G33,Lauterbach-Grundschule,sek.12G33@lauterbach.schule.berlin.de,http://www.lauterbach-schule.de,,,100,Oktober 2020,,,,,,Senftenberger Ring 41,13435,52.603879,13.359443,MagentaZuhause S,6 MBit/s,"2,4 MBit/s",300 MBit/s
12G34,12G34,Otfried-Preußler-Grundschule,sekretariat@ops.schule.berlin.de,http://www.ops-berlin.de,,,250,Oktober 2020,,,,,,Schulzendorfer Str. 99,13503,52.613129,13.227141,MagentaZuhause XL,175 MBit/s,40 MBit/s,300 MBit/s
12K01,12K01,Julius-Leber-Schule,sekretariat@jls-berlin.de,http://www.jls-berlin.de,,,250,Oktober 2020,,,,,,Treskowstr. 26-31,13507,52.58822,13.2828,MagentaZuhause XL,175 MBit/s,40 MBit/s,300 MBit/s
12K02,12K02,Bettina-von-Arnim-Schule,info@bettina-schule.de,http://www.bettina-schule.de,,,16,Oktober 2020,,,,,,Senftenberger Ring 49,13435,52.60511,13.35859,MagentaZuhause S,6 MBit/s,"2,4 MBit/s",300 MBit/s
12K03,12K03,Max-Beckmann-Schule (Integrierte Sekundarschule),schulleitung@m-b-o.net,http://www.m-b-o.net,,,250,Oktober 2020,,,,,,Auguste-Viktoria-Allee 37,13403,52.57153,13.31463,MagentaZuhause XL,250 MBit/s,40 MBit/s,300 MBit/s
12K04,12K04,Paul-Löbe-Schule,paul-loebe-schule@gmx.de,http://www.paul-loebe-schule.de,,,100,Oktober 2020,,,,,,Lindauer Allee 23-25,13407,52.57316,13.35461,MagentaZuhause L,100 MBit/s,40 MBit/s,300 MBit/s
12K05,12K05,Gustav-Freytag-Schule (Integrierte Sekundarschule),kontakt@gustav-freytag-schule.berlin,http://www.gustav-freytag-schule.berlin,,,250,Oktober 2020,,,,,,Breitkopfstr. 66-80,13409,52.56976,13.36575,MagentaZuhause via Funk,50 MBit/s,10 MBit/s,0
12K06,12K06,Benjamin-Franklin-Schule (Integrierte Sekundarschule),info@benjamin-franklin-schule.de,http://www.benjamin-franklin-schule.de,,,250,Oktober 2020,,,,,,Sommerfelder Str. 5-7,13509,52.581447,13.300983,MagentaZuhause XL,175 MBit/s,40 MBit/s,300 MBit/s
12K07,12K07,Jean-Krämer-Schule (Integrierte Sekundarschule) Wittenau,12K07@12K07.schule.berlin.de,http://www.jeankraemerschule.de,,,100,Oktober 2020,,,,,,Alt-Wittenau 8-12,13437,52.58995,13.33545,MagentaZuhause M,50 MBit/s,10 MBit/s,300 MBit/s
12K09,12K09,Carl-Benz-Schule (Integrierte Sekundarschule),sek@cbo-iss.de,,,,250,Oktober 2020,,,,,,Heidenheimer Str. 53-54,13467,52.615646,13.298748,MagentaZuhause XL,175 MBit/s,40 MBit/s,300 MBit/s
12K10,12K10,Carl-Bosch-Schule,buero.cabo@t-online.de,http://www.carlbosch.de,,,100,Oktober 2020,,,,,,Frohnauer Str. 74-80,13467,52.62349,13.29375,MagentaZuhause L,100 MBit/s,40 MBit/s,300 MBit/s
12K11,12K11a,Albrecht-Haushofer-Schule,sekretariat@12k11.schule.berlin.de,http://www.albrecht-haushofer-schule.de,,,100,Oktober 2020,,,,,,Kurzebracker Weg 40-46,13503,52.61914,13.22771,MagentaZuhause L,100 MBit/s,40 MBit/s,300 MBit/s
12K11,12K11b,Albrecht-Haushofer-Schule,,,,,250,Oktober 2020,,,,,Filiale,,,,,,,,
12K12,12K12a,Campus Hannah Höch (Gemeinschaftsschule),12K12@12K12.schule.berlin.de,http://www.campus-hannah-hoech.de,,,100,Oktober 2020,,,,,,Finsterwalder Str. 52-56,13435,52.601189,13.344640,MagentaZuhause XL,250 MBit/s,40 MBit/s,300 MBit/s
12K12,12K12b,Campus Hannah Höch (Gemeinschaftsschule),,,,,250,Oktober 2020,,,,,2. Anschluss,,,52.600521,13.343473,MagentaZuhause XL,250 MBit/s,40 MBit/s,300 MBit/s
12S01,12S01,Stötzner-Schule,verwaltung@stoetznerschule-berlin.de,http://www.stoetznerschule-berlin.de,,,250,Oktober 2020,,,,,,Tietzstr. 26-28,13509,52.584273,13.304873,MagentaZuhause XL,250 MBit/s,40 MBit/s,300 MBit/s
12S03,12S03,Lauterbach-Schule,sek.12S03@lauterbach.schule.berlin.de,http://www.lauterbach-schule.de,,,100,Oktober 2020,,,,,,Senftenberger Ring 41,13435,52.603879,13.359443,MagentaZuhause S,6 MBit/s,"2,4 MBit/s",300 MBit/s
12S04,12S04,Schule am Park,schule.am.park@web.de,http://www.schule-am-park-berlin.de,,,250,Oktober 2020,,,,,,Eichborndamm 276-284,13437,52.594285,13.330313,MagentaZuhause XL,250 MBit/s,40 MBit/s,300 MBit/s
12S05,12S05,Wiesengrund-Schule,wiesengrund-schule@t-online.de,,,,100,Oktober 2020,,,,,,Frohnauer Str. 74-80,13467,52.62349,13.29375,MagentaZuhause L,100 MBit/s,40 MBit/s,300 MBit/s
12S06,12S06,Toulouse-Lautrec-Schule,sekretariat@toulouse-lautrec-schule.de,http://www.toulouse-lautrec-schule.de,,,100,Oktober 2020,,,,,,Miraustr. 120-126,13509,52.58901,13.30389,MagentaZuhause L,100 MBit/s,40 MBit/s,300 MBit/s
12Y01,12Y01,Friedrich-Engels-Gymnasium,feg@freenet.de,http://www.feg.berlin,,,250,Oktober 2020,,,,,,Emmentaler Str. 67,13407,52.56959,13.35743,MagentaZuhause XL,250 MBit/s,40 MBit/s,300 MBit/s
12Y02,12Y02,Europäisches Gymnasium Bertha-von-Suttner,verwaltung@bertha-von-suttner.de,http://www.bertha-von-suttner.de,,,250,Oktober 2020,,,,,,Reginhardstr. 172,13409,52.57145,13.36873,MagentaZuhause XL,250 MBit/s,40 MBit/s,300 MBit/s
12Y03,12Y03,Humboldt-Gymnasium,sekretariat@humboldtschule-berlin.eu,http://www.humboldtschule-berlin.de,,,250,Oktober 2020,,,,,,Hatzfeldtallee 2-4,13509,52.59176,13.28891,MagentaZuhause L,100 MBit/s,40 MBit/s,300 MBit/s
12Y04,12Y04,Gabriele-von-Bülow-Gymnasium,info@gvb-berlin.de,http://www.gvb-berlin.de,,,100,Oktober 2020,,,,,,Tile-Brügge-Weg 63,13509,52.592148,13.297061,MagentaZuhause XL,250 MBit/s,40 MBit/s,300 MBit/s
12Y05,12Y05,Georg-Herwegh-Gymnasium,mail@herwegh-gymnasium.de,http://www.herwegh-gymnasium.de,,,250,Oktober 2020,,,,,,Fellbacher Str. 18-19,13467,52.616834,13.303382,MagentaZuhause M,50 MBit/s,10 MBit/s,300 MBit/s
12Y06,12Y06,Schulfarm Insel Scharfenberg,verwaltung@insel-scharfenberg.de,http://www.insel-scharfenberg.de,,,100,Oktober 2020,,,,,,Schwarzer Weg 101-105,13505,52.574383,13.247293,MagentaZuhause M,50 MBit/s,10 MBit/s,300 MBit/s
12Y07,12Y07a,Romain-Rolland-Gymnasium,sekretariat@roromail.de,http://www.romain-rolland-gymnasium.eu,,,100,Oktober 2020,,,,,,Place Moliere 4,13469,52.598998,13.317865,MagentaZuhause M,50 MBit/s,10 MBit/s,300 MBit/s
12Y07,12Y07b,Romain-Rolland-Gymnasium,,,,,100,Oktober 2020,,,,,Filiale,Place Moliere 1,13469,52.600319,13.318961,MagentaZuhause L,100 MBit/s,40 MBit/s,300 MBit/s
12Y08,12Y08,Thomas-Mann-Gymnasium,sekretariat@tmgberlin.de,http://www.tmgberlin.de,,,100,Oktober 2020,,,,,,Königshorster Str. 10,13439,52.59848,13.35224,MagentaZuhause L,100 MBit/s,50 MBit/s,300 MBit/s